{"type": "FeatureCollection", "properties": {"name": "Ribeira dos Cov\u00f5es", "city": "Coimbra", "source": "OpenStreetMap (ODbL)", "gaps_bridged": 0, "fragments_dropped": 0, "candidates": "synthetic, 1 per ~130 m unless set", "fetched": "2026-09-25"}, "features": [{"type": "Feature", "geometry": {"type": "LineString", "coordinates": [[-8.4551108, 40.1992973], [-8.4551125, 40.199316]]}, "properties": {"role": "edge", "from": "13005605957", "to": "8414761433", "length": 2.08, "culvert": false, "unmapped": false}}, {"type": "Feature", "geometry": {"type": "LineString", "coordinates": [[-8.4551125, 40.199316], [-8.4551083, 40.1994704]]}, "properties": {"role": "edge", "from": "8414761433", "to": "8414761432", "length": 17.17, "culvert": false, "unmapped": false}}, {"type": "Feature", "geometry": {"type": "LineString", "coordinates": [[-8.4551083, 40.1994704], [-8.4550636, 40.1998088]]}, "properties": {"role": "edge", "from": "8414761432", "to": "8414761431", "length": 37.82, "culvert": false, "unmapped": false}}, {"type": "Feature", "geometry": {"type": "LineString", "coordinates": [[-8.4550636, 40.1998088], [-8.4550107, 40.2000666]]}, "properties": {"role": "edge", "from": "8414761431", "to": "8414761430", "length": 29.02, "culvert": false, "unmapped": false}}, {"type": "Feature", "geometry": {"type": "LineString", "coordinates": [[-8.4550107, 40.2000666], [-8.4549992, 40.200254]]}, "properties": {"role": "edge", "from": "8414761430", "to": "8414761429", "length": 20.86, "culvert": false, "unmapped": false}}, {"type": "Feature", "geometry": {"type": "LineString", "coordinates": [[-8.4549992, 40.200254], [-8.4550926, 40.2004172]]}, "properties": {"role": "edge", "from": "8414761429", "to": "12497006156", "length": 19.8, "culvert": false, "unmapped": false}}, {"type": "Feature", "geometry": {"type": "LineString", "coordinates": [[-8.4550926, 40.2004172], [-8.455153, 40.2005634]]}, "properties": {"role": "edge", "from": "12497006156", "to": "8414761428", "length": 17.05, "culvert": false, "unmapped": false}}, {"type": "Feature", "geometry": {"type": "LineString", "coordinates": [[-8.455153, 40.2005634], [-8.4551774, 40.2007093]]}, "properties": {"role": "edge", "from": "8414761428", "to": "8414761427", "length": 16.36, "culvert": false, "unmapped": false}}, {"type": "Feature", "geometry": {"type": "LineString", "coordinates": [[-8.4551774, 40.2007093], [-8.4550554, 40.2010633]]}, "properties": {"role": "edge", "from": "8414761427", "to": "8414761426", "length": 40.7, "culvert": false, "unmapped": false}}, {"type": "Feature", "geometry": {"type": "LineString", "coordinates": [[-8.4550554, 40.2010633], [-8.4546936, 40.2014577]]}, "properties": {"role": "edge", "from": "8414761426", "to": "8414761425", "length": 53.55, "culvert": false, "unmapped": false}}, {"type": "Feature", "geometry": {"type": "LineString", "coordinates": [[-8.4546936, 40.2014577], [-8.454409, 40.2016812]]}, "properties": {"role": "edge", "from": "8414761425", "to": "8414761424", "length": 34.67, "culvert": false, "unmapped": false}}, {"type": "Feature", "geometry": {"type": "LineString", "coordinates": [[-8.454409, 40.2016812], [-8.4541895, 40.2019762]]}, "properties": {"role": "edge", "from": "8414761424", "to": "8414761423", "length": 37.73, "culvert": false, "unmapped": false}}, {"type": "Feature", "geometry": {"type": "LineString", "coordinates": [[-8.4541895, 40.2019762], [-8.4539049, 40.2024202]]}, "properties": {"role": "edge", "from": "8414761423", "to": "8414761422", "length": 54.97, "culvert": false, "unmapped": false}}, {"type": "Feature", "geometry": {"type": "LineString", "coordinates": [[-8.4539049, 40.2024202], [-8.4536935, 40.203035]]}, "properties": {"role": "edge", "from": "8414761422", "to": "8414761421", "length": 70.68, "culvert": false, "unmapped": false}}, {"type": "Feature", "geometry": {"type": "LineString", "coordinates": [[-8.4536935, 40.203035], [-8.4534089, 40.2033797]]}, "properties": {"role": "edge", "from": "8414761421", "to": "8414761420", "length": 45.31, "culvert": false, "unmapped": false}}, {"type": "Feature", "geometry": {"type": "LineString", "coordinates": [[-8.4534089, 40.2033797], [-8.4532219, 40.2035443]]}, "properties": {"role": "edge", "from": "8414761420", "to": "8414761419", "length": 24.23, "culvert": false, "unmapped": false}}, {"type": "Feature", "geometry": {"type": "LineString", "coordinates": [[-8.4532219, 40.2035443], [-8.4529739, 40.203951]]}, "properties": {"role": "edge", "from": "8414761419", "to": "8414761418", "length": 49.89, "culvert": false, "unmapped": false}}, {"type": "Feature", "geometry": {"type": "LineString", "coordinates": [[-8.4529739, 40.203951], [-8.4527341, 40.2044323]]}, "properties": {"role": "edge", "from": "8414761418", "to": "8414761417", "length": 57.26, "culvert": false, "unmapped": false}}, {"type": "Feature", "geometry": {"type": "LineString", "coordinates": [[-8.4527341, 40.2044323], [-8.4524576, 40.2048577]]}, "properties": {"role": "edge", "from": "8414761417", "to": "8414746616", "length": 52.81, "culvert": false, "unmapped": false}}, {"type": "Feature", "geometry": {"type": "LineString", "coordinates": [[-8.4524576, 40.2048577], [-8.4522015, 40.2054228]]}, "properties": {"role": "edge", "from": "8414746616", "to": "8414746615", "length": 66.49, "culvert": false, "unmapped": false}}, {"type": "Feature", "geometry": {"type": "LineString", "coordinates": [[-8.4522015, 40.2054228], [-8.4520443, 40.2058838]]}, "properties": {"role": "edge", "from": "8414746615", "to": "12421947384", "length": 52.97, "culvert": false, "unmapped": false}}, {"type": "Feature", "geometry": {"type": "LineString", "coordinates": [[-8.4520443, 40.2058838], [-8.4519088, 40.2062608]]}, "properties": {"role": "edge", "from": "12421947384", "to": "12421947363", "length": 43.47, "culvert": false, "unmapped": false}}, {"type": "Feature", "geometry": {"type": "LineString", "coordinates": [[-8.4519088, 40.2062608], [-8.4517042, 40.2064038]]}, "properties": {"role": "edge", "from": "12421947363", "to": "8414746614", "length": 23.55, "culvert": false, "unmapped": false}}, {"type": "Feature", "geometry": {"type": "LineString", "coordinates": [[-8.4517042, 40.2064038], [-8.4514941, 40.2065778]]}, "properties": {"role": "edge", "from": "8414746614", "to": "8414746613", "length": 26.32, "culvert": false, "unmapped": false}}, {"type": "Feature", "geometry": {"type": "LineString", "coordinates": [[-8.4514941, 40.2065778], [-8.4511932, 40.2071739]]}, "properties": {"role": "edge", "from": "8414746613", "to": "8414746612", "length": 71.04, "culvert": false, "unmapped": false}}, {"type": "Feature", "geometry": {"type": "LineString", "coordinates": [[-8.4511932, 40.2071739], [-8.4507501, 40.2081302]]}, "properties": {"role": "edge", "from": "8414746612", "to": "8414746611", "length": 112.8, "culvert": false, "unmapped": false}}, {"type": "Feature", "geometry": {"type": "LineString", "coordinates": [[-8.4507501, 40.2081302], [-8.4506729, 40.2084904]]}, "properties": {"role": "edge", "from": "8414746611", "to": "8414746609", "length": 40.59, "culvert": false, "unmapped": false}}, {"type": "Feature", "geometry": {"type": "LineString", "coordinates": [[-8.4506729, 40.2084904], [-8.4506322, 40.2087636]]}, "properties": {"role": "edge", "from": "8414746609", "to": "8414746608", "length": 30.57, "culvert": false, "unmapped": false}}, {"type": "Feature", "geometry": {"type": "LineString", "coordinates": [[-8.4506322, 40.2087636], [-8.4506729, 40.2095771]]}, "properties": {"role": "edge", "from": "8414746608", "to": "8414746607", "length": 90.52, "culvert": false, "unmapped": false}}, {"type": "Feature", "geometry": {"type": "LineString", "coordinates": [[-8.4506729, 40.2095771], [-8.4506995, 40.2099093]]}, "properties": {"role": "edge", "from": "8414746607", "to": "8414746606", "length": 37.01, "culvert": false, "unmapped": false}}, {"type": "Feature", "geometry": {"type": "LineString", "coordinates": [[-8.4506995, 40.2099093], [-8.4506298, 40.2104132]]}, "properties": {"role": "edge", "from": "8414746606", "to": "8414746605", "length": 56.34, "culvert": false, "unmapped": false}}, {"type": "Feature", "geometry": {"type": "LineString", "coordinates": [[-8.4506298, 40.2104132], [-8.4506214, 40.2107631]]}, "properties": {"role": "edge", "from": "8414746605", "to": "14097965629", "length": 38.91, "culvert": false, "unmapped": false}}, {"type": "Feature", "geometry": {"type": "LineString", "coordinates": [[-8.4506214, 40.2107631], [-8.4506185, 40.210884]]}, "properties": {"role": "edge", "from": "14097965629", "to": "14097965628", "length": 13.45, "culvert": true, "unmapped": false}}, {"type": "Feature", "geometry": {"type": "LineString", "coordinates": [[-8.4473498, 40.2149715], [-8.4470346, 40.2150928]]}, "properties": {"role": "edge", "from": "8414746592", "to": "8414746593", "length": 29.97, "culvert": false, "unmapped": false}}, {"type": "Feature", "geometry": {"type": "LineString", "coordinates": [[-8.4470346, 40.2150928], [-8.4465559, 40.2152889]]}, "properties": {"role": "edge", "from": "8414746593", "to": "8414746594", "length": 46.13, "culvert": false, "unmapped": false}}, {"type": "Feature", "geometry": {"type": "LineString", "coordinates": [[-8.4465559, 40.2152889], [-8.4459339, 40.2155655]]}, "properties": {"role": "edge", "from": "8414746594", "to": "8414746595", "length": 61.12, "culvert": false, "unmapped": false}}, {"type": "Feature", "geometry": {"type": "LineString", "coordinates": [[-8.4459339, 40.2155655], [-8.4456271, 40.2157374]]}, "properties": {"role": "edge", "from": "8414746595", "to": "8414746596", "length": 32.31, "culvert": false, "unmapped": false}}, {"type": "Feature", "geometry": {"type": "LineString", "coordinates": [[-8.4456271, 40.2157374], [-8.445226, 40.2160102]]}, "properties": {"role": "edge", "from": "8414746596", "to": "8414746597", "length": 45.61, "culvert": false, "unmapped": false}}, {"type": "Feature", "geometry": {"type": "LineString", "coordinates": [[-8.445226, 40.2160102], [-8.4447252, 40.2164176]]}, "properties": {"role": "edge", "from": "8414746597", "to": "8414746598", "length": 62.13, "culvert": false, "unmapped": false}}, {"type": "Feature", "geometry": {"type": "LineString", "coordinates": [[-8.4447252, 40.2164176], [-8.4444474, 40.216685]]}, "properties": {"role": "edge", "from": "8414746598", "to": "8414746599", "length": 37.95, "culvert": false, "unmapped": false}}, {"type": "Feature", "geometry": {"type": "LineString", "coordinates": [[-8.4444474, 40.216685], [-8.4438426, 40.2172895]]}, "properties": {"role": "edge", "from": "8414746599", "to": "8414746600", "length": 84.59, "culvert": false, "unmapped": false}}, {"type": "Feature", "geometry": {"type": "LineString", "coordinates": [[-8.4438426, 40.2172895], [-8.4437303, 40.2173992]]}, "properties": {"role": "edge", "from": "8414746600", "to": "13970848573", "length": 15.48, "culvert": false, "unmapped": false}}, {"type": "Feature", "geometry": {"type": "LineString", "coordinates": [[-8.4437303, 40.2173992], [-8.4436431, 40.2174844]]}, "properties": {"role": "edge", "from": "13970848573", "to": "13970848572", "length": 12.02, "culvert": true, "unmapped": false}}, {"type": "Feature", "geometry": {"type": "LineString", "coordinates": [[-8.4479727, 40.2141504], [-8.4474595, 40.2147736]]}, "properties": {"role": "edge", "from": "8414746590", "to": "8414746591", "length": 81.86, "culvert": true, "unmapped": false}}, {"type": "Feature", "geometry": {"type": "LineString", "coordinates": [[-8.4474595, 40.2147736], [-8.4473498, 40.2149715]]}, "properties": {"role": "edge", "from": "8414746591", "to": "8414746592", "length": 23.9, "culvert": true, "unmapped": false}}, {"type": "Feature", "geometry": {"type": "LineString", "coordinates": [[-8.458149, 40.1939181], [-8.4578124, 40.1941631]]}, "properties": {"role": "edge", "from": "8414761457", "to": "8414761456", "length": 39.49, "culvert": false, "unmapped": false}}, {"type": "Feature", "geometry": {"type": "LineString", "coordinates": [[-8.4578124, 40.1941631], [-8.457753, 40.1942874]]}, "properties": {"role": "edge", "from": "8414761456", "to": "8414761455", "length": 14.71, "culvert": false, "unmapped": false}}, {"type": "Feature", "geometry": {"type": "LineString", "coordinates": [[-8.457753, 40.1942874], [-8.4577808, 40.1945607]]}, "properties": {"role": "edge", "from": "8414761455", "to": "8414761454", "length": 30.48, "culvert": false, "unmapped": false}}, {"type": "Feature", "geometry": {"type": "LineString", "coordinates": [[-8.4577808, 40.1945607], [-8.4578843, 40.1948361]]}, "properties": {"role": "edge", "from": "8414761454", "to": "8414761453", "length": 31.86, "culvert": false, "unmapped": false}}, {"type": "Feature", "geometry": {"type": "LineString", "coordinates": [[-8.4578843, 40.1948361], [-8.4578318, 40.1952799]]}, "properties": {"role": "edge", "from": "8414761453", "to": "8414761452", "length": 49.55, "culvert": false, "unmapped": false}}, {"type": "Feature", "geometry": {"type": "LineString", "coordinates": [[-8.4578318, 40.1952799], [-8.457864, 40.1953631]]}, "properties": {"role": "edge", "from": "8414761452", "to": "8414761451", "length": 9.65, "culvert": false, "unmapped": false}}, {"type": "Feature", "geometry": {"type": "LineString", "coordinates": [[-8.457864, 40.1953631], [-8.4578086, 40.1955514]]}, "properties": {"role": "edge", "from": "8414761451", "to": "8414761450", "length": 21.46, "culvert": false, "unmapped": false}}, {"type": "Feature", "geometry": {"type": "LineString", "coordinates": [[-8.4578086, 40.1955514], [-8.4578024, 40.1958597]]}, "properties": {"role": "edge", "from": "8414761450", "to": "8414761449", "length": 34.29, "culvert": false, "unmapped": false}}, {"type": "Feature", "geometry": {"type": "LineString", "coordinates": [[-8.4578024, 40.1958597], [-8.4577938, 40.1961322]]}, "properties": {"role": "edge", "from": "8414761449", "to": "8414761448", "length": 30.31, "culvert": false, "unmapped": false}}, {"type": "Feature", "geometry": {"type": "LineString", "coordinates": [[-8.4577938, 40.1961322], [-8.4575608, 40.1965846]]}, "properties": {"role": "edge", "from": "8414761448", "to": "8414761447", "length": 54.06, "culvert": false, "unmapped": false}}, {"type": "Feature", "geometry": {"type": "LineString", "coordinates": [[-8.4575608, 40.1965846], [-8.4574361, 40.1967939]]}, "properties": {"role": "edge", "from": "8414761447", "to": "12280173986", "length": 25.57, "culvert": false, "unmapped": false}}, {"type": "Feature", "geometry": {"type": "LineString", "coordinates": [[-8.4574361, 40.1967939], [-8.4573313, 40.1970911]]}, "properties": {"role": "edge", "from": "12280173986", "to": "12280173985", "length": 34.22, "culvert": false, "unmapped": false}}, {"type": "Feature", "geometry": {"type": "LineString", "coordinates": [[-8.4573313, 40.1970911], [-8.4572806, 40.1971792]]}, "properties": {"role": "edge", "from": "12280173985", "to": "8414761446", "length": 10.7, "culvert": false, "unmapped": false}}, {"type": "Feature", "geometry": {"type": "LineString", "coordinates": [[-8.4572806, 40.1971792], [-8.4571865, 40.1972212]]}, "properties": {"role": "edge", "from": "8414761446", "to": "8414761445", "length": 9.26, "culvert": true, "unmapped": false}}, {"type": "Feature", "geometry": {"type": "LineString", "coordinates": [[-8.458461, 40.1935528], [-8.458149, 40.1939181]]}, "properties": {"role": "edge", "from": "8414761458", "to": "8414761457", "length": 48.5, "culvert": true, "unmapped": false}}, {"type": "Feature", "geometry": {"type": "LineString", "coordinates": [[-8.4571865, 40.1972212], [-8.4569409, 40.1973967]]}, "properties": {"role": "edge", "from": "8414761445", "to": "8414761444", "length": 28.56, "culvert": false, "unmapped": false}}, {"type": "Feature", "geometry": {"type": "LineString", "coordinates": [[-8.4546894, 40.1781662], [-8.4553653, 40.178617]]}, "properties": {"role": "edge", "from": "8414761485", "to": "8414761484", "length": 76.22, "culvert": false, "unmapped": false}}, {"type": "Feature", "geometry": {"type": "LineString", "coordinates": [[-8.4553653, 40.178617], [-8.4559983, 40.1789203]]}, "properties": {"role": "edge", "from": "8414761484", "to": "8414761483", "length": 63.48, "culvert": false, "unmapped": false}}, {"type": "Feature", "geometry": {"type": "LineString", "coordinates": [[-8.4559983, 40.1789203], [-8.456685, 40.1790597]]}, "properties": {"role": "edge", "from": "8414761483", "to": "8414761482", "length": 60.36, "culvert": false, "unmapped": false}}, {"type": "Feature", "geometry": {"type": "LineString", "coordinates": [[-8.456685, 40.1790597], [-8.4575433, 40.179158]]}, "properties": {"role": "edge", "from": "8414761482", "to": "8414761481", "length": 73.73, "culvert": false, "unmapped": false}}, {"type": "Feature", "geometry": {"type": "LineString", "coordinates": [[-8.4575433, 40.179158], [-8.4580153, 40.1794613]]}, "properties": {"role": "edge", "from": "8414761481", "to": "8414761480", "length": 52.4, "culvert": false, "unmapped": false}}, {"type": "Feature", "geometry": {"type": "LineString", "coordinates": [[-8.4580153, 40.1794613], [-8.4589324, 40.1798689]]}, "properties": {"role": "edge", "from": "8414761480", "to": "8414761479", "length": 90.14, "culvert": false, "unmapped": false}}, {"type": "Feature", "geometry": {"type": "LineString", "coordinates": [[-8.4589324, 40.1798689], [-8.459524, 40.1802926]]}, "properties": {"role": "edge", "from": "8414761479", "to": "8414761478", "length": 68.89, "culvert": false, "unmapped": false}}, {"type": "Feature", "geometry": {"type": "LineString", "coordinates": [[-8.459524, 40.1802926], [-8.4606824, 40.1811683]]}, "properties": {"role": "edge", "from": "8414761478", "to": "8414761477", "length": 138.44, "culvert": false, "unmapped": false}}, {"type": "Feature", "geometry": {"type": "LineString", "coordinates": [[-8.4606824, 40.1811683], [-8.4610891, 40.1816202]]}, "properties": {"role": "edge", "from": "8414761477", "to": "8414761476", "length": 60.98, "culvert": false, "unmapped": false}}, {"type": "Feature", "geometry": {"type": "LineString", "coordinates": [[-8.4610891, 40.1816202], [-8.4615328, 40.1823829]]}, "properties": {"role": "edge", "from": "8414761476", "to": "8414761475", "length": 92.81, "culvert": false, "unmapped": false}}, {"type": "Feature", "geometry": {"type": "LineString", "coordinates": [[-8.4615328, 40.1823829], [-8.4614765, 40.1830421]]}, "properties": {"role": "edge", "from": "8414761475", "to": "8414761474", "length": 73.46, "culvert": false, "unmapped": false}}, {"type": "Feature", "geometry": {"type": "LineString", "coordinates": [[-8.4614765, 40.1830421], [-8.4619725, 40.1842223]]}, "properties": {"role": "edge", "from": "8414761474", "to": "8414761473", "length": 137.83, "culvert": false, "unmapped": false}}, {"type": "Feature", "geometry": {"type": "LineString", "coordinates": [[-8.4619725, 40.1842223], [-8.4625254, 40.1852348]]}, "properties": {"role": "edge", "from": "8414761473", "to": "8414761472", "length": 121.99, "culvert": false, "unmapped": false}}, {"type": "Feature", "geometry": {"type": "LineString", "coordinates": [[-8.4625254, 40.1852348], [-8.4627694, 40.185856]]}, "properties": {"role": "edge", "from": "8414761472", "to": "8414761471", "length": 72.12, "culvert": false, "unmapped": false}}, {"type": "Feature", "geometry": {"type": "LineString", "coordinates": [[-8.4627694, 40.185856], [-8.4627582, 40.1860318]]}, "properties": {"role": "edge", "from": "8414761471", "to": "10829759857", "length": 19.57, "culvert": false, "unmapped": false}}, {"type": "Feature", "geometry": {"type": "LineString", "coordinates": [[-8.4627582, 40.1860318], [-8.4627124, 40.1867505]]}, "properties": {"role": "edge", "from": "10829759857", "to": "8414761470", "length": 80.01, "culvert": false, "unmapped": false}}, {"type": "Feature", "geometry": {"type": "LineString", "coordinates": [[-8.4627124, 40.1867505], [-8.4625823, 40.1879493]]}, "properties": {"role": "edge", "from": "8414761470", "to": "8414761469", "length": 133.76, "culvert": false, "unmapped": false}}, {"type": "Feature", "geometry": {"type": "LineString", "coordinates": [[-8.4625823, 40.1879493], [-8.462501, 40.1882723]]}, "properties": {"role": "edge", "from": "8414761469", "to": "8414761468", "length": 36.57, "culvert": false, "unmapped": false}}, {"type": "Feature", "geometry": {"type": "LineString", "coordinates": [[-8.462501, 40.1882723], [-8.4622896, 40.1886574]]}, "properties": {"role": "edge", "from": "8414761468", "to": "8414761467", "length": 46.43, "culvert": false, "unmapped": false}}, {"type": "Feature", "geometry": {"type": "LineString", "coordinates": [[-8.4622896, 40.1886574], [-8.4615904, 40.1896512]]}, "properties": {"role": "edge", "from": "8414761467", "to": "8414761466", "length": 125.46, "culvert": false, "unmapped": false}}, {"type": "Feature", "geometry": {"type": "LineString", "coordinates": [[-8.4615904, 40.1896512], [-8.4609767, 40.1906127]]}, "properties": {"role": "edge", "from": "8414761466", "to": "8414761465", "length": 118.95, "culvert": false, "unmapped": false}}, {"type": "Feature", "geometry": {"type": "LineString", "coordinates": [[-8.4609767, 40.1906127], [-8.4608406, 40.1910376]]}, "properties": {"role": "edge", "from": "8414761465", "to": "13005605964", "length": 48.64, "culvert": false, "unmapped": false}}, {"type": "Feature", "geometry": {"type": "LineString", "coordinates": [[-8.4608406, 40.1910376], [-8.4606573, 40.191194]]}, "properties": {"role": "edge", "from": "13005605964", "to": "13005605963", "length": 23.34, "culvert": true, "unmapped": false}}, {"type": "Feature", "geometry": {"type": "LineString", "coordinates": [[-8.4569409, 40.1973967], [-8.4567616, 40.197622]]}, "properties": {"role": "edge", "from": "8414761444", "to": "8414761443", "length": 29.32, "culvert": false, "unmapped": false}}, {"type": "Feature", "geometry": {"type": "LineString", "coordinates": [[-8.4567616, 40.197622], [-8.4566066, 40.1980468]]}, "properties": {"role": "edge", "from": "8414761443", "to": "8414761442", "length": 49.04, "culvert": false, "unmapped": false}}, {"type": "Feature", "geometry": {"type": "LineString", "coordinates": [[-8.4566066, 40.1980468], [-8.4564065, 40.1981603]]}, "properties": {"role": "edge", "from": "8414761442", "to": "8414761441", "length": 21.17, "culvert": false, "unmapped": false}}, {"type": "Feature", "geometry": {"type": "LineString", "coordinates": [[-8.4564065, 40.1981603], [-8.4562791, 40.1982203]]}, "properties": {"role": "edge", "from": "8414761441", "to": "8414761440", "length": 12.71, "culvert": false, "unmapped": false}}, {"type": "Feature", "geometry": {"type": "LineString", "coordinates": [[-8.4562791, 40.1982203], [-8.4560777, 40.1983209]]}, "properties": {"role": "edge", "from": "8414761440", "to": "8414761439", "length": 20.44, "culvert": false, "unmapped": false}}, {"type": "Feature", "geometry": {"type": "LineString", "coordinates": [[-8.4560777, 40.1983209], [-8.4557996, 40.1985958]]}, "properties": {"role": "edge", "from": "8414761439", "to": "8414761438", "length": 38.63, "culvert": false, "unmapped": false}}, {"type": "Feature", "geometry": {"type": "LineString", "coordinates": [[-8.4557996, 40.1985958], [-8.4555038, 40.1986664]]}, "properties": {"role": "edge", "from": "8414761438", "to": "8414761437", "length": 26.32, "culvert": false, "unmapped": false}}, {"type": "Feature", "geometry": {"type": "LineString", "coordinates": [[-8.4555038, 40.1986664], [-8.4553128, 40.1986806]]}, "properties": {"role": "edge", "from": "8414761437", "to": "8414761436", "length": 16.3, "culvert": false, "unmapped": false}}, {"type": "Feature", "geometry": {"type": "LineString", "coordinates": [[-8.4553128, 40.1986806], [-8.4552173, 40.1988171]]}, "properties": {"role": "edge", "from": "8414761436", "to": "8414761435", "length": 17.21, "culvert": false, "unmapped": false}}, {"type": "Feature", "geometry": {"type": "LineString", "coordinates": [[-8.4552173, 40.1988171], [-8.455094, 40.1991065]]}, "properties": {"role": "edge", "from": "8414761435", "to": "8414761434", "length": 33.84, "culvert": false, "unmapped": false}}, {"type": "Feature", "geometry": {"type": "LineString", "coordinates": [[-8.455094, 40.1991065], [-8.4551016, 40.1991931]]}, "properties": {"role": "edge", "from": "8414761434", "to": "13005605958", "length": 9.65, "culvert": false, "unmapped": false}}, {"type": "Feature", "geometry": {"type": "LineString", "coordinates": [[-8.4551016, 40.1991931], [-8.4551108, 40.1992973]]}, "properties": {"role": "edge", "from": "13005605958", "to": "13005605957", "length": 11.61, "culvert": true, "unmapped": false}}, {"type": "Feature", "geometry": {"type": "LineString", "coordinates": [[-8.4606573, 40.191194], [-8.4602422, 40.1911719]]}, "properties": {"role": "edge", "from": "13005605963", "to": "8414761464", "length": 35.34, "culvert": false, "unmapped": false}}, {"type": "Feature", "geometry": {"type": "LineString", "coordinates": [[-8.4602422, 40.1911719], [-8.460098, 40.191358]]}, "properties": {"role": "edge", "from": "8414761464", "to": "8414761463", "length": 24.05, "culvert": false, "unmapped": false}}, {"type": "Feature", "geometry": {"type": "LineString", "coordinates": [[-8.460098, 40.191358], [-8.4591483, 40.1924944]]}, "properties": {"role": "edge", "from": "8414761463", "to": "8414761462", "length": 149.92, "culvert": false, "unmapped": false}}, {"type": "Feature", "geometry": {"type": "LineString", "coordinates": [[-8.4591483, 40.1924944], [-8.4589369, 40.1927894]]}, "properties": {"role": "edge", "from": "8414761462", "to": "8414761461", "length": 37.4, "culvert": false, "unmapped": false}}, {"type": "Feature", "geometry": {"type": "LineString", "coordinates": [[-8.4589369, 40.1927894], [-8.4587133, 40.1931124]]}, "properties": {"role": "edge", "from": "8414761461", "to": "8414761460", "length": 40.63, "culvert": false, "unmapped": false}}, {"type": "Feature", "geometry": {"type": "LineString", "coordinates": [[-8.4587133, 40.1931124], [-8.4585263, 40.1934633]]}, "properties": {"role": "edge", "from": "8414761460", "to": "8414761459", "length": 42.13, "culvert": false, "unmapped": false}}, {"type": "Feature", "geometry": {"type": "LineString", "coordinates": [[-8.4585263, 40.1934633], [-8.458461, 40.1935528]]}, "properties": {"role": "edge", "from": "8414761459", "to": "8414761458", "length": 11.39, "culvert": false, "unmapped": false}}, {"type": "Feature", "geometry": {"type": "LineString", "coordinates": [[-8.4436431, 40.2174844], [-8.4435087, 40.2176157]]}, "properties": {"role": "edge", "from": "13970848572", "to": "8414746601", "length": 18.53, "culvert": false, "unmapped": false}}, {"type": "Feature", "geometry": {"type": "LineString", "coordinates": [[-8.4435087, 40.2176157], [-8.4432096, 40.2180188]]}, "properties": {"role": "edge", "from": "8414746601", "to": "8414746602", "length": 51.52, "culvert": false, "unmapped": false}}, {"type": "Feature", "geometry": {"type": "LineString", "coordinates": [[-8.4506185, 40.210884], [-8.4506137, 40.2110851]]}, "properties": {"role": "edge", "from": "14097965628", "to": "8414746604", "length": 22.37, "culvert": false, "unmapped": false}}, {"type": "Feature", "geometry": {"type": "LineString", "coordinates": [[-8.4506137, 40.2110851], [-8.4504313, 40.2119126]]}, "properties": {"role": "edge", "from": "8414746604", "to": "8414746603", "length": 93.31, "culvert": false, "unmapped": false}}, {"type": "Feature", "geometry": {"type": "LineString", "coordinates": [[-8.4504313, 40.2119126], [-8.4503471, 40.2120379]]}, "properties": {"role": "edge", "from": "8414746603", "to": "8414746582", "length": 15.66, "culvert": false, "unmapped": false}}, {"type": "Feature", "geometry": {"type": "LineString", "coordinates": [[-8.4503471, 40.2120379], [-8.4501089, 40.2122769]]}, "properties": {"role": "edge", "from": "8414746582", "to": "8414746583", "length": 33.4, "culvert": false, "unmapped": false}}, {"type": "Feature", "geometry": {"type": "LineString", "coordinates": [[-8.4501089, 40.2122769], [-8.4498381, 40.2124801]]}, "properties": {"role": "edge", "from": "8414746583", "to": "8414746584", "length": 32.24, "culvert": false, "unmapped": false}}, {"type": "Feature", "geometry": {"type": "LineString", "coordinates": [[-8.4498381, 40.2124801], [-8.4495205, 40.2126906]]}, "properties": {"role": "edge", "from": "8414746584", "to": "8414746585", "length": 35.71, "culvert": false, "unmapped": false}}, {"type": "Feature", "geometry": {"type": "LineString", "coordinates": [[-8.4495205, 40.2126906], [-8.4493337, 40.2128047]]}, "properties": {"role": "edge", "from": "8414746585", "to": "8414746586", "length": 20.31, "culvert": false, "unmapped": false}}, {"type": "Feature", "geometry": {"type": "LineString", "coordinates": [[-8.4493337, 40.2128047], [-8.4489508, 40.2131435]]}, "properties": {"role": "edge", "from": "8414746586", "to": "8414746587", "length": 49.76, "culvert": false, "unmapped": false}}, {"type": "Feature", "geometry": {"type": "LineString", "coordinates": [[-8.4489508, 40.2131435], [-8.4484884, 40.2136392]]}, "properties": {"role": "edge", "from": "8414746587", "to": "8414746588", "length": 67.67, "culvert": false, "unmapped": false}}, {"type": "Feature", "geometry": {"type": "LineString", "coordinates": [[-8.4484884, 40.2136392], [-8.4480296, 40.2140945]]}, "properties": {"role": "edge", "from": "8414746588", "to": "8414746589", "length": 63.88, "culvert": false, "unmapped": false}}, {"type": "Feature", "geometry": {"type": "LineString", "coordinates": [[-8.4480296, 40.2140945], [-8.4479727, 40.2141504]]}, "properties": {"role": "edge", "from": "8414746589", "to": "8414746590", "length": 7.87, "culvert": false, "unmapped": false}}, {"type": "Feature", "geometry": {"type": "Point", "coordinates": [-8.4551108, 40.1992973]}, "properties": {"role": "node", "id": "13005605957", "dist_to_outlet_m": 2431.2985139461957, "observable": true, "access": false}}, {"type": "Feature", "geometry": {"type": "Point", "coordinates": [-8.4551125, 40.199316]}, "properties": {"role": "node", "id": "8414761433", "dist_to_outlet_m": 2429.214162108379, "observable": true, "access": false}}, {"type": "Feature", "geometry": {"type": "Point", "coordinates": [-8.4551083, 40.1994704]}, "properties": {"role": "node", "id": "8414761432", "dist_to_outlet_m": 2412.0419601469393, "observable": true, "access": false}}, {"type": "Feature", "geometry": {"type": "Point", "coordinates": [-8.4550636, 40.1998088]}, "properties": {"role": "node", "id": "8414761431", "dist_to_outlet_m": 2374.222568508233, "observable": true, "access": true}}, {"type": "Feature", "geometry": {"type": "Point", "coordinates": [-8.4550107, 40.2000666]}, "properties": {"role": "node", "id": "8414761430", "dist_to_outlet_m": 2345.206574297563, "observable": true, "access": false}}, {"type": "Feature", "geometry": {"type": "Point", "coordinates": [-8.4549992, 40.200254]}, "properties": {"role": "node", "id": "8414761429", "dist_to_outlet_m": 2324.3457682336248, "observable": true, "access": false}}, {"type": "Feature", "geometry": {"type": "Point", "coordinates": [-8.4550926, 40.2004172]}, "properties": {"role": "node", "id": "12497006156", "dist_to_outlet_m": 2304.540775513781, "observable": true, "access": false}}, {"type": "Feature", "geometry": {"type": "Point", "coordinates": [-8.455153, 40.2005634]}, "properties": {"role": "node", "id": "8414761428", "dist_to_outlet_m": 2287.4939409150315, "observable": true, "access": false}}, {"type": "Feature", "geometry": {"type": "Point", "coordinates": [-8.4551774, 40.2007093]}, "properties": {"role": "node", "id": "8414761427", "dist_to_outlet_m": 2271.1387859999554, "observable": true, "access": true}}, {"type": "Feature", "geometry": {"type": "Point", "coordinates": [-8.4550554, 40.2010633]}, "properties": {"role": "node", "id": "8414761426", "dist_to_outlet_m": 2230.434931781407, "observable": true, "access": false}}, {"type": "Feature", "geometry": {"type": "Point", "coordinates": [-8.4546936, 40.2014577]}, "properties": {"role": "node", "id": "8414761425", "dist_to_outlet_m": 2176.8863953391287, "observable": true, "access": false}}, {"type": "Feature", "geometry": {"type": "Point", "coordinates": [-8.454409, 40.2016812]}, "properties": {"role": "node", "id": "8414761424", "dist_to_outlet_m": 2142.218795171762, "observable": true, "access": true}}, {"type": "Feature", "geometry": {"type": "Point", "coordinates": [-8.4541895, 40.2019762]}, "properties": {"role": "node", "id": "8414761423", "dist_to_outlet_m": 2104.489275315497, "observable": true, "access": false}}, {"type": "Feature", "geometry": {"type": "Point", "coordinates": [-8.4539049, 40.2024202]}, "properties": {"role": "node", "id": "8414761422", "dist_to_outlet_m": 2049.519670722843, "observable": true, "access": false}}, {"type": "Feature", "geometry": {"type": "Point", "coordinates": [-8.4536935, 40.203035]}, "properties": {"role": "node", "id": "8414761421", "dist_to_outlet_m": 1978.838839154676, "observable": true, "access": true}}, {"type": "Feature", "geometry": {"type": "Point", "coordinates": [-8.4534089, 40.2033797]}, "properties": {"role": "node", "id": "8414761420", "dist_to_outlet_m": 1933.5255631199461, "observable": true, "access": false}}, {"type": "Feature", "geometry": {"type": "Point", "coordinates": [-8.4532219, 40.2035443]}, "properties": {"role": "node", "id": "8414761419", "dist_to_outlet_m": 1909.2933732301253, "observable": true, "access": false}}, {"type": "Feature", "geometry": {"type": "Point", "coordinates": [-8.4529739, 40.203951]}, "properties": {"role": "node", "id": "8414761418", "dist_to_outlet_m": 1859.4064418699868, "observable": true, "access": true}}, {"type": "Feature", "geometry": {"type": "Point", "coordinates": [-8.4527341, 40.2044323]}, "properties": {"role": "node", "id": "8414761417", "dist_to_outlet_m": 1802.144563299883, "observable": true, "access": false}}, {"type": "Feature", "geometry": {"type": "Point", "coordinates": [-8.4524576, 40.2048577]}, "properties": {"role": "node", "id": "8414746616", "dist_to_outlet_m": 1749.3345704521153, "observable": true, "access": true}}, {"type": "Feature", "geometry": {"type": "Point", "coordinates": [-8.4522015, 40.2054228]}, "properties": {"role": "node", "id": "8414746615", "dist_to_outlet_m": 1682.8408632385642, "observable": true, "access": false}}, {"type": "Feature", "geometry": {"type": "Point", "coordinates": [-8.4520443, 40.2058838]}, "properties": {"role": "node", "id": "12421947384", "dist_to_outlet_m": 1629.8701517184422, "observable": true, "access": true}}, {"type": "Feature", "geometry": {"type": "Point", "coordinates": [-8.4519088, 40.2062608]}, "properties": {"role": "node", "id": "12421947363", "dist_to_outlet_m": 1586.3990267626364, "observable": true, "access": false}}, {"type": "Feature", "geometry": {"type": "Point", "coordinates": [-8.4517042, 40.2064038]}, "properties": {"role": "node", "id": "8414746614", "dist_to_outlet_m": 1562.8462758434025, "observable": true, "access": false}}, {"type": "Feature", "geometry": {"type": "Point", "coordinates": [-8.4514941, 40.2065778]}, "properties": {"role": "node", "id": "8414746613", "dist_to_outlet_m": 1536.527390803326, "observable": true, "access": false}}, {"type": "Feature", "geometry": {"type": "Point", "coordinates": [-8.4511932, 40.2071739]}, "properties": {"role": "node", "id": "8414746612", "dist_to_outlet_m": 1465.489183220989, "observable": true, "access": true}}, {"type": "Feature", "geometry": {"type": "Point", "coordinates": [-8.4507501, 40.2081302]}, "properties": {"role": "node", "id": "8414746611", "dist_to_outlet_m": 1352.6921305786288, "observable": true, "access": true}}, {"type": "Feature", "geometry": {"type": "Point", "coordinates": [-8.4506729, 40.2084904]}, "properties": {"role": "node", "id": "8414746609", "dist_to_outlet_m": 1312.1067340402371, "observable": true, "access": false}}, {"type": "Feature", "geometry": {"type": "Point", "coordinates": [-8.4506322, 40.2087636]}, "properties": {"role": "node", "id": "8414746608", "dist_to_outlet_m": 1281.5323014409203, "observable": true, "access": false}}, {"type": "Feature", "geometry": {"type": "Point", "coordinates": [-8.4506729, 40.2095771]}, "properties": {"role": "node", "id": "8414746607", "dist_to_outlet_m": 1191.0092253971711, "observable": true, "access": true}}, {"type": "Feature", "geometry": {"type": "Point", "coordinates": [-8.4506995, 40.2099093]}, "properties": {"role": "node", "id": "8414746606", "dist_to_outlet_m": 1154.001271709529, "observable": true, "access": false}}, {"type": "Feature", "geometry": {"type": "Point", "coordinates": [-8.4506298, 40.2104132]}, "properties": {"role": "node", "id": "8414746605", "dist_to_outlet_m": 1097.6584069041958, "observable": true, "access": false}}, {"type": "Feature", "geometry": {"type": "Point", "coordinates": [-8.4506214, 40.2107631]}, "properties": {"role": "node", "id": "14097965629", "dist_to_outlet_m": 1058.7447639603795, "observable": true, "access": true}}, {"type": "Feature", "geometry": {"type": "Point", "coordinates": [-8.4473498, 40.2149715]}, "properties": {"role": "node", "id": "8414746592", "dist_to_outlet_m": 497.36187198424034, "observable": true, "access": true}}, {"type": "Feature", "geometry": {"type": "Point", "coordinates": [-8.4470346, 40.2150928]}, "properties": {"role": "node", "id": "8414746593", "dist_to_outlet_m": 467.3912122680663, "observable": true, "access": false}}, {"type": "Feature", "geometry": {"type": "Point", "coordinates": [-8.4465559, 40.2152889]}, "properties": {"role": "node", "id": "8414746594", "dist_to_outlet_m": 421.2647495142908, "observable": true, "access": false}}, {"type": "Feature", "geometry": {"type": "Point", "coordinates": [-8.4459339, 40.2155655]}, "properties": {"role": "node", "id": "8414746595", "dist_to_outlet_m": 360.1472874333882, "observable": true, "access": true}}, {"type": "Feature", "geometry": {"type": "Point", "coordinates": [-8.4456271, 40.2157374]}, "properties": {"role": "node", "id": "8414746596", "dist_to_outlet_m": 327.83640003283654, "observable": true, "access": false}}, {"type": "Feature", "geometry": {"type": "Point", "coordinates": [-8.445226, 40.2160102]}, "properties": {"role": "node", "id": "8414746597", "dist_to_outlet_m": 282.2286552690291, "observable": true, "access": false}}, {"type": "Feature", "geometry": {"type": "Point", "coordinates": [-8.4447252, 40.2164176]}, "properties": {"role": "node", "id": "8414746598", "dist_to_outlet_m": 220.0968592476344, "observable": true, "access": true}}, {"type": "Feature", "geometry": {"type": "Point", "coordinates": [-8.4444474, 40.216685]}, "properties": {"role": "node", "id": "8414746599", "dist_to_outlet_m": 182.14334031639748, "observable": true, "access": false}}, {"type": "Feature", "geometry": {"type": "Point", "coordinates": [-8.4438426, 40.2172895]}, "properties": {"role": "node", "id": "8414746600", "dist_to_outlet_m": 97.55436789538922, "observable": true, "access": true}}, {"type": "Feature", "geometry": {"type": "Point", "coordinates": [-8.4437303, 40.2173992]}, "properties": {"role": "node", "id": "13970848573", "dist_to_outlet_m": 82.07167513442444, "observable": true, "access": false}}, {"type": "Feature", "geometry": {"type": "Point", "coordinates": [-8.4479727, 40.2141504]}, "properties": {"role": "node", "id": "8414746590", "dist_to_outlet_m": 603.1171048025698, "observable": true, "access": false}}, {"type": "Feature", "geometry": {"type": "Point", "coordinates": [-8.4474595, 40.2147736]}, "properties": {"role": "node", "id": "8414746591", "dist_to_outlet_m": 521.2576151293619, "observable": false, "access": false}}, {"type": "Feature", "geometry": {"type": "Point", "coordinates": [-8.458149, 40.1939181]}, "properties": {"role": "node", "id": "8414761457", "dist_to_outlet_m": 3141.7062206387245, "observable": true, "access": false}}, {"type": "Feature", "geometry": {"type": "Point", "coordinates": [-8.4578124, 40.1941631]}, "properties": {"role": "node", "id": "8414761456", "dist_to_outlet_m": 3102.2149840303296, "observable": true, "access": false}}, {"type": "Feature", "geometry": {"type": "Point", "coordinates": [-8.457753, 40.1942874]}, "properties": {"role": "node", "id": "8414761455", "dist_to_outlet_m": 3087.501398931439, "observable": true, "access": true}}, {"type": "Feature", "geometry": {"type": "Point", "coordinates": [-8.4577808, 40.1945607]}, "properties": {"role": "node", "id": "8414761454", "dist_to_outlet_m": 3057.0202293439393, "observable": true, "access": false}}, {"type": "Feature", "geometry": {"type": "Point", "coordinates": [-8.4578843, 40.1948361]}, "properties": {"role": "node", "id": "8414761453", "dist_to_outlet_m": 3025.1603123686155, "observable": true, "access": false}}, {"type": "Feature", "geometry": {"type": "Point", "coordinates": [-8.4578318, 40.1952799]}, "properties": {"role": "node", "id": "8414761452", "dist_to_outlet_m": 2975.610946288618, "observable": true, "access": true}}, {"type": "Feature", "geometry": {"type": "Point", "coordinates": [-8.457864, 40.1953631]}, "properties": {"role": "node", "id": "8414761451", "dist_to_outlet_m": 2965.96373716993, "observable": true, "access": false}}, {"type": "Feature", "geometry": {"type": "Point", "coordinates": [-8.4578086, 40.1955514]}, "properties": {"role": "node", "id": "8414761450", "dist_to_outlet_m": 2944.5035110117033, "observable": true, "access": false}}, {"type": "Feature", "geometry": {"type": "Point", "coordinates": [-8.4578024, 40.1958597]}, "properties": {"role": "node", "id": "8414761449", "dist_to_outlet_m": 2910.218070774222, "observable": true, "access": false}}, {"type": "Feature", "geometry": {"type": "Point", "coordinates": [-8.4577938, 40.1961322]}, "properties": {"role": "node", "id": "8414761448", "dist_to_outlet_m": 2879.908650311164, "observable": true, "access": false}}, {"type": "Feature", "geometry": {"type": "Point", "coordinates": [-8.4575608, 40.1965846]}, "properties": {"role": "node", "id": "8414761447", "dist_to_outlet_m": 2825.8513860939056, "observable": true, "access": true}}, {"type": "Feature", "geometry": {"type": "Point", "coordinates": [-8.4574361, 40.1967939]}, "properties": {"role": "node", "id": "12280173986", "dist_to_outlet_m": 2800.281616351618, "observable": true, "access": false}}, {"type": "Feature", "geometry": {"type": "Point", "coordinates": [-8.4573313, 40.1970911]}, "properties": {"role": "node", "id": "12280173985", "dist_to_outlet_m": 2766.056737019091, "observable": true, "access": false}}, {"type": "Feature", "geometry": {"type": "Point", "coordinates": [-8.4572806, 40.1971792]}, "properties": {"role": "node", "id": "8414761446", "dist_to_outlet_m": 2755.355809368249, "observable": true, "access": false}}, {"type": "Feature", "geometry": {"type": "Point", "coordinates": [-8.458461, 40.1935528]}, "properties": {"role": "node", "id": "8414761458", "dist_to_outlet_m": 3190.206020475442, "observable": true, "access": false}}, {"type": "Feature", "geometry": {"type": "Point", "coordinates": [-8.4571865, 40.1972212]}, "properties": {"role": "node", "id": "8414761445", "dist_to_outlet_m": 2746.0990842269466, "observable": true, "access": false}}, {"type": "Feature", "geometry": {"type": "Point", "coordinates": [-8.4546894, 40.1781662]}, "properties": {"role": "node", "id": "8414761485", "dist_to_outlet_m": 5346.631812009037, "observable": true, "access": true}}, {"type": "Feature", "geometry": {"type": "Point", "coordinates": [-8.4553653, 40.178617]}, "properties": {"role": "node", "id": "8414761484", "dist_to_outlet_m": 5270.408172537107, "observable": true, "access": false}}, {"type": "Feature", "geometry": {"type": "Point", "coordinates": [-8.4559983, 40.1789203]}, "properties": {"role": "node", "id": "8414761483", "dist_to_outlet_m": 5206.930283479404, "observable": true, "access": true}}, {"type": "Feature", "geometry": {"type": "Point", "coordinates": [-8.456685, 40.1790597]}, "properties": {"role": "node", "id": "8414761482", "dist_to_outlet_m": 5146.566515441749, "observable": true, "access": false}}, {"type": "Feature", "geometry": {"type": "Point", "coordinates": [-8.4575433, 40.179158]}, "properties": {"role": "node", "id": "8414761481", "dist_to_outlet_m": 5072.83374129606, "observable": true, "access": true}}, {"type": "Feature", "geometry": {"type": "Point", "coordinates": [-8.4580153, 40.1794613]}, "properties": {"role": "node", "id": "8414761480", "dist_to_outlet_m": 5020.437574102603, "observable": true, "access": false}}, {"type": "Feature", "geometry": {"type": "Point", "coordinates": [-8.4589324, 40.1798689]}, "properties": {"role": "node", "id": "8414761479", "dist_to_outlet_m": 4930.301031805644, "observable": true, "access": true}}, {"type": "Feature", "geometry": {"type": "Point", "coordinates": [-8.459524, 40.1802926]}, "properties": {"role": "node", "id": "8414761478", "dist_to_outlet_m": 4861.412146515763, "observable": true, "access": false}}, {"type": "Feature", "geometry": {"type": "Point", "coordinates": [-8.4606824, 40.1811683]}, "properties": {"role": "node", "id": "8414761477", "dist_to_outlet_m": 4722.969620867472, "observable": true, "access": true}}, {"type": "Feature", "geometry": {"type": "Point", "coordinates": [-8.4610891, 40.1816202]}, "properties": {"role": "node", "id": "8414761476", "dist_to_outlet_m": 4661.988433865906, "observable": true, "access": false}}, {"type": "Feature", "geometry": {"type": "Point", "coordinates": [-8.4615328, 40.1823829]}, "properties": {"role": "node", "id": "8414761475", "dist_to_outlet_m": 4569.180764575719, "observable": true, "access": true}}, {"type": "Feature", "geometry": {"type": "Point", "coordinates": [-8.4614765, 40.1830421]}, "properties": {"role": "node", "id": "8414761474", "dist_to_outlet_m": 4495.725196524024, "observable": true, "access": false}}, {"type": "Feature", "geometry": {"type": "Point", "coordinates": [-8.4619725, 40.1842223]}, "properties": {"role": "node", "id": "8414761473", "dist_to_outlet_m": 4357.894466228158, "observable": true, "access": true}}, {"type": "Feature", "geometry": {"type": "Point", "coordinates": [-8.4625254, 40.1852348]}, "properties": {"role": "node", "id": "8414761472", "dist_to_outlet_m": 4235.9051549952055, "observable": true, "access": true}}, {"type": "Feature", "geometry": {"type": "Point", "coordinates": [-8.4627694, 40.185856]}, "properties": {"role": "node", "id": "8414761471", "dist_to_outlet_m": 4163.788012114032, "observable": true, "access": false}}, {"type": "Feature", "geometry": {"type": "Point", "coordinates": [-8.4627582, 40.1860318]}, "properties": {"role": "node", "id": "10829759857", "dist_to_outlet_m": 4144.216804721028, "observable": true, "access": false}}, {"type": "Feature", "geometry": {"type": "Point", "coordinates": [-8.4627124, 40.1867505]}, "properties": {"role": "node", "id": "8414761470", "dist_to_outlet_m": 4064.206363194771, "observable": true, "access": true}}, {"type": "Feature", "geometry": {"type": "Point", "coordinates": [-8.4625823, 40.1879493]}, "properties": {"role": "node", "id": "8414761469", "dist_to_outlet_m": 3930.4485492407607, "observable": true, "access": true}}, {"type": "Feature", "geometry": {"type": "Point", "coordinates": [-8.462501, 40.1882723]}, "properties": {"role": "node", "id": "8414761468", "dist_to_outlet_m": 3893.874656129887, "observable": true, "access": false}}, {"type": "Feature", "geometry": {"type": "Point", "coordinates": [-8.4622896, 40.1886574]}, "properties": {"role": "node", "id": "8414761467", "dist_to_outlet_m": 3847.440647263518, "observable": true, "access": false}}, {"type": "Feature", "geometry": {"type": "Point", "coordinates": [-8.4615904, 40.1896512]}, "properties": {"role": "node", "id": "8414761466", "dist_to_outlet_m": 3721.9856145390395, "observable": true, "access": true}}, {"type": "Feature", "geometry": {"type": "Point", "coordinates": [-8.4609767, 40.1906127]}, "properties": {"role": "node", "id": "8414761465", "dist_to_outlet_m": 3603.0400467683735, "observable": true, "access": true}}, {"type": "Feature", "geometry": {"type": "Point", "coordinates": [-8.4608406, 40.1910376]}, "properties": {"role": "node", "id": "13005605964", "dist_to_outlet_m": 3554.399531326793, "observable": true, "access": false}}, {"type": "Feature", "geometry": {"type": "Point", "coordinates": [-8.4569409, 40.1973967]}, "properties": {"role": "node", "id": "8414761444", "dist_to_outlet_m": 2717.534231792597, "observable": true, "access": true}}, {"type": "Feature", "geometry": {"type": "Point", "coordinates": [-8.4567616, 40.197622]}, "properties": {"role": "node", "id": "8414761443", "dist_to_outlet_m": 2688.216619815707, "observable": true, "access": false}}, {"type": "Feature", "geometry": {"type": "Point", "coordinates": [-8.4566066, 40.1980468]}, "properties": {"role": "node", "id": "8414761442", "dist_to_outlet_m": 2639.1808239802485, "observable": true, "access": false}}, {"type": "Feature", "geometry": {"type": "Point", "coordinates": [-8.4564065, 40.1981603]}, "properties": {"role": "node", "id": "8414761441", "dist_to_outlet_m": 2618.0121972198126, "observable": true, "access": false}}, {"type": "Feature", "geometry": {"type": "Point", "coordinates": [-8.4562791, 40.1982203]}, "properties": {"role": "node", "id": "8414761440", "dist_to_outlet_m": 2605.3002887312987, "observable": true, "access": true}}, {"type": "Feature", "geometry": {"type": "Point", "coordinates": [-8.4560777, 40.1983209]}, "properties": {"role": "node", "id": "8414761439", "dist_to_outlet_m": 2584.861953167718, "observable": true, "access": false}}, {"type": "Feature", "geometry": {"type": "Point", "coordinates": [-8.4557996, 40.1985958]}, "properties": {"role": "node", "id": "8414761438", "dist_to_outlet_m": 2546.2321920238473, "observable": true, "access": false}}, {"type": "Feature", "geometry": {"type": "Point", "coordinates": [-8.4555038, 40.1986664]}, "properties": {"role": "node", "id": "8414761437", "dist_to_outlet_m": 2519.91134593318, "observable": true, "access": false}}, {"type": "Feature", "geometry": {"type": "Point", "coordinates": [-8.4553128, 40.1986806]}, "properties": {"role": "node", "id": "8414761436", "dist_to_outlet_m": 2503.6126887979253, "observable": true, "access": false}}, {"type": "Feature", "geometry": {"type": "Point", "coordinates": [-8.4552173, 40.1988171]}, "properties": {"role": "node", "id": "8414761435", "dist_to_outlet_m": 2486.403299738113, "observable": true, "access": true}}, {"type": "Feature", "geometry": {"type": "Point", "coordinates": [-8.455094, 40.1991065]}, "properties": {"role": "node", "id": "8414761434", "dist_to_outlet_m": 2452.562432243572, "observable": true, "access": false}}, {"type": "Feature", "geometry": {"type": "Point", "coordinates": [-8.4551016, 40.1991931]}, "properties": {"role": "node", "id": "13005605958", "dist_to_outlet_m": 2442.911342184196, "observable": true, "access": false}}, {"type": "Feature", "geometry": {"type": "Point", "coordinates": [-8.4606573, 40.191194]}, "properties": {"role": "node", "id": "13005605963", "dist_to_outlet_m": 3531.0572916517876, "observable": true, "access": false}}, {"type": "Feature", "geometry": {"type": "Point", "coordinates": [-8.4602422, 40.1911719]}, "properties": {"role": "node", "id": "8414761464", "dist_to_outlet_m": 3495.712631815415, "observable": true, "access": false}}, {"type": "Feature", "geometry": {"type": "Point", "coordinates": [-8.460098, 40.191358]}, "properties": {"role": "node", "id": "8414761463", "dist_to_outlet_m": 3471.6659685036575, "observable": true, "access": true}}, {"type": "Feature", "geometry": {"type": "Point", "coordinates": [-8.4591483, 40.1924944]}, "properties": {"role": "node", "id": "8414761462", "dist_to_outlet_m": 3321.750537324369, "observable": true, "access": true}}, {"type": "Feature", "geometry": {"type": "Point", "coordinates": [-8.4589369, 40.1927894]}, "properties": {"role": "node", "id": "8414761461", "dist_to_outlet_m": 3284.354957239175, "observable": true, "access": false}}, {"type": "Feature", "geometry": {"type": "Point", "coordinates": [-8.4587133, 40.1931124]}, "properties": {"role": "node", "id": "8414761460", "dist_to_outlet_m": 3243.7265601704235, "observable": true, "access": false}}, {"type": "Feature", "geometry": {"type": "Point", "coordinates": [-8.4585263, 40.1934633]}, "properties": {"role": "node", "id": "8414761459", "dist_to_outlet_m": 3201.599203641345, "observable": true, "access": true}}, {"type": "Feature", "geometry": {"type": "Point", "coordinates": [-8.4436431, 40.2174844]}, "properties": {"role": "node", "id": "13970848572", "dist_to_outlet_m": 70.04784785707261, "observable": true, "access": false}}, {"type": "Feature", "geometry": {"type": "Point", "coordinates": [-8.4435087, 40.2176157]}, "properties": {"role": "node", "id": "8414746601", "dist_to_outlet_m": 51.51724878252963, "observable": true, "access": false}}, {"type": "Feature", "geometry": {"type": "Point", "coordinates": [-8.4432096, 40.2180188]}, "properties": {"role": "node", "id": "8414746602", "dist_to_outlet_m": 0.0, "observable": true, "access": false}}, {"type": "Feature", "geometry": {"type": "Point", "coordinates": [-8.4506185, 40.210884]}, "properties": {"role": "node", "id": "14097965628", "dist_to_outlet_m": 1045.2990420292163, "observable": true, "access": false}}, {"type": "Feature", "geometry": {"type": "Point", "coordinates": [-8.4506137, 40.2110851]}, "properties": {"role": "node", "id": "8414746604", "dist_to_outlet_m": 1022.9340277557006, "observable": true, "access": false}}, {"type": "Feature", "geometry": {"type": "Point", "coordinates": [-8.4504313, 40.2119126]}, "properties": {"role": "node", "id": "8414746603", "dist_to_outlet_m": 929.6257325054761, "observable": true, "access": true}}, {"type": "Feature", "geometry": {"type": "Point", "coordinates": [-8.4503471, 40.2120379]}, "properties": {"role": "node", "id": "8414746582", "dist_to_outlet_m": 913.965548873069, "observable": true, "access": false}}, {"type": "Feature", "geometry": {"type": "Point", "coordinates": [-8.4501089, 40.2122769]}, "properties": {"role": "node", "id": "8414746583", "dist_to_outlet_m": 880.5681910963441, "observable": true, "access": false}}, {"type": "Feature", "geometry": {"type": "Point", "coordinates": [-8.4498381, 40.2124801]}, "properties": {"role": "node", "id": "8414746584", "dist_to_outlet_m": 848.3301498949442, "observable": true, "access": false}}, {"type": "Feature", "geometry": {"type": "Point", "coordinates": [-8.4495205, 40.2126906]}, "properties": {"role": "node", "id": "8414746585", "dist_to_outlet_m": 812.6204320576271, "observable": true, "access": true}}, {"type": "Feature", "geometry": {"type": "Point", "coordinates": [-8.4493337, 40.2128047]}, "properties": {"role": "node", "id": "8414746586", "dist_to_outlet_m": 792.3085825470635, "observable": true, "access": false}}, {"type": "Feature", "geometry": {"type": "Point", "coordinates": [-8.4489508, 40.2131435]}, "properties": {"role": "node", "id": "8414746587", "dist_to_outlet_m": 742.5453937047511, "observable": true, "access": false}}, {"type": "Feature", "geometry": {"type": "Point", "coordinates": [-8.4484884, 40.2136392]}, "properties": {"role": "node", "id": "8414746588", "dist_to_outlet_m": 674.871169166691, "observable": true, "access": true}}, {"type": "Feature", "geometry": {"type": "Point", "coordinates": [-8.4480296, 40.2140945]}, "properties": {"role": "node", "id": "8414746589", "dist_to_outlet_m": 610.9898267030834, "observable": true, "access": false}}, {"type": "Feature", "geometry": {"type": "Point", "coordinates": [-8.4546894, 40.1781662]}, "properties": {"role": "candidate", "id": "O1", "node_id": "8414761485", "label": "O-1", "prior_weight": 1.0, "synthetic": true, "kind": "outfall"}}, {"type": "Feature", "geometry": {"type": "Point", "coordinates": [-8.4580153, 40.1794613]}, "properties": {"role": "candidate", "id": "O2", "node_id": "8414761480", "label": "O-2", "prior_weight": 1.0, "synthetic": true, "kind": "outfall"}}, {"type": "Feature", "geometry": {"type": "Point", "coordinates": [-8.4625254, 40.1852348]}, "properties": {"role": "candidate", "id": "O3", "node_id": "8414761472", "label": "O-3", "prior_weight": 1.0, "synthetic": true, "kind": "outfall"}}, {"type": "Feature", "geometry": {"type": "Point", "coordinates": [-8.4622896, 40.1886574]}, "properties": {"role": "candidate", "id": "O4", "node_id": "8414761467", "label": "O-4", "prior_weight": 1.0, "synthetic": true, "kind": "outfall"}}, {"type": "Feature", "geometry": {"type": "Point", "coordinates": [-8.4609767, 40.1906127]}, "properties": {"role": "candidate", "id": "O5", "node_id": "8414761465", "label": "O-5", "prior_weight": 1.0, "synthetic": true, "kind": "outfall"}}, {"type": "Feature", "geometry": {"type": "Point", "coordinates": [-8.4587133, 40.1931124]}, "properties": {"role": "candidate", "id": "O6", "node_id": "8414761460", "label": "O-6", "prior_weight": 1.0, "synthetic": true, "kind": "outfall"}}, {"type": "Feature", "geometry": {"type": "Point", "coordinates": [-8.4585263, 40.1934633]}, "properties": {"role": "candidate", "id": "O7", "node_id": "8414761459", "label": "O-7", "prior_weight": 1.0, "synthetic": true, "kind": "outfall"}}, {"type": "Feature", "geometry": {"type": "Point", "coordinates": [-8.458149, 40.1939181]}, "properties": {"role": "candidate", "id": "O8", "node_id": "8414761457", "label": "O-8", "prior_weight": 1.0, "synthetic": true, "kind": "outfall"}}, {"type": "Feature", "geometry": {"type": "Point", "coordinates": [-8.4577938, 40.1961322]}, "properties": {"role": "candidate", "id": "O9", "node_id": "8414761448", "label": "O-9", "prior_weight": 1.0, "synthetic": true, "kind": "outfall"}}, {"type": "Feature", "geometry": {"type": "Point", "coordinates": [-8.4575608, 40.1965846]}, "properties": {"role": "candidate", "id": "O10", "node_id": "8414761447", "label": "O-10", "prior_weight": 1.0, "synthetic": true, "kind": "outfall"}}, {"type": "Feature", "geometry": {"type": "Point", "coordinates": [-8.4564065, 40.1981603]}, "properties": {"role": "candidate", "id": "O11", "node_id": "8414761441", "label": "O-11", "prior_weight": 1.0, "synthetic": true, "kind": "outfall"}}, {"type": "Feature", "geometry": {"type": "Point", "coordinates": [-8.4552173, 40.1988171]}, "properties": {"role": "candidate", "id": "O12", "node_id": "8414761435", "label": "O-12", "prior_weight": 1.0, "synthetic": true, "kind": "outfall"}}, {"type": "Feature", "geometry": {"type": "Point", "coordinates": [-8.4551108, 40.1992973]}, "properties": {"role": "candidate", "id": "O13", "node_id": "13005605957", "label": "O-13", "prior_weight": 1.0, "synthetic": true, "kind": "outfall"}}, {"type": "Feature", "geometry": {"type": "Point", "coordinates": [-8.4550107, 40.2000666]}, "properties": {"role": "candidate", "id": "O14", "node_id": "8414761430", "label": "O-14", "prior_weight": 1.0, "synthetic": true, "kind": "outfall"}}, {"type": "Feature", "geometry": {"type": "Point", "coordinates": [-8.454409, 40.2016812]}, "properties": {"role": "candidate", "id": "O15", "node_id": "8414761424", "label": "O-15", "prior_weight": 1.0, "synthetic": true, "kind": "outfall"}}, {"type": "Feature", "geometry": {"type": "Point", "coordinates": [-8.4519088, 40.2062608]}, "properties": {"role": "candidate", "id": "O16", "node_id": "12421947363", "label": "O-16", "prior_weight": 1.0, "synthetic": true, "kind": "outfall"}}, {"type": "Feature", "geometry": {"type": "Point", "coordinates": [-8.4511932, 40.2071739]}, "properties": {"role": "candidate", "id": "O17", "node_id": "8414746612", "label": "O-17", "prior_weight": 1.0, "synthetic": true, "kind": "outfall"}}, {"type": "Feature", "geometry": {"type": "Point", "coordinates": [-8.4493337, 40.2128047]}, "properties": {"role": "candidate", "id": "O18", "node_id": "8414746586", "label": "O-18", "prior_weight": 1.0, "synthetic": true, "kind": "outfall"}}, {"type": "Feature", "geometry": {"type": "Point", "coordinates": [-8.4459339, 40.2155655]}, "properties": {"role": "candidate", "id": "O19", "node_id": "8414746595", "label": "O-19", "prior_weight": 1.0, "synthetic": true, "kind": "outfall"}}, {"type": "Feature", "geometry": {"type": "Point", "coordinates": [-8.4436431, 40.2174844]}, "properties": {"role": "candidate", "id": "O20", "node_id": "13970848572", "label": "O-20", "prior_weight": 1.0, "synthetic": true, "kind": "outfall"}}, {"type": "Feature", "geometry": {"type": "Point", "coordinates": [-8.458528, 40.1900059]}, "properties": {"role": "place", "id": "osm-w112647941", "kind": "school", "label": "Escola B\u00e1sica do 2\u00ba e 3\u00ba Ciclo In\u00eas de Castro", "node_id": "8414761464", "weight": 0.28}}, {"type": "Feature", "geometry": {"type": "Point", "coordinates": [-8.4537532, 40.209676]}, "properties": {"role": "place", "id": "osm-w1220196344", "kind": "playground", "label": "playground", "node_id": "8414746606", "weight": 0.3}}, {"type": "Feature", "geometry": {"type": "Point", "coordinates": [-8.4552997, 40.1964889]}, "properties": {"role": "place", "id": "osm-w1274090261", "kind": "school", "label": "Escola B\u00e1sica de P\u00f3voa", "node_id": "8414761444", "weight": 0.341}}, {"type": "Feature", "geometry": {"type": "Point", "coordinates": [-8.455609, 40.2013412]}, "properties": {"role": "place", "id": "osm-w1350785664", "kind": "playground", "label": "playground", "node_id": "8414761426", "weight": 0.812}}]}