{"type": "FeatureCollection", "properties": {"name": "Ribeira de Coselhas", "city": "Coimbra", "source": "OpenStreetMap (ODbL)", "gaps_bridged": 2, "fragments_dropped": 2, "candidates": "synthetic, 1 per ~130 m unless set", "fetched": "2026-09-25", "tz": "Europe/Lisbon"}, "features": [{"type": "Feature", "geometry": {"type": "LineString", "coordinates": [[-8.4273604, 40.2226593], [-8.4274923, 40.222555]]}, "properties": {"role": "edge", "from": "8638210948", "to": "8638210949", "length": 16.12, "culvert": false, "unmapped": false}}, {"type": "Feature", "geometry": {"type": "LineString", "coordinates": [[-8.4274923, 40.222555], [-8.4276432, 40.2224297]]}, "properties": {"role": "edge", "from": "8638210949", "to": "8638210950", "length": 18.93, "culvert": false, "unmapped": false}}, {"type": "Feature", "geometry": {"type": "LineString", "coordinates": [[-8.4276432, 40.2224297], [-8.4277281, 40.2223696]]}, "properties": {"role": "edge", "from": "8638210950", "to": "8638210951", "length": 9.83, "culvert": false, "unmapped": false}}, {"type": "Feature", "geometry": {"type": "LineString", "coordinates": [[-8.4277281, 40.2223696], [-8.4277608, 40.2223562]]}, "properties": {"role": "edge", "from": "8638210951", "to": "8638210952", "length": 3.15, "culvert": false, "unmapped": false}}, {"type": "Feature", "geometry": {"type": "LineString", "coordinates": [[-8.4277608, 40.2223562], [-8.4280527, 40.2223482]]}, "properties": {"role": "edge", "from": "8638210952", "to": "8638210953", "length": 24.8, "culvert": false, "unmapped": false}}, {"type": "Feature", "geometry": {"type": "LineString", "coordinates": [[-8.4280527, 40.2223482], [-8.4282126, 40.2222885]]}, "properties": {"role": "edge", "from": "8638210953", "to": "8638210954", "length": 15.11, "culvert": false, "unmapped": false}}, {"type": "Feature", "geometry": {"type": "LineString", "coordinates": [[-8.4282126, 40.2222885], [-8.428566, 40.2220937]]}, "properties": {"role": "edge", "from": "8638210954", "to": "8638210947", "length": 37.01, "culvert": false, "unmapped": false}}, {"type": "Feature", "geometry": {"type": "LineString", "coordinates": [[-8.428566, 40.2220937], [-8.4288438, 40.2219261]]}, "properties": {"role": "edge", "from": "8638210947", "to": "8638210946", "length": 30.06, "culvert": false, "unmapped": false}}, {"type": "Feature", "geometry": {"type": "LineString", "coordinates": [[-8.4288438, 40.2219261], [-8.4290508, 40.2217843]]}, "properties": {"role": "edge", "from": "8638210946", "to": "8638210945", "length": 23.61, "culvert": false, "unmapped": false}}, {"type": "Feature", "geometry": {"type": "LineString", "coordinates": [[-8.4290508, 40.2217843], [-8.4291729, 40.2216802]]}, "properties": {"role": "edge", "from": "8638210945", "to": "8638210944", "length": 15.54, "culvert": false, "unmapped": false}}, {"type": "Feature", "geometry": {"type": "LineString", "coordinates": [[-8.4291729, 40.2216802], [-8.4292968, 40.2216343]]}, "properties": {"role": "edge", "from": "8638210944", "to": "8638210943", "length": 11.69, "culvert": false, "unmapped": false}}, {"type": "Feature", "geometry": {"type": "LineString", "coordinates": [[-8.4292968, 40.2216343], [-8.4293623, 40.2215518]]}, "properties": {"role": "edge", "from": "8638210943", "to": "8638210941", "length": 10.73, "culvert": false, "unmapped": false}}, {"type": "Feature", "geometry": {"type": "LineString", "coordinates": [[-8.4196303, 40.2241049], [-8.4201229, 40.2241117]]}, "properties": {"role": "edge", "from": "9108177411", "to": "9108177412", "length": 41.83, "culvert": false, "unmapped": false}}, {"type": "Feature", "geometry": {"type": "LineString", "coordinates": [[-8.4201229, 40.2241117], [-8.4204186, 40.2241489]]}, "properties": {"role": "edge", "from": "9108177412", "to": "9108177413", "length": 25.44, "culvert": false, "unmapped": false}}, {"type": "Feature", "geometry": {"type": "LineString", "coordinates": [[-8.4204186, 40.2241489], [-8.4206703, 40.2242072]]}, "properties": {"role": "edge", "from": "9108177413", "to": "9108177414", "length": 22.33, "culvert": false, "unmapped": false}}, {"type": "Feature", "geometry": {"type": "LineString", "coordinates": [[-8.4206703, 40.2242072], [-8.4208579, 40.2242504]]}, "properties": {"role": "edge", "from": "9108177414", "to": "9108177415", "length": 16.64, "culvert": false, "unmapped": false}}, {"type": "Feature", "geometry": {"type": "LineString", "coordinates": [[-8.4208579, 40.2242504], [-8.4214065, 40.2243288]]}, "properties": {"role": "edge", "from": "9108177415", "to": "9108177416", "length": 47.38, "culvert": false, "unmapped": false}}, {"type": "Feature", "geometry": {"type": "LineString", "coordinates": [[-8.4214065, 40.2243288], [-8.4217852, 40.2243504]]}, "properties": {"role": "edge", "from": "9108177416", "to": "9108196517", "length": 32.24, "culvert": false, "unmapped": false}}, {"type": "Feature", "geometry": {"type": "LineString", "coordinates": [[-8.4217852, 40.2243504], [-8.4220542, 40.2243639]]}, "properties": {"role": "edge", "from": "9108196517", "to": "9108196518", "length": 22.89, "culvert": false, "unmapped": false}}, {"type": "Feature", "geometry": {"type": "LineString", "coordinates": [[-8.4220542, 40.2243639], [-8.4224258, 40.2243315]]}, "properties": {"role": "edge", "from": "9108196518", "to": "9108196519", "length": 31.75, "culvert": false, "unmapped": false}}, {"type": "Feature", "geometry": {"type": "LineString", "coordinates": [[-8.4224258, 40.2243315], [-8.4225426, 40.2243207]]}, "properties": {"role": "edge", "from": "9108196519", "to": "9108196520", "length": 9.99, "culvert": false, "unmapped": false}}, {"type": "Feature", "geometry": {"type": "LineString", "coordinates": [[-8.4225426, 40.2243207], [-8.4228505, 40.2242423]]}, "properties": {"role": "edge", "from": "9108196520", "to": "9108196521", "length": 27.56, "culvert": false, "unmapped": false}}, {"type": "Feature", "geometry": {"type": "LineString", "coordinates": [[-8.4228505, 40.2242423], [-8.4236043, 40.224018]]}, "properties": {"role": "edge", "from": "9108196521", "to": "9108196522", "length": 68.69, "culvert": false, "unmapped": false}}, {"type": "Feature", "geometry": {"type": "LineString", "coordinates": [[-8.4236043, 40.224018], [-8.4241848, 40.2238505]]}, "properties": {"role": "edge", "from": "9108196522", "to": "9108196523", "length": 52.69, "culvert": false, "unmapped": false}}, {"type": "Feature", "geometry": {"type": "LineString", "coordinates": [[-8.4241848, 40.2238505], [-8.4247263, 40.2237343]]}, "properties": {"role": "edge", "from": "9108196523", "to": "9108196524", "length": 47.75, "culvert": false, "unmapped": false}}, {"type": "Feature", "geometry": {"type": "LineString", "coordinates": [[-8.4247263, 40.2237343], [-8.4250696, 40.2236397]]}, "properties": {"role": "edge", "from": "9108196524", "to": "9108196525", "length": 30.99, "culvert": false, "unmapped": false}}, {"type": "Feature", "geometry": {"type": "LineString", "coordinates": [[-8.4250696, 40.2236397], [-8.4259756, 40.2233478]]}, "properties": {"role": "edge", "from": "9108196525", "to": "9108196526", "length": 83.49, "culvert": false, "unmapped": false}}, {"type": "Feature", "geometry": {"type": "LineString", "coordinates": [[-8.4259756, 40.2233478], [-8.4264251, 40.2231965]]}, "properties": {"role": "edge", "from": "9108196526", "to": "9108196527", "length": 41.71, "culvert": false, "unmapped": false}}, {"type": "Feature", "geometry": {"type": "LineString", "coordinates": [[-8.4264251, 40.2231965], [-8.4265065, 40.2231533]]}, "properties": {"role": "edge", "from": "9108196527", "to": "9108196528", "length": 8.42, "culvert": false, "unmapped": false}}, {"type": "Feature", "geometry": {"type": "LineString", "coordinates": [[-8.4265065, 40.2231533], [-8.4267047, 40.222956]]}, "properties": {"role": "edge", "from": "9108196528", "to": "9108196529", "length": 27.65, "culvert": false, "unmapped": false}}, {"type": "Feature", "geometry": {"type": "LineString", "coordinates": [[-8.4267047, 40.222956], [-8.4269524, 40.2227723]]}, "properties": {"role": "edge", "from": "9108196529", "to": "9108196530", "length": 29.32, "culvert": false, "unmapped": false}}, {"type": "Feature", "geometry": {"type": "LineString", "coordinates": [[-8.4269524, 40.2227723], [-8.4270657, 40.2227074]]}, "properties": {"role": "edge", "from": "9108196530", "to": "9108196531", "length": 12.03, "culvert": false, "unmapped": false}}, {"type": "Feature", "geometry": {"type": "LineString", "coordinates": [[-8.4270657, 40.2227074], [-8.4273604, 40.2226593]]}, "properties": {"role": "edge", "from": "9108196531", "to": "8638210948", "length": 25.59, "culvert": true, "unmapped": true}}, {"type": "Feature", "geometry": {"type": "LineString", "coordinates": [[-8.3795996, 40.2207401], [-8.3801092, 40.2209995]]}, "properties": {"role": "edge", "from": "9108196555", "to": "9108196556", "length": 52.0, "culvert": false, "unmapped": false}}, {"type": "Feature", "geometry": {"type": "LineString", "coordinates": [[-8.3801092, 40.2209995], [-8.380633, 40.2213995]]}, "properties": {"role": "edge", "from": "9108196556", "to": "9108196557", "length": 62.9, "culvert": false, "unmapped": false}}, {"type": "Feature", "geometry": {"type": "LineString", "coordinates": [[-8.380633, 40.2213995], [-8.3812135, 40.2219291]]}, "properties": {"role": "edge", "from": "9108196557", "to": "9108196558", "length": 76.79, "culvert": false, "unmapped": false}}, {"type": "Feature", "geometry": {"type": "LineString", "coordinates": [[-8.3812135, 40.2219291], [-8.3816948, 40.2222318]]}, "properties": {"role": "edge", "from": "9108196558", "to": "9108196559", "length": 52.94, "culvert": false, "unmapped": false}}, {"type": "Feature", "geometry": {"type": "LineString", "coordinates": [[-8.3816948, 40.2222318], [-8.3821761, 40.2224696]]}, "properties": {"role": "edge", "from": "9108196559", "to": "9108196560", "length": 48.67, "culvert": false, "unmapped": false}}, {"type": "Feature", "geometry": {"type": "LineString", "coordinates": [[-8.3821761, 40.2224696], [-8.382293, 40.2224958]]}, "properties": {"role": "edge", "from": "9108196560", "to": "9108196647", "length": 10.34, "culvert": false, "unmapped": false}}, {"type": "Feature", "geometry": {"type": "LineString", "coordinates": [[-8.382293, 40.2224958], [-8.3826574, 40.2225777]]}, "properties": {"role": "edge", "from": "9108196647", "to": "9108196561", "length": 32.25, "culvert": false, "unmapped": false}}, {"type": "Feature", "geometry": {"type": "LineString", "coordinates": [[-8.3826574, 40.2225777], [-8.3833653, 40.2225777]]}, "properties": {"role": "edge", "from": "9108196561", "to": "9108196562", "length": 60.1, "culvert": false, "unmapped": false}}, {"type": "Feature", "geometry": {"type": "LineString", "coordinates": [[-8.3833653, 40.2225777], [-8.3840448, 40.2223831]]}, "properties": {"role": "edge", "from": "9108196562", "to": "9108196563", "length": 61.62, "culvert": false, "unmapped": false}}, {"type": "Feature", "geometry": {"type": "LineString", "coordinates": [[-8.3840448, 40.2223831], [-8.3844837, 40.2224155]]}, "properties": {"role": "edge", "from": "9108196563", "to": "9108196564", "length": 37.44, "culvert": false, "unmapped": false}}, {"type": "Feature", "geometry": {"type": "LineString", "coordinates": [[-8.3844837, 40.2224155], [-8.3849508, 40.2224912]]}, "properties": {"role": "edge", "from": "9108196564", "to": "9108196565", "length": 40.54, "culvert": false, "unmapped": false}}, {"type": "Feature", "geometry": {"type": "LineString", "coordinates": [[-8.3849508, 40.2224912], [-8.3852906, 40.2226209]]}, "properties": {"role": "edge", "from": "9108196565", "to": "9108196566", "length": 32.25, "culvert": false, "unmapped": false}}, {"type": "Feature", "geometry": {"type": "LineString", "coordinates": [[-8.3852906, 40.2226209], [-8.3857436, 40.2228911]]}, "properties": {"role": "edge", "from": "9108196566", "to": "9108196567", "length": 48.8, "culvert": false, "unmapped": false}}, {"type": "Feature", "geometry": {"type": "LineString", "coordinates": [[-8.3857436, 40.2228911], [-8.3860268, 40.223183]]}, "properties": {"role": "edge", "from": "9108196567", "to": "9108196568", "length": 40.39, "culvert": false, "unmapped": false}}, {"type": "Feature", "geometry": {"type": "LineString", "coordinates": [[-8.3860268, 40.223183], [-8.3861683, 40.2233884]]}, "properties": {"role": "edge", "from": "9108196568", "to": "9108196569", "length": 25.81, "culvert": false, "unmapped": false}}, {"type": "Feature", "geometry": {"type": "LineString", "coordinates": [[-8.3861683, 40.2233884], [-8.3864798, 40.2241342]]}, "properties": {"role": "edge", "from": "9108196569", "to": "9108196574", "length": 87.04, "culvert": false, "unmapped": false}}, {"type": "Feature", "geometry": {"type": "LineString", "coordinates": [[-8.3864798, 40.2241342], [-8.3866638, 40.2247719]]}, "properties": {"role": "edge", "from": "9108196574", "to": "9108196575", "length": 72.61, "culvert": false, "unmapped": false}}, {"type": "Feature", "geometry": {"type": "LineString", "coordinates": [[-8.3866638, 40.2247719], [-8.3867791, 40.2252034]]}, "properties": {"role": "edge", "from": "9108196575", "to": "9108196576", "length": 48.97, "culvert": false, "unmapped": false}}, {"type": "Feature", "geometry": {"type": "LineString", "coordinates": [[-8.3867791, 40.2252034], [-8.3870312, 40.225489]]}, "properties": {"role": "edge", "from": "9108196576", "to": "9108196577", "length": 38.3, "culvert": false, "unmapped": false}}, {"type": "Feature", "geometry": {"type": "LineString", "coordinates": [[-8.3870312, 40.225489], [-8.3874052, 40.2256566]]}, "properties": {"role": "edge", "from": "9108196577", "to": "9108196578", "length": 36.82, "culvert": false, "unmapped": false}}, {"type": "Feature", "geometry": {"type": "LineString", "coordinates": [[-8.3874052, 40.2256566], [-8.3876889, 40.2256803]]}, "properties": {"role": "edge", "from": "9108196578", "to": "9108196579", "length": 24.23, "culvert": false, "unmapped": false}}, {"type": "Feature", "geometry": {"type": "LineString", "coordinates": [[-8.3876889, 40.2256803], [-8.3879225, 40.2256209]]}, "properties": {"role": "edge", "from": "9108196579", "to": "9108196580", "length": 20.9, "culvert": false, "unmapped": false}}, {"type": "Feature", "geometry": {"type": "LineString", "coordinates": [[-8.3879225, 40.2256209], [-8.388235, 40.225508]]}, "properties": {"role": "edge", "from": "9108196580", "to": "9108196581", "length": 29.35, "culvert": false, "unmapped": false}}, {"type": "Feature", "geometry": {"type": "LineString", "coordinates": [[-8.388235, 40.225508], [-8.3883691, 40.225508]]}, "properties": {"role": "edge", "from": "9108196581", "to": "9108196582", "length": 11.38, "culvert": false, "unmapped": false}}, {"type": "Feature", "geometry": {"type": "LineString", "coordinates": [[-8.3883691, 40.225508], [-8.3885622, 40.2255285]]}, "properties": {"role": "edge", "from": "9108196582", "to": "9108196583", "length": 16.55, "culvert": false, "unmapped": false}}, {"type": "Feature", "geometry": {"type": "LineString", "coordinates": [[-8.3885622, 40.2255285], [-8.3888519, 40.225594]]}, "properties": {"role": "edge", "from": "9108196583", "to": "9108196584", "length": 25.65, "culvert": false, "unmapped": false}}, {"type": "Feature", "geometry": {"type": "LineString", "coordinates": [[-8.3888519, 40.225594], [-8.3890598, 40.2257533]]}, "properties": {"role": "edge", "from": "9108196584", "to": "9108196585", "length": 25.01, "culvert": false, "unmapped": false}}, {"type": "Feature", "geometry": {"type": "LineString", "coordinates": [[-8.3890598, 40.2257533], [-8.3890998, 40.2258192]]}, "properties": {"role": "edge", "from": "9108196585", "to": "9108196586", "length": 8.08, "culvert": false, "unmapped": false}}, {"type": "Feature", "geometry": {"type": "LineString", "coordinates": [[-8.3890998, 40.2258192], [-8.3891153, 40.2259157]]}, "properties": {"role": "edge", "from": "9108196586", "to": "9108196587", "length": 10.81, "culvert": false, "unmapped": false}}, {"type": "Feature", "geometry": {"type": "LineString", "coordinates": [[-8.3891153, 40.2259157], [-8.3891769, 40.2260121]]}, "properties": {"role": "edge", "from": "9108196587", "to": "9108196588", "length": 11.93, "culvert": false, "unmapped": false}}, {"type": "Feature", "geometry": {"type": "LineString", "coordinates": [[-8.3891769, 40.2260121], [-8.3893494, 40.226118]]}, "properties": {"role": "edge", "from": "9108196588", "to": "9108196589", "length": 18.79, "culvert": false, "unmapped": false}}, {"type": "Feature", "geometry": {"type": "LineString", "coordinates": [[-8.3893494, 40.226118], [-8.3896452, 40.226285]]}, "properties": {"role": "edge", "from": "9108196589", "to": "9108196590", "length": 31.23, "culvert": false, "unmapped": false}}, {"type": "Feature", "geometry": {"type": "LineString", "coordinates": [[-8.3896452, 40.226285], [-8.3898193, 40.2262595]]}, "properties": {"role": "edge", "from": "9108196590", "to": "9108196591", "length": 15.05, "culvert": false, "unmapped": false}}, {"type": "Feature", "geometry": {"type": "LineString", "coordinates": [[-8.3898193, 40.2262595], [-8.3901305, 40.2262431]]}, "properties": {"role": "edge", "from": "9108196591", "to": "9108196592", "length": 26.48, "culvert": false, "unmapped": false}}, {"type": "Feature", "geometry": {"type": "LineString", "coordinates": [[-8.3901305, 40.2262431], [-8.3903719, 40.2262472]]}, "properties": {"role": "edge", "from": "9108196592", "to": "9108196593", "length": 20.5, "culvert": false, "unmapped": false}}, {"type": "Feature", "geometry": {"type": "LineString", "coordinates": [[-8.3903719, 40.2262472], [-8.3906186, 40.2262472]]}, "properties": {"role": "edge", "from": "9108196593", "to": "9108196594", "length": 20.94, "culvert": false, "unmapped": false}}, {"type": "Feature", "geometry": {"type": "LineString", "coordinates": [[-8.3906186, 40.2262472], [-8.3909405, 40.2262636]]}, "properties": {"role": "edge", "from": "9108196594", "to": "9108196595", "length": 27.39, "culvert": false, "unmapped": false}}, {"type": "Feature", "geometry": {"type": "LineString", "coordinates": [[-8.3909405, 40.2262636], [-8.3911873, 40.2263251]]}, "properties": {"role": "edge", "from": "9108196595", "to": "9108196596", "length": 22.04, "culvert": false, "unmapped": false}}, {"type": "Feature", "geometry": {"type": "LineString", "coordinates": [[-8.3911873, 40.2263251], [-8.3914555, 40.2264971]]}, "properties": {"role": "edge", "from": "9108196596", "to": "9108196597", "length": 29.74, "culvert": false, "unmapped": false}}, {"type": "Feature", "geometry": {"type": "LineString", "coordinates": [[-8.3914555, 40.2264971], [-8.3917183, 40.2266527]]}, "properties": {"role": "edge", "from": "9108196597", "to": "9108196598", "length": 28.23, "culvert": false, "unmapped": false}}, {"type": "Feature", "geometry": {"type": "LineString", "coordinates": [[-8.3917183, 40.2266527], [-8.3920295, 40.2267551]]}, "properties": {"role": "edge", "from": "9108196598", "to": "9108196599", "length": 28.77, "culvert": false, "unmapped": false}}, {"type": "Feature", "geometry": {"type": "LineString", "coordinates": [[-8.3920295, 40.2267551], [-8.3926243, 40.2267848]]}, "properties": {"role": "edge", "from": "9108196599", "to": "9108196600", "length": 50.6, "culvert": false, "unmapped": false}}, {"type": "Feature", "geometry": {"type": "LineString", "coordinates": [[-8.3926243, 40.2267848], [-8.3931193, 40.226685]]}, "properties": {"role": "edge", "from": "9108196600", "to": "9108196601", "length": 43.46, "culvert": false, "unmapped": false}}, {"type": "Feature", "geometry": {"type": "LineString", "coordinates": [[-8.3931193, 40.226685], [-8.3933248, 40.2265067]]}, "properties": {"role": "edge", "from": "9108196601", "to": "9108196602", "length": 26.41, "culvert": false, "unmapped": false}}, {"type": "Feature", "geometry": {"type": "LineString", "coordinates": [[-8.3933248, 40.2265067], [-8.3935489, 40.226414]]}, "properties": {"role": "edge", "from": "9108196602", "to": "9108196603", "length": 21.64, "culvert": false, "unmapped": false}}, {"type": "Feature", "geometry": {"type": "LineString", "coordinates": [[-8.3935489, 40.226414], [-8.3937918, 40.2263784]]}, "properties": {"role": "edge", "from": "9108196603", "to": "9108196604", "length": 21.0, "culvert": false, "unmapped": false}}, {"type": "Feature", "geometry": {"type": "LineString", "coordinates": [[-8.3937918, 40.2263784], [-8.3942121, 40.2263998]]}, "properties": {"role": "edge", "from": "9108196604", "to": "9108196605", "length": 35.76, "culvert": false, "unmapped": false}}, {"type": "Feature", "geometry": {"type": "LineString", "coordinates": [[-8.3942121, 40.2263998], [-8.3947071, 40.2264426]]}, "properties": {"role": "edge", "from": "9108196605", "to": "9108196606", "length": 42.29, "culvert": false, "unmapped": false}}, {"type": "Feature", "geometry": {"type": "LineString", "coordinates": [[-8.3947071, 40.2264426], [-8.3952021, 40.226414]]}, "properties": {"role": "edge", "from": "9108196606", "to": "9108196607", "length": 42.14, "culvert": false, "unmapped": false}}, {"type": "Feature", "geometry": {"type": "LineString", "coordinates": [[-8.3952021, 40.226414], [-8.3963136, 40.2262072]]}, "properties": {"role": "edge", "from": "9108196607", "to": "9108196608", "length": 97.12, "culvert": false, "unmapped": false}}, {"type": "Feature", "geometry": {"type": "LineString", "coordinates": [[-8.3963136, 40.2262072], [-8.3969394, 40.2259077]]}, "properties": {"role": "edge", "from": "9108196608", "to": "9108196609", "length": 62.7, "culvert": false, "unmapped": false}}, {"type": "Feature", "geometry": {"type": "LineString", "coordinates": [[-8.3969394, 40.2259077], [-8.3972785, 40.2258016]]}, "properties": {"role": "edge", "from": "9108196609", "to": "9108196667", "length": 31.11, "culvert": false, "unmapped": false}}, {"type": "Feature", "geometry": {"type": "LineString", "coordinates": [[-8.3972785, 40.2258016], [-8.3975091, 40.2257294]]}, "properties": {"role": "edge", "from": "9108196667", "to": "9108196610", "length": 21.16, "culvert": false, "unmapped": false}}, {"type": "Feature", "geometry": {"type": "LineString", "coordinates": [[-8.3975091, 40.2257294], [-8.3976959, 40.2256225]]}, "properties": {"role": "edge", "from": "9108196610", "to": "9108196611", "length": 19.82, "culvert": false, "unmapped": false}}, {"type": "Feature", "geometry": {"type": "LineString", "coordinates": [[-8.3976959, 40.2256225], [-8.3977333, 40.2254585]]}, "properties": {"role": "edge", "from": "9108196611", "to": "9108196612", "length": 18.51, "culvert": false, "unmapped": false}}, {"type": "Feature", "geometry": {"type": "LineString", "coordinates": [[-8.3977333, 40.2254585], [-8.3978547, 40.2252374]]}, "properties": {"role": "edge", "from": "9108196612", "to": "9108196613", "length": 26.66, "culvert": false, "unmapped": false}}, {"type": "Feature", "geometry": {"type": "LineString", "coordinates": [[-8.3978547, 40.2252374], [-8.3980415, 40.2249236]]}, "properties": {"role": "edge", "from": "9108196613", "to": "9108196614", "length": 38.33, "culvert": false, "unmapped": false}}, {"type": "Feature", "geometry": {"type": "LineString", "coordinates": [[-8.3980415, 40.2249236], [-8.3982937, 40.2246312]]}, "properties": {"role": "edge", "from": "9108196614", "to": "9108196615", "length": 38.93, "culvert": false, "unmapped": false}}, {"type": "Feature", "geometry": {"type": "LineString", "coordinates": [[-8.3982937, 40.2246312], [-8.3988447, 40.2240393]]}, "properties": {"role": "edge", "from": "9108196615", "to": "9108196616", "length": 80.75, "culvert": false, "unmapped": false}}, {"type": "Feature", "geometry": {"type": "LineString", "coordinates": [[-8.3988447, 40.2240393], [-8.3990884, 40.2239153]]}, "properties": {"role": "edge", "from": "9108196616", "to": "9108196617", "length": 24.86, "culvert": false, "unmapped": false}}, {"type": "Feature", "geometry": {"type": "LineString", "coordinates": [[-8.3990884, 40.2239153], [-8.3994767, 40.2233322]]}, "properties": {"role": "edge", "from": "9108196617", "to": "9108196618", "length": 72.74, "culvert": true, "unmapped": false}}, {"type": "Feature", "geometry": {"type": "LineString", "coordinates": [[-8.403186, 40.2223349], [-8.4033361, 40.2223349]]}, "properties": {"role": "edge", "from": "14002717506", "to": "9108177364", "length": 12.74, "culvert": false, "unmapped": false}}, {"type": "Feature", "geometry": {"type": "LineString", "coordinates": [[-8.4033361, 40.2223349], [-8.4036442, 40.2223773]]}, "properties": {"role": "edge", "from": "9108177364", "to": "9108177365", "length": 26.58, "culvert": false, "unmapped": false}}, {"type": "Feature", "geometry": {"type": "LineString", "coordinates": [[-8.4036442, 40.2223773], [-8.4038044, 40.2224714]]}, "properties": {"role": "edge", "from": "9108177365", "to": "9108177366", "length": 17.16, "culvert": false, "unmapped": false}}, {"type": "Feature", "geometry": {"type": "LineString", "coordinates": [[-8.4038044, 40.2224714], [-8.4039954, 40.2225655]]}, "properties": {"role": "edge", "from": "9108177366", "to": "9108177367", "length": 19.3, "culvert": false, "unmapped": false}}, {"type": "Feature", "geometry": {"type": "LineString", "coordinates": [[-8.4039954, 40.2225655], [-8.4042481, 40.2226596]]}, "properties": {"role": "edge", "from": "9108177367", "to": "9108177368", "length": 23.87, "culvert": false, "unmapped": false}}, {"type": "Feature", "geometry": {"type": "LineString", "coordinates": [[-8.4042481, 40.2226596], [-8.4045562, 40.2227631]]}, "properties": {"role": "edge", "from": "9108177368", "to": "9108177369", "length": 28.58, "culvert": false, "unmapped": false}}, {"type": "Feature", "geometry": {"type": "LineString", "coordinates": [[-8.4045562, 40.2227631], [-8.4047836, 40.2227793]]}, "properties": {"role": "edge", "from": "9108177369", "to": "9108177370", "length": 19.39, "culvert": false, "unmapped": false}}, {"type": "Feature", "geometry": {"type": "LineString", "coordinates": [[-8.4047836, 40.2227793], [-8.4049315, 40.2227699]]}, "properties": {"role": "edge", "from": "9108177370", "to": "9108177371", "length": 12.6, "culvert": false, "unmapped": false}}, {"type": "Feature", "geometry": {"type": "LineString", "coordinates": [[-8.4049315, 40.2227699], [-8.405138, 40.2227393]]}, "properties": {"role": "edge", "from": "9108177371", "to": "9108177372", "length": 17.86, "culvert": false, "unmapped": false}}, {"type": "Feature", "geometry": {"type": "LineString", "coordinates": [[-8.405138, 40.2227393], [-8.4053043, 40.2227017]]}, "properties": {"role": "edge", "from": "9108177372", "to": "9108177373", "length": 14.73, "culvert": false, "unmapped": false}}, {"type": "Feature", "geometry": {"type": "LineString", "coordinates": [[-8.4053043, 40.2227017], [-8.4054245, 40.2226876]]}, "properties": {"role": "edge", "from": "9108177373", "to": "9108177374", "length": 10.32, "culvert": false, "unmapped": false}}, {"type": "Feature", "geometry": {"type": "LineString", "coordinates": [[-8.4054245, 40.2226876], [-8.4055077, 40.2227017]]}, "properties": {"role": "edge", "from": "9108177374", "to": "9108177375", "length": 7.24, "culvert": false, "unmapped": false}}, {"type": "Feature", "geometry": {"type": "LineString", "coordinates": [[-8.4055077, 40.2227017], [-8.4055539, 40.2227581]]}, "properties": {"role": "edge", "from": "9108177375", "to": "9108177376", "length": 7.4, "culvert": false, "unmapped": false}}, {"type": "Feature", "geometry": {"type": "LineString", "coordinates": [[-8.4055539, 40.2227581], [-8.4059463, 40.2232798]]}, "properties": {"role": "edge", "from": "9108177376", "to": "9108177377", "length": 66.9, "culvert": false, "unmapped": false}}, {"type": "Feature", "geometry": {"type": "LineString", "coordinates": [[-8.4059463, 40.2232798], [-8.4061823, 40.2234437]]}, "properties": {"role": "edge", "from": "9108177377", "to": "9108177378", "length": 27.09, "culvert": false, "unmapped": false}}, {"type": "Feature", "geometry": {"type": "LineString", "coordinates": [[-8.4061823, 40.2234437], [-8.4064667, 40.2235256]]}, "properties": {"role": "edge", "from": "9108177378", "to": "9108177379", "length": 25.81, "culvert": false, "unmapped": false}}, {"type": "Feature", "geometry": {"type": "LineString", "coordinates": [[-8.4064667, 40.2235256], [-8.406633, 40.223542]]}, "properties": {"role": "edge", "from": "9108177379", "to": "9108177380", "length": 14.24, "culvert": false, "unmapped": false}}, {"type": "Feature", "geometry": {"type": "LineString", "coordinates": [[-8.406633, 40.223542], [-8.4067724, 40.2235829]]}, "properties": {"role": "edge", "from": "9108177380", "to": "9108177381", "length": 12.68, "culvert": false, "unmapped": false}}, {"type": "Feature", "geometry": {"type": "LineString", "coordinates": [[-8.4067724, 40.2235829], [-8.406987, 40.2236894]]}, "properties": {"role": "edge", "from": "9108177381", "to": "9108177382", "length": 21.73, "culvert": false, "unmapped": false}}, {"type": "Feature", "geometry": {"type": "LineString", "coordinates": [[-8.406987, 40.2236894], [-8.407105, 40.2238287]]}, "properties": {"role": "edge", "from": "9108177382", "to": "9108177383", "length": 18.45, "culvert": false, "unmapped": false}}, {"type": "Feature", "geometry": {"type": "LineString", "coordinates": [[-8.407105, 40.2238287], [-8.4075883, 40.224678]]}, "properties": {"role": "edge", "from": "9108177383", "to": "9108177384", "length": 102.97, "culvert": false, "unmapped": false}}, {"type": "Feature", "geometry": {"type": "LineString", "coordinates": [[-8.4075883, 40.224678], [-8.4079433, 40.2250845]]}, "properties": {"role": "edge", "from": "9108177384", "to": "9108177385", "length": 54.33, "culvert": false, "unmapped": false}}, {"type": "Feature", "geometry": {"type": "LineString", "coordinates": [[-8.4079433, 40.2250845], [-8.4085504, 40.2253341]]}, "properties": {"role": "edge", "from": "9108177385", "to": "9108177386", "length": 58.54, "culvert": false, "unmapped": false}}, {"type": "Feature", "geometry": {"type": "LineString", "coordinates": [[-8.4085504, 40.2253341], [-8.4091575, 40.2254981]]}, "properties": {"role": "edge", "from": "9108177386", "to": "9108177387", "length": 54.67, "culvert": false, "unmapped": false}}, {"type": "Feature", "geometry": {"type": "LineString", "coordinates": [[-8.4091575, 40.2254981], [-8.4099514, 40.2255908]]}, "properties": {"role": "edge", "from": "9108177387", "to": "9108177388", "length": 68.18, "culvert": false, "unmapped": false}}, {"type": "Feature", "geometry": {"type": "LineString", "coordinates": [[-8.4099514, 40.2255908], [-8.4107266, 40.2255551]]}, "properties": {"role": "edge", "from": "9108177388", "to": "9108177389", "length": 65.93, "culvert": false, "unmapped": false}}, {"type": "Feature", "geometry": {"type": "LineString", "coordinates": [[-8.4107266, 40.2255551], [-8.4113991, 40.2255337]]}, "properties": {"role": "edge", "from": "9108177389", "to": "9108177390", "length": 57.14, "culvert": false, "unmapped": false}}, {"type": "Feature", "geometry": {"type": "LineString", "coordinates": [[-8.4113991, 40.2255337], [-8.4123891, 40.2256764]]}, "properties": {"role": "edge", "from": "9108177390", "to": "9108177391", "length": 85.53, "culvert": false, "unmapped": false}}, {"type": "Feature", "geometry": {"type": "LineString", "coordinates": [[-8.4123891, 40.2256764], [-8.4128561, 40.2256764]]}, "properties": {"role": "edge", "from": "9108177391", "to": "9108177392", "length": 39.65, "culvert": false, "unmapped": false}}, {"type": "Feature", "geometry": {"type": "LineString", "coordinates": [[-8.4128561, 40.2256764], [-8.4134352, 40.2256621]]}, "properties": {"role": "edge", "from": "9108177392", "to": "9108177393", "length": 49.19, "culvert": false, "unmapped": false}}, {"type": "Feature", "geometry": {"type": "LineString", "coordinates": [[-8.4134352, 40.2256621], [-8.4140423, 40.2255409]]}, "properties": {"role": "edge", "from": "9108177393", "to": "9108177394", "length": 53.27, "culvert": false, "unmapped": false}}, {"type": "Feature", "geometry": {"type": "LineString", "coordinates": [[-8.4140423, 40.2255409], [-8.4143038, 40.2254767]]}, "properties": {"role": "edge", "from": "9108177394", "to": "9108177395", "length": 23.32, "culvert": false, "unmapped": false}}, {"type": "Feature", "geometry": {"type": "LineString", "coordinates": [[-8.4143038, 40.2254767], [-8.4146587, 40.2254838]]}, "properties": {"role": "edge", "from": "9108177395", "to": "9108177396", "length": 30.14, "culvert": false, "unmapped": false}}, {"type": "Feature", "geometry": {"type": "LineString", "coordinates": [[-8.4146587, 40.2254838], [-8.415079, 40.2255551]]}, "properties": {"role": "edge", "from": "9108177396", "to": "9108177397", "length": 36.55, "culvert": false, "unmapped": false}}, {"type": "Feature", "geometry": {"type": "LineString", "coordinates": [[-8.415079, 40.2255551], [-8.4153966, 40.2255623]]}, "properties": {"role": "edge", "from": "9108177397", "to": "9108177398", "length": 26.98, "culvert": false, "unmapped": false}}, {"type": "Feature", "geometry": {"type": "LineString", "coordinates": [[-8.4153966, 40.2255623], [-8.4159103, 40.2255052]]}, "properties": {"role": "edge", "from": "9108177398", "to": "9108177399", "length": 44.07, "culvert": false, "unmapped": false}}, {"type": "Feature", "geometry": {"type": "LineString", "coordinates": [[-8.4159103, 40.2255052], [-8.4162372, 40.2253341]]}, "properties": {"role": "edge", "from": "9108177399", "to": "9108177400", "length": 33.65, "culvert": false, "unmapped": false}}, {"type": "Feature", "geometry": {"type": "LineString", "coordinates": [[-8.4162372, 40.2253341], [-8.4165454, 40.2251915]]}, "properties": {"role": "edge", "from": "9108177400", "to": "9108177401", "length": 30.6, "culvert": false, "unmapped": false}}, {"type": "Feature", "geometry": {"type": "LineString", "coordinates": [[-8.4165454, 40.2251915], [-8.4168536, 40.2249704]]}, "properties": {"role": "edge", "from": "9108177401", "to": "9108177402", "length": 35.9, "culvert": false, "unmapped": false}}, {"type": "Feature", "geometry": {"type": "LineString", "coordinates": [[-8.4168536, 40.2249704], [-8.4172272, 40.2247707]]}, "properties": {"role": "edge", "from": "9108177402", "to": "9108177403", "length": 38.72, "culvert": false, "unmapped": false}}, {"type": "Feature", "geometry": {"type": "LineString", "coordinates": [[-8.4172272, 40.2247707], [-8.4175134, 40.224504]]}, "properties": {"role": "edge", "from": "9108177403", "to": "9108177404", "length": 38.34, "culvert": false, "unmapped": false}}, {"type": "Feature", "geometry": {"type": "LineString", "coordinates": [[-8.4175134, 40.224504], [-8.4177656, 40.2243757]]}, "properties": {"role": "edge", "from": "9108177404", "to": "9108177405", "length": 25.73, "culvert": false, "unmapped": false}}, {"type": "Feature", "geometry": {"type": "LineString", "coordinates": [[-8.4177656, 40.2243757], [-8.4181018, 40.2242188]]}, "properties": {"role": "edge", "from": "9108177405", "to": "9108177406", "length": 33.45, "culvert": false, "unmapped": false}}, {"type": "Feature", "geometry": {"type": "LineString", "coordinates": [[-8.4181018, 40.2242188], [-8.4184708, 40.2241011]]}, "properties": {"role": "edge", "from": "9108177406", "to": "9108177407", "length": 33.95, "culvert": false, "unmapped": false}}, {"type": "Feature", "geometry": {"type": "LineString", "coordinates": [[-8.4184708, 40.2241011], [-8.418849, 40.2240726]]}, "properties": {"role": "edge", "from": "9108177407", "to": "9108177408", "length": 32.27, "culvert": false, "unmapped": false}}, {"type": "Feature", "geometry": {"type": "LineString", "coordinates": [[-8.418849, 40.2240726], [-8.4192111, 40.2241392]]}, "properties": {"role": "edge", "from": "9108177408", "to": "9108177409", "length": 31.62, "culvert": false, "unmapped": false}}, {"type": "Feature", "geometry": {"type": "LineString", "coordinates": [[-8.4192111, 40.2241392], [-8.4193144, 40.2241506]]}, "properties": {"role": "edge", "from": "9108177409", "to": "9108177410", "length": 8.86, "culvert": false, "unmapped": false}}, {"type": "Feature", "geometry": {"type": "LineString", "coordinates": [[-8.4193144, 40.2241506], [-8.4196303, 40.2241049]]}, "properties": {"role": "edge", "from": "9108177410", "to": "9108177411", "length": 27.3, "culvert": true, "unmapped": true}}, {"type": "Feature", "geometry": {"type": "LineString", "coordinates": [[-8.3994767, 40.2233322], [-8.3995128, 40.2232912]]}, "properties": {"role": "edge", "from": "9108196618", "to": "14002717503", "length": 5.49, "culvert": false, "unmapped": false}}, {"type": "Feature", "geometry": {"type": "LineString", "coordinates": [[-8.3995128, 40.2232912], [-8.3995863, 40.2232079]]}, "properties": {"role": "edge", "from": "14002717503", "to": "14002717502", "length": 11.17, "culvert": true, "unmapped": false}}, {"type": "Feature", "geometry": {"type": "LineString", "coordinates": [[-8.3995863, 40.2232079], [-8.3997816, 40.2230653]]}, "properties": {"role": "edge", "from": "14002717502", "to": "9108196619", "length": 22.94, "culvert": false, "unmapped": false}}, {"type": "Feature", "geometry": {"type": "LineString", "coordinates": [[-8.3997816, 40.2230653], [-8.4000906, 40.2228635]]}, "properties": {"role": "edge", "from": "9108196619", "to": "9108196620", "length": 34.52, "culvert": false, "unmapped": false}}, {"type": "Feature", "geometry": {"type": "LineString", "coordinates": [[-8.4000906, 40.2228635], [-8.400363, 40.2226928]]}, "properties": {"role": "edge", "from": "9108196620", "to": "9108196621", "length": 29.92, "culvert": false, "unmapped": false}}, {"type": "Feature", "geometry": {"type": "LineString", "coordinates": [[-8.400363, 40.2226928], [-8.4005605, 40.2225821]]}, "properties": {"role": "edge", "from": "9108196621", "to": "9108196622", "length": 20.8, "culvert": false, "unmapped": false}}, {"type": "Feature", "geometry": {"type": "LineString", "coordinates": [[-8.4005605, 40.2225821], [-8.4008238, 40.2225547]]}, "properties": {"role": "edge", "from": "9108196622", "to": "14002717505", "length": 22.56, "culvert": false, "unmapped": false}}, {"type": "Feature", "geometry": {"type": "LineString", "coordinates": [[-8.4008238, 40.2225547], [-8.4011064, 40.2225253]]}, "properties": {"role": "edge", "from": "14002717505", "to": "14002717504", "length": 24.21, "culvert": true, "unmapped": false}}, {"type": "Feature", "geometry": {"type": "LineString", "coordinates": [[-8.4011064, 40.2225253], [-8.4014561, 40.2224889]]}, "properties": {"role": "edge", "from": "14002717504", "to": "9108196535", "length": 29.96, "culvert": false, "unmapped": false}}, {"type": "Feature", "geometry": {"type": "LineString", "coordinates": [[-8.4014561, 40.2224889], [-8.4028801, 40.2223255]]}, "properties": {"role": "edge", "from": "9108196535", "to": "9108177362", "length": 122.26, "culvert": false, "unmapped": false}}, {"type": "Feature", "geometry": {"type": "LineString", "coordinates": [[-8.4028801, 40.2223255], [-8.4030588, 40.2223349]]}, "properties": {"role": "edge", "from": "9108177362", "to": "9108177363", "length": 15.21, "culvert": false, "unmapped": false}}, {"type": "Feature", "geometry": {"type": "LineString", "coordinates": [[-8.4030588, 40.2223349], [-8.4030806, 40.2223349]]}, "properties": {"role": "edge", "from": "9108177363", "to": "14002717507", "length": 1.85, "culvert": false, "unmapped": false}}, {"type": "Feature", "geometry": {"type": "LineString", "coordinates": [[-8.4030806, 40.2223349], [-8.403186, 40.2223349]]}, "properties": {"role": "edge", "from": "14002717507", "to": "14002717506", "length": 8.95, "culvert": true, "unmapped": false}}, {"type": "Feature", "geometry": {"type": "Point", "coordinates": [-8.4273604, 40.2226593]}, "properties": {"role": "node", "id": "8638210948", "dist_to_outlet_m": 216.57706606621025, "observable": true, "access": false}}, {"type": "Feature", "geometry": {"type": "Point", "coordinates": [-8.4274923, 40.222555]}, "properties": {"role": "node", "id": "8638210949", "dist_to_outlet_m": 200.45525308178566, "observable": true, "access": false}}, {"type": "Feature", "geometry": {"type": "Point", "coordinates": [-8.4276432, 40.2224297]}, "properties": {"role": "node", "id": "8638210950", "dist_to_outlet_m": 181.52746914605524, "observable": true, "access": false}}, {"type": "Feature", "geometry": {"type": "Point", "coordinates": [-8.4277281, 40.2223696]}, "properties": {"role": "node", "id": "8638210951", "dist_to_outlet_m": 171.69801893954082, "observable": true, "access": false}}, {"type": "Feature", "geometry": {"type": "Point", "coordinates": [-8.4277608, 40.2223562]}, "properties": {"role": "node", "id": "8638210952", "dist_to_outlet_m": 168.54714721421124, "observable": true, "access": false}}, {"type": "Feature", "geometry": {"type": "Point", "coordinates": [-8.4280527, 40.2223482]}, "properties": {"role": "node", "id": "8638210953", "dist_to_outlet_m": 143.7482243362824, "observable": true, "access": true}}, {"type": "Feature", "geometry": {"type": "Point", "coordinates": [-8.4282126, 40.2222885]}, "properties": {"role": "node", "id": "8638210954", "dist_to_outlet_m": 128.63624599568385, "observable": true, "access": false}}, {"type": "Feature", "geometry": {"type": "Point", "coordinates": [-8.428566, 40.2220937]}, "properties": {"role": "node", "id": "8638210947", "dist_to_outlet_m": 91.63002524215158, "observable": true, "access": false}}, {"type": "Feature", "geometry": {"type": "Point", "coordinates": [-8.4288438, 40.2219261]}, "properties": {"role": "node", "id": "8638210946", "dist_to_outlet_m": 61.56995052968462, "observable": true, "access": false}}, {"type": "Feature", "geometry": {"type": "Point", "coordinates": [-8.4290508, 40.2217843]}, "properties": {"role": "node", "id": "8638210945", "dist_to_outlet_m": 37.95874525791568, "observable": true, "access": true}}, {"type": "Feature", "geometry": {"type": "Point", "coordinates": [-8.4291729, 40.2216802]}, "properties": {"role": "node", "id": "8638210944", "dist_to_outlet_m": 22.419849031158314, "observable": true, "access": false}}, {"type": "Feature", "geometry": {"type": "Point", "coordinates": [-8.4292968, 40.2216343]}, "properties": {"role": "node", "id": "8638210943", "dist_to_outlet_m": 10.727585213125503, "observable": true, "access": false}}, {"type": "Feature", "geometry": {"type": "Point", "coordinates": [-8.4293623, 40.2215518]}, "properties": {"role": "node", "id": "8638210941", "dist_to_outlet_m": 0.0, "observable": true, "access": false}}, {"type": "Feature", "geometry": {"type": "Point", "coordinates": [-8.4196303, 40.2241049]}, "properties": {"role": "node", "id": "9108177411", "dist_to_outlet_m": 922.9300822310355, "observable": true, "access": false}}, {"type": "Feature", "geometry": {"type": "Point", "coordinates": [-8.4201229, 40.2241117]}, "properties": {"role": "node", "id": "9108177412", "dist_to_outlet_m": 881.101489508011, "observable": true, "access": true}}, {"type": "Feature", "geometry": {"type": "Point", "coordinates": [-8.4204186, 40.2241489]}, "properties": {"role": "node", "id": "9108177413", "dist_to_outlet_m": 855.6580645614423, "observable": true, "access": false}}, {"type": "Feature", "geometry": {"type": "Point", "coordinates": [-8.4206703, 40.2242072]}, "properties": {"role": "node", "id": "9108177414", "dist_to_outlet_m": 833.3270848895908, "observable": true, "access": false}}, {"type": "Feature", "geometry": {"type": "Point", "coordinates": [-8.4208579, 40.2242504]}, "properties": {"role": "node", "id": "9108177415", "dist_to_outlet_m": 816.6912481758426, "observable": true, "access": false}}, {"type": "Feature", "geometry": {"type": "Point", "coordinates": [-8.4214065, 40.2243288]}, "properties": {"role": "node", "id": "9108177416", "dist_to_outlet_m": 769.3063871093885, "observable": true, "access": true}}, {"type": "Feature", "geometry": {"type": "Point", "coordinates": [-8.4217852, 40.2243504]}, "properties": {"role": "node", "id": "9108196517", "dist_to_outlet_m": 737.0652668381124, "observable": true, "access": false}}, {"type": "Feature", "geometry": {"type": "Point", "coordinates": [-8.4220542, 40.2243639]}, "properties": {"role": "node", "id": "9108196518", "dist_to_outlet_m": 714.1779597720523, "observable": true, "access": false}}, {"type": "Feature", "geometry": {"type": "Point", "coordinates": [-8.4224258, 40.2243315]}, "properties": {"role": "node", "id": "9108196519", "dist_to_outlet_m": 682.4241775134676, "observable": true, "access": false}}, {"type": "Feature", "geometry": {"type": "Point", "coordinates": [-8.4225426, 40.2243207]}, "properties": {"role": "node", "id": "9108196520", "dist_to_outlet_m": 672.4354324437422, "observable": true, "access": false}}, {"type": "Feature", "geometry": {"type": "Point", "coordinates": [-8.4228505, 40.2242423]}, "properties": {"role": "node", "id": "9108196521", "dist_to_outlet_m": 644.8794567300454, "observable": true, "access": true}}, {"type": "Feature", "geometry": {"type": "Point", "coordinates": [-8.4236043, 40.224018]}, "properties": {"role": "node", "id": "9108196522", "dist_to_outlet_m": 576.193571479676, "observable": true, "access": false}}, {"type": "Feature", "geometry": {"type": "Point", "coordinates": [-8.4241848, 40.2238505]}, "properties": {"role": "node", "id": "9108196523", "dist_to_outlet_m": 523.5070665079259, "observable": true, "access": true}}, {"type": "Feature", "geometry": {"type": "Point", "coordinates": [-8.4247263, 40.2237343]}, "properties": {"role": "node", "id": "9108196524", "dist_to_outlet_m": 475.75228852702645, "observable": true, "access": false}}, {"type": "Feature", "geometry": {"type": "Point", "coordinates": [-8.4250696, 40.2236397]}, "properties": {"role": "node", "id": "9108196525", "dist_to_outlet_m": 444.76582813574475, "observable": true, "access": false}}, {"type": "Feature", "geometry": {"type": "Point", "coordinates": [-8.4259756, 40.2233478]}, "properties": {"role": "node", "id": "9108196526", "dist_to_outlet_m": 361.27801307486686, "observable": true, "access": true}}, {"type": "Feature", "geometry": {"type": "Point", "coordinates": [-8.4264251, 40.2231965]}, "properties": {"role": "node", "id": "9108196527", "dist_to_outlet_m": 319.5712100302617, "observable": true, "access": false}}, {"type": "Feature", "geometry": {"type": "Point", "coordinates": [-8.4265065, 40.2231533]}, "properties": {"role": "node", "id": "9108196528", "dist_to_outlet_m": 311.1547905833615, "observable": true, "access": false}}, {"type": "Feature", "geometry": {"type": "Point", "coordinates": [-8.4267047, 40.222956]}, "properties": {"role": "node", "id": "9108196529", "dist_to_outlet_m": 283.5057004266315, "observable": true, "access": false}}, {"type": "Feature", "geometry": {"type": "Point", "coordinates": [-8.4269524, 40.2227723]}, "properties": {"role": "node", "id": "9108196530", "dist_to_outlet_m": 254.1883267467624, "observable": true, "access": true}}, {"type": "Feature", "geometry": {"type": "Point", "coordinates": [-8.4270657, 40.2227074]}, "properties": {"role": "node", "id": "9108196531", "dist_to_outlet_m": 242.16290142974535, "observable": true, "access": false}}, {"type": "Feature", "geometry": {"type": "Point", "coordinates": [-8.3795996, 40.2207401]}, "properties": {"role": "node", "id": "9108196555", "dist_to_outlet_m": 5133.94267031599, "observable": true, "access": true}}, {"type": "Feature", "geometry": {"type": "Point", "coordinates": [-8.3801092, 40.2209995]}, "properties": {"role": "node", "id": "9108196556", "dist_to_outlet_m": 5081.942492168487, "observable": true, "access": false}}, {"type": "Feature", "geometry": {"type": "Point", "coordinates": [-8.380633, 40.2213995]}, "properties": {"role": "node", "id": "9108196557", "dist_to_outlet_m": 5019.044976677678, "observable": true, "access": true}}, {"type": "Feature", "geometry": {"type": "Point", "coordinates": [-8.3812135, 40.2219291]}, "properties": {"role": "node", "id": "9108196558", "dist_to_outlet_m": 4942.252860964763, "observable": true, "access": false}}, {"type": "Feature", "geometry": {"type": "Point", "coordinates": [-8.3816948, 40.2222318]}, "properties": {"role": "node", "id": "9108196559", "dist_to_outlet_m": 4889.311921601973, "observable": true, "access": true}}, {"type": "Feature", "geometry": {"type": "Point", "coordinates": [-8.3821761, 40.2224696]}, "properties": {"role": "node", "id": "9108196560", "dist_to_outlet_m": 4840.639456612793, "observable": true, "access": false}}, {"type": "Feature", "geometry": {"type": "Point", "coordinates": [-8.382293, 40.2224958]}, "properties": {"role": "node", "id": "9108196647", "dist_to_outlet_m": 4830.295665047148, "observable": true, "access": false}}, {"type": "Feature", "geometry": {"type": "Point", "coordinates": [-8.3826574, 40.2225777]}, "properties": {"role": "node", "id": "9108196561", "dist_to_outlet_m": 4798.044884703409, "observable": true, "access": false}}, {"type": "Feature", "geometry": {"type": "Point", "coordinates": [-8.3833653, 40.2225777]}, "properties": {"role": "node", "id": "9108196562", "dist_to_outlet_m": 4737.9427908993275, "observable": true, "access": true}}, {"type": "Feature", "geometry": {"type": "Point", "coordinates": [-8.3840448, 40.2223831]}, "properties": {"role": "node", "id": "9108196563", "dist_to_outlet_m": 4676.327264476285, "observable": true, "access": false}}, {"type": "Feature", "geometry": {"type": "Point", "coordinates": [-8.3844837, 40.2224155]}, "properties": {"role": "node", "id": "9108196564", "dist_to_outlet_m": 4638.8899446252735, "observable": true, "access": false}}, {"type": "Feature", "geometry": {"type": "Point", "coordinates": [-8.3849508, 40.2224912]}, "properties": {"role": "node", "id": "9108196565", "dist_to_outlet_m": 4598.348697081245, "observable": true, "access": true}}, {"type": "Feature", "geometry": {"type": "Point", "coordinates": [-8.3852906, 40.2226209]}, "properties": {"role": "node", "id": "9108196566", "dist_to_outlet_m": 4566.0950402777235, "observable": true, "access": false}}, {"type": "Feature", "geometry": {"type": "Point", "coordinates": [-8.3857436, 40.2228911]}, "properties": {"role": "node", "id": "9108196567", "dist_to_outlet_m": 4517.290296485184, "observable": true, "access": false}}, {"type": "Feature", "geometry": {"type": "Point", "coordinates": [-8.3860268, 40.223183]}, "properties": {"role": "node", "id": "9108196568", "dist_to_outlet_m": 4476.896905303718, "observable": true, "access": true}}, {"type": "Feature", "geometry": {"type": "Point", "coordinates": [-8.3861683, 40.2233884]}, "properties": {"role": "node", "id": "9108196569", "dist_to_outlet_m": 4451.090624429091, "observable": true, "access": false}}, {"type": "Feature", "geometry": {"type": "Point", "coordinates": [-8.3864798, 40.2241342]}, "properties": {"role": "node", "id": "9108196574", "dist_to_outlet_m": 4364.046581114294, "observable": true, "access": true}}, {"type": "Feature", "geometry": {"type": "Point", "coordinates": [-8.3866638, 40.2247719]}, "properties": {"role": "node", "id": "9108196575", "dist_to_outlet_m": 4291.43722177646, "observable": true, "access": false}}, {"type": "Feature", "geometry": {"type": "Point", "coordinates": [-8.3867791, 40.2252034]}, "properties": {"role": "node", "id": "9108196576", "dist_to_outlet_m": 4242.46824643821, "observable": true, "access": true}}, {"type": "Feature", "geometry": {"type": "Point", "coordinates": [-8.3870312, 40.225489]}, "properties": {"role": "node", "id": "9108196577", "dist_to_outlet_m": 4204.171918420166, "observable": true, "access": false}}, {"type": "Feature", "geometry": {"type": "Point", "coordinates": [-8.3874052, 40.2256566]}, "properties": {"role": "node", "id": "9108196578", "dist_to_outlet_m": 4167.354864889471, "observable": true, "access": false}}, {"type": "Feature", "geometry": {"type": "Point", "coordinates": [-8.3876889, 40.2256803]}, "properties": {"role": "node", "id": "9108196579", "dist_to_outlet_m": 4143.12553666373, "observable": true, "access": false}}, {"type": "Feature", "geometry": {"type": "Point", "coordinates": [-8.3879225, 40.2256209]}, "properties": {"role": "node", "id": "9108196580", "dist_to_outlet_m": 4122.222384249, "observable": true, "access": true}}, {"type": "Feature", "geometry": {"type": "Point", "coordinates": [-8.388235, 40.225508]}, "properties": {"role": "node", "id": "9108196581", "dist_to_outlet_m": 4092.871436090292, "observable": true, "access": false}}, {"type": "Feature", "geometry": {"type": "Point", "coordinates": [-8.3883691, 40.225508]}, "properties": {"role": "node", "id": "9108196582", "dist_to_outlet_m": 4081.4865764290034, "observable": true, "access": false}}, {"type": "Feature", "geometry": {"type": "Point", "coordinates": [-8.3885622, 40.2255285]}, "properties": {"role": "node", "id": "9108196583", "dist_to_outlet_m": 4064.9350021458067, "observable": true, "access": false}}, {"type": "Feature", "geometry": {"type": "Point", "coordinates": [-8.3888519, 40.225594]}, "properties": {"role": "node", "id": "9108196584", "dist_to_outlet_m": 4039.2842583814795, "observable": true, "access": false}}, {"type": "Feature", "geometry": {"type": "Point", "coordinates": [-8.3890598, 40.2257533]}, "properties": {"role": "node", "id": "9108196585", "dist_to_outlet_m": 4014.2783337580518, "observable": true, "access": false}}, {"type": "Feature", "geometry": {"type": "Point", "coordinates": [-8.3890998, 40.2258192]}, "properties": {"role": "node", "id": "9108196586", "dist_to_outlet_m": 4006.201941547112, "observable": true, "access": true}}, {"type": "Feature", "geometry": {"type": "Point", "coordinates": [-8.3891153, 40.2259157]}, "properties": {"role": "node", "id": "9108196587", "dist_to_outlet_m": 3995.391243249155, "observable": true, "access": false}}, {"type": "Feature", "geometry": {"type": "Point", "coordinates": [-8.3891769, 40.2260121]}, "properties": {"role": "node", "id": "9108196588", "dist_to_outlet_m": 3983.4643490295757, "observable": true, "access": false}}, {"type": "Feature", "geometry": {"type": "Point", "coordinates": [-8.3893494, 40.226118]}, "properties": {"role": "node", "id": "9108196589", "dist_to_outlet_m": 3964.6724745051883, "observable": true, "access": false}}, {"type": "Feature", "geometry": {"type": "Point", "coordinates": [-8.3896452, 40.226285]}, "properties": {"role": "node", "id": "9108196590", "dist_to_outlet_m": 3933.4398998268452, "observable": true, "access": false}}, {"type": "Feature", "geometry": {"type": "Point", "coordinates": [-8.3898193, 40.2262595]}, "properties": {"role": "node", "id": "9108196591", "dist_to_outlet_m": 3918.3897587902998, "observable": true, "access": false}}, {"type": "Feature", "geometry": {"type": "Point", "coordinates": [-8.3901305, 40.2262431]}, "properties": {"role": "node", "id": "9108196592", "dist_to_outlet_m": 3891.9068427762686, "observable": true, "access": false}}, {"type": "Feature", "geometry": {"type": "Point", "coordinates": [-8.3903719, 40.2262472]}, "properties": {"role": "node", "id": "9108196593", "dist_to_outlet_m": 3871.4075502764435, "observable": true, "access": true}}, {"type": "Feature", "geometry": {"type": "Point", "coordinates": [-8.3906186, 40.2262472]}, "properties": {"role": "node", "id": "9108196594", "dist_to_outlet_m": 3850.4633725804797, "observable": true, "access": false}}, {"type": "Feature", "geometry": {"type": "Point", "coordinates": [-8.3909405, 40.2262636]}, "properties": {"role": "node", "id": "9108196595", "dist_to_outlet_m": 3823.0741413385394, "observable": true, "access": false}}, {"type": "Feature", "geometry": {"type": "Point", "coordinates": [-8.3911873, 40.2263251]}, "properties": {"role": "node", "id": "9108196596", "dist_to_outlet_m": 3801.033756149186, "observable": true, "access": false}}, {"type": "Feature", "geometry": {"type": "Point", "coordinates": [-8.3914555, 40.2264971]}, "properties": {"role": "node", "id": "9108196597", "dist_to_outlet_m": 3771.2977158706526, "observable": true, "access": false}}, {"type": "Feature", "geometry": {"type": "Point", "coordinates": [-8.3917183, 40.2266527]}, "properties": {"role": "node", "id": "9108196598", "dist_to_outlet_m": 3743.064157331127, "observable": true, "access": true}}, {"type": "Feature", "geometry": {"type": "Point", "coordinates": [-8.3920295, 40.2267551]}, "properties": {"role": "node", "id": "9108196599", "dist_to_outlet_m": 3714.2950903912183, "observable": true, "access": false}}, {"type": "Feature", "geometry": {"type": "Point", "coordinates": [-8.3926243, 40.2267848]}, "properties": {"role": "node", "id": "9108196600", "dist_to_outlet_m": 3663.6906561709443, "observable": true, "access": false}}, {"type": "Feature", "geometry": {"type": "Point", "coordinates": [-8.3931193, 40.226685]}, "properties": {"role": "node", "id": "9108196601", "dist_to_outlet_m": 3620.22623104468, "observable": true, "access": true}}, {"type": "Feature", "geometry": {"type": "Point", "coordinates": [-8.3933248, 40.2265067]}, "properties": {"role": "node", "id": "9108196602", "dist_to_outlet_m": 3593.817019684268, "observable": true, "access": false}}, {"type": "Feature", "geometry": {"type": "Point", "coordinates": [-8.3935489, 40.226414]}, "properties": {"role": "node", "id": "9108196603", "dist_to_outlet_m": 3572.1786881517937, "observable": true, "access": false}}, {"type": "Feature", "geometry": {"type": "Point", "coordinates": [-8.3937918, 40.2263784]}, "properties": {"role": "node", "id": "9108196604", "dist_to_outlet_m": 3551.180659209115, "observable": true, "access": false}}, {"type": "Feature", "geometry": {"type": "Point", "coordinates": [-8.3942121, 40.2263998]}, "properties": {"role": "node", "id": "9108196605", "dist_to_outlet_m": 3515.419119162852, "observable": true, "access": false}}, {"type": "Feature", "geometry": {"type": "Point", "coordinates": [-8.3947071, 40.2264426]}, "properties": {"role": "node", "id": "9108196606", "dist_to_outlet_m": 3473.1264128112034, "observable": true, "access": true}}, {"type": "Feature", "geometry": {"type": "Point", "coordinates": [-8.3952021, 40.226414]}, "properties": {"role": "node", "id": "9108196607", "dist_to_outlet_m": 3430.982175815047, "observable": true, "access": false}}, {"type": "Feature", "geometry": {"type": "Point", "coordinates": [-8.3963136, 40.2262072]}, "properties": {"role": "node", "id": "9108196608", "dist_to_outlet_m": 3333.857452903229, "observable": true, "access": true}}, {"type": "Feature", "geometry": {"type": "Point", "coordinates": [-8.3969394, 40.2259077]}, "properties": {"role": "node", "id": "9108196609", "dist_to_outlet_m": 3271.153678144468, "observable": true, "access": false}}, {"type": "Feature", "geometry": {"type": "Point", "coordinates": [-8.3972785, 40.2258016]}, "properties": {"role": "node", "id": "9108196667", "dist_to_outlet_m": 3240.041202738647, "observable": true, "access": false}}, {"type": "Feature", "geometry": {"type": "Point", "coordinates": [-8.3975091, 40.2257294]}, "properties": {"role": "node", "id": "9108196610", "dist_to_outlet_m": 3218.881559780433, "observable": true, "access": true}}, {"type": "Feature", "geometry": {"type": "Point", "coordinates": [-8.3976959, 40.2256225]}, "properties": {"role": "node", "id": "9108196611", "dist_to_outlet_m": 3199.062348425973, "observable": true, "access": false}}, {"type": "Feature", "geometry": {"type": "Point", "coordinates": [-8.3977333, 40.2254585]}, "properties": {"role": "node", "id": "9108196612", "dist_to_outlet_m": 3180.5520165481594, "observable": true, "access": false}}, {"type": "Feature", "geometry": {"type": "Point", "coordinates": [-8.3978547, 40.2252374]}, "properties": {"role": "node", "id": "9108196613", "dist_to_outlet_m": 3153.8938181625113, "observable": true, "access": false}}, {"type": "Feature", "geometry": {"type": "Point", "coordinates": [-8.3980415, 40.2249236]}, "properties": {"role": "node", "id": "9108196614", "dist_to_outlet_m": 3115.5658878405607, "observable": true, "access": true}}, {"type": "Feature", "geometry": {"type": "Point", "coordinates": [-8.3982937, 40.2246312]}, "properties": {"role": "node", "id": "9108196615", "dist_to_outlet_m": 3076.635480491227, "observable": true, "access": false}}, {"type": "Feature", "geometry": {"type": "Point", "coordinates": [-8.3988447, 40.2240393]}, "properties": {"role": "node", "id": "9108196616", "dist_to_outlet_m": 2995.888167253756, "observable": true, "access": true}}, {"type": "Feature", "geometry": {"type": "Point", "coordinates": [-8.3990884, 40.2239153]}, "properties": {"role": "node", "id": "9108196617", "dist_to_outlet_m": 2971.0245962970107, "observable": true, "access": false}}, {"type": "Feature", "geometry": {"type": "Point", "coordinates": [-8.403186, 40.2223349]}, "properties": {"role": "node", "id": "14002717506", "dist_to_outlet_m": 2548.433279787363, "observable": true, "access": false}}, {"type": "Feature", "geometry": {"type": "Point", "coordinates": [-8.4033361, 40.2223349]}, "properties": {"role": "node", "id": "9108177364", "dist_to_outlet_m": 2535.6894506984004, "observable": true, "access": false}}, {"type": "Feature", "geometry": {"type": "Point", "coordinates": [-8.4036442, 40.2223773]}, "properties": {"role": "node", "id": "9108177365", "dist_to_outlet_m": 2509.109593735311, "observable": true, "access": false}}, {"type": "Feature", "geometry": {"type": "Point", "coordinates": [-8.4038044, 40.2224714]}, "properties": {"role": "node", "id": "9108177366", "dist_to_outlet_m": 2491.9491845298576, "observable": true, "access": false}}, {"type": "Feature", "geometry": {"type": "Point", "coordinates": [-8.4039954, 40.2225655]}, "properties": {"role": "node", "id": "9108177367", "dist_to_outlet_m": 2472.6501790404773, "observable": true, "access": false}}, {"type": "Feature", "geometry": {"type": "Point", "coordinates": [-8.4042481, 40.2226596]}, "properties": {"role": "node", "id": "9108177368", "dist_to_outlet_m": 2448.7799394438607, "observable": true, "access": true}}, {"type": "Feature", "geometry": {"type": "Point", "coordinates": [-8.4045562, 40.2227631]}, "properties": {"role": "node", "id": "9108177369", "dist_to_outlet_m": 2420.201920739915, "observable": true, "access": false}}, {"type": "Feature", "geometry": {"type": "Point", "coordinates": [-8.4047836, 40.2227793]}, "properties": {"role": "node", "id": "9108177370", "dist_to_outlet_m": 2400.8114179064664, "observable": true, "access": false}}, {"type": "Feature", "geometry": {"type": "Point", "coordinates": [-8.4049315, 40.2227699]}, "properties": {"role": "node", "id": "9108177371", "dist_to_outlet_m": 2388.2110281983214, "observable": true, "access": false}}, {"type": "Feature", "geometry": {"type": "Point", "coordinates": [-8.405138, 40.2227393]}, "properties": {"role": "node", "id": "9108177372", "dist_to_outlet_m": 2370.3516956162266, "observable": true, "access": false}}, {"type": "Feature", "geometry": {"type": "Point", "coordinates": [-8.4053043, 40.2227017]}, "properties": {"role": "node", "id": "9108177373", "dist_to_outlet_m": 2355.6265131482746, "observable": true, "access": false}}, {"type": "Feature", "geometry": {"type": "Point", "coordinates": [-8.4054245, 40.2226876]}, "properties": {"role": "node", "id": "9108177374", "dist_to_outlet_m": 2345.301582070255, "observable": true, "access": false}}, {"type": "Feature", "geometry": {"type": "Point", "coordinates": [-8.4055077, 40.2227017]}, "properties": {"role": "node", "id": "9108177375", "dist_to_outlet_m": 2338.0658478732566, "observable": true, "access": true}}, {"type": "Feature", "geometry": {"type": "Point", "coordinates": [-8.4055539, 40.2227581]}, "properties": {"role": "node", "id": "9108177376", "dist_to_outlet_m": 2330.6688156851283, "observable": true, "access": false}}, {"type": "Feature", "geometry": {"type": "Point", "coordinates": [-8.4059463, 40.2232798]}, "properties": {"role": "node", "id": "9108177377", "dist_to_outlet_m": 2263.772510795909, "observable": true, "access": false}}, {"type": "Feature", "geometry": {"type": "Point", "coordinates": [-8.4061823, 40.2234437]}, "properties": {"role": "node", "id": "9108177378", "dist_to_outlet_m": 2236.687245037111, "observable": true, "access": true}}, {"type": "Feature", "geometry": {"type": "Point", "coordinates": [-8.4064667, 40.2235256]}, "properties": {"role": "node", "id": "9108177379", "dist_to_outlet_m": 2210.8811549535635, "observable": true, "access": false}}, {"type": "Feature", "geometry": {"type": "Point", "coordinates": [-8.406633, 40.223542]}, "properties": {"role": "node", "id": "9108177380", "dist_to_outlet_m": 2196.644879170083, "observable": true, "access": false}}, {"type": "Feature", "geometry": {"type": "Point", "coordinates": [-8.4067724, 40.2235829]}, "properties": {"role": "node", "id": "9108177381", "dist_to_outlet_m": 2183.9659924918005, "observable": true, "access": false}}, {"type": "Feature", "geometry": {"type": "Point", "coordinates": [-8.406987, 40.2236894]}, "properties": {"role": "node", "id": "9108177382", "dist_to_outlet_m": 2162.2359288575417, "observable": true, "access": false}}, {"type": "Feature", "geometry": {"type": "Point", "coordinates": [-8.407105, 40.2238287]}, "properties": {"role": "node", "id": "9108177383", "dist_to_outlet_m": 2143.789015415539, "observable": true, "access": false}}, {"type": "Feature", "geometry": {"type": "Point", "coordinates": [-8.4075883, 40.224678]}, "properties": {"role": "node", "id": "9108177384", "dist_to_outlet_m": 2040.822317137302, "observable": true, "access": true}}, {"type": "Feature", "geometry": {"type": "Point", "coordinates": [-8.4079433, 40.2250845]}, "properties": {"role": "node", "id": "9108177385", "dist_to_outlet_m": 1986.494826858127, "observable": true, "access": false}}, {"type": "Feature", "geometry": {"type": "Point", "coordinates": [-8.4085504, 40.2253341]}, "properties": {"role": "node", "id": "9108177386", "dist_to_outlet_m": 1927.955321125939, "observable": true, "access": true}}, {"type": "Feature", "geometry": {"type": "Point", "coordinates": [-8.4091575, 40.2254981]}, "properties": {"role": "node", "id": "9108177387", "dist_to_outlet_m": 1873.2825725119162, "observable": true, "access": false}}, {"type": "Feature", "geometry": {"type": "Point", "coordinates": [-8.4099514, 40.2255908]}, "properties": {"role": "node", "id": "9108177388", "dist_to_outlet_m": 1805.0982206761623, "observable": true, "access": true}}, {"type": "Feature", "geometry": {"type": "Point", "coordinates": [-8.4107266, 40.2255551]}, "properties": {"role": "node", "id": "9108177389", "dist_to_outlet_m": 1739.1655247152657, "observable": true, "access": false}}, {"type": "Feature", "geometry": {"type": "Point", "coordinates": [-8.4113991, 40.2255337]}, "properties": {"role": "node", "id": "9108177390", "dist_to_outlet_m": 1682.0218940461782, "observable": true, "access": true}}, {"type": "Feature", "geometry": {"type": "Point", "coordinates": [-8.4123891, 40.2256764]}, "properties": {"role": "node", "id": "9108177391", "dist_to_outlet_m": 1596.4880260669195, "observable": true, "access": false}}, {"type": "Feature", "geometry": {"type": "Point", "coordinates": [-8.4128561, 40.2256764]}, "properties": {"role": "node", "id": "9108177392", "dist_to_outlet_m": 1556.8406267800592, "observable": true, "access": true}}, {"type": "Feature", "geometry": {"type": "Point", "coordinates": [-8.4134352, 40.2256621]}, "properties": {"role": "node", "id": "9108177393", "dist_to_outlet_m": 1507.6504417701105, "observable": true, "access": false}}, {"type": "Feature", "geometry": {"type": "Point", "coordinates": [-8.4140423, 40.2255409]}, "properties": {"role": "node", "id": "9108177394", "dist_to_outlet_m": 1454.375971463731, "observable": true, "access": true}}, {"type": "Feature", "geometry": {"type": "Point", "coordinates": [-8.4143038, 40.2254767]}, "properties": {"role": "node", "id": "9108177395", "dist_to_outlet_m": 1431.0555677840036, "observable": true, "access": false}}, {"type": "Feature", "geometry": {"type": "Point", "coordinates": [-8.4146587, 40.2254838]}, "properties": {"role": "node", "id": "9108177396", "dist_to_outlet_m": 1400.9148136944182, "observable": true, "access": false}}, {"type": "Feature", "geometry": {"type": "Point", "coordinates": [-8.415079, 40.2255551]}, "properties": {"role": "node", "id": "9108177397", "dist_to_outlet_m": 1364.3619149462606, "observable": true, "access": false}}, {"type": "Feature", "geometry": {"type": "Point", "coordinates": [-8.4153966, 40.2255623]}, "properties": {"role": "node", "id": "9108177398", "dist_to_outlet_m": 1337.3863575459068, "observable": true, "access": true}}, {"type": "Feature", "geometry": {"type": "Point", "coordinates": [-8.4159103, 40.2255052]}, "properties": {"role": "node", "id": "9108177399", "dist_to_outlet_m": 1293.314377520494, "observable": true, "access": false}}, {"type": "Feature", "geometry": {"type": "Point", "coordinates": [-8.4162372, 40.2253341]}, "properties": {"role": "node", "id": "9108177400", "dist_to_outlet_m": 1259.6660100546499, "observable": true, "access": false}}, {"type": "Feature", "geometry": {"type": "Point", "coordinates": [-8.4165454, 40.2251915]}, "properties": {"role": "node", "id": "9108177401", "dist_to_outlet_m": 1229.070723819061, "observable": true, "access": true}}, {"type": "Feature", "geometry": {"type": "Point", "coordinates": [-8.4168536, 40.2249704]}, "properties": {"role": "node", "id": "9108177402", "dist_to_outlet_m": 1193.1669374017597, "observable": true, "access": false}}, {"type": "Feature", "geometry": {"type": "Point", "coordinates": [-8.4172272, 40.2247707]}, "properties": {"role": "node", "id": "9108177403", "dist_to_outlet_m": 1154.448205333904, "observable": true, "access": false}}, {"type": "Feature", "geometry": {"type": "Point", "coordinates": [-8.4175134, 40.224504]}, "properties": {"role": "node", "id": "9108177404", "dist_to_outlet_m": 1116.1094217721036, "observable": true, "access": true}}, {"type": "Feature", "geometry": {"type": "Point", "coordinates": [-8.4177656, 40.2243757]}, "properties": {"role": "node", "id": "9108177405", "dist_to_outlet_m": 1090.3802980983182, "observable": true, "access": false}}, {"type": "Feature", "geometry": {"type": "Point", "coordinates": [-8.4181018, 40.2242188]}, "properties": {"role": "node", "id": "9108177406", "dist_to_outlet_m": 1056.9273385520464, "observable": true, "access": false}}, {"type": "Feature", "geometry": {"type": "Point", "coordinates": [-8.4184708, 40.2241011]}, "properties": {"role": "node", "id": "9108177407", "dist_to_outlet_m": 1022.9753784567226, "observable": true, "access": false}}, {"type": "Feature", "geometry": {"type": "Point", "coordinates": [-8.418849, 40.2240726]}, "properties": {"role": "node", "id": "9108177408", "dist_to_outlet_m": 990.7101666403207, "observable": true, "access": true}}, {"type": "Feature", "geometry": {"type": "Point", "coordinates": [-8.4192111, 40.2241392]}, "properties": {"role": "node", "id": "9108177409", "dist_to_outlet_m": 959.088466463829, "observable": true, "access": false}}, {"type": "Feature", "geometry": {"type": "Point", "coordinates": [-8.4193144, 40.2241506]}, "properties": {"role": "node", "id": "9108177410", "dist_to_outlet_m": 950.2271612029695, "observable": true, "access": false}}, {"type": "Feature", "geometry": {"type": "Point", "coordinates": [-8.3994767, 40.2233322]}, "properties": {"role": "node", "id": "9108196618", "dist_to_outlet_m": 2898.2870326852076, "observable": true, "access": false}}, {"type": "Feature", "geometry": {"type": "Point", "coordinates": [-8.3995128, 40.2232912]}, "properties": {"role": "node", "id": "14002717503", "dist_to_outlet_m": 2892.7935649537567, "observable": true, "access": true}}, {"type": "Feature", "geometry": {"type": "Point", "coordinates": [-8.3995863, 40.2232079]}, "properties": {"role": "node", "id": "14002717502", "dist_to_outlet_m": 2881.6250784091344, "observable": true, "access": false}}, {"type": "Feature", "geometry": {"type": "Point", "coordinates": [-8.3997816, 40.2230653]}, "properties": {"role": "node", "id": "9108196619", "dist_to_outlet_m": 2858.6824978800723, "observable": true, "access": false}}, {"type": "Feature", "geometry": {"type": "Point", "coordinates": [-8.4000906, 40.2228635]}, "properties": {"role": "node", "id": "9108196620", "dist_to_outlet_m": 2824.1605241281086, "observable": true, "access": false}}, {"type": "Feature", "geometry": {"type": "Point", "coordinates": [-8.400363, 40.2226928]}, "properties": {"role": "node", "id": "9108196621", "dist_to_outlet_m": 2794.2415357457235, "observable": true, "access": false}}, {"type": "Feature", "geometry": {"type": "Point", "coordinates": [-8.4005605, 40.2225821]}, "properties": {"role": "node", "id": "9108196622", "dist_to_outlet_m": 2773.4403765080788, "observable": true, "access": true}}, {"type": "Feature", "geometry": {"type": "Point", "coordinates": [-8.4008238, 40.2225547]}, "properties": {"role": "node", "id": "14002717505", "dist_to_outlet_m": 2750.8790224737063, "observable": true, "access": false}}, {"type": "Feature", "geometry": {"type": "Point", "coordinates": [-8.4011064, 40.2225253]}, "properties": {"role": "node", "id": "14002717504", "dist_to_outlet_m": 2726.6640283857723, "observable": true, "access": false}}, {"type": "Feature", "geometry": {"type": "Point", "coordinates": [-8.4014561, 40.2224889]}, "properties": {"role": "node", "id": "9108196535", "dist_to_outlet_m": 2696.6991683159804, "observable": true, "access": false}}, {"type": "Feature", "geometry": {"type": "Point", "coordinates": [-8.4028801, 40.2223255]}, "properties": {"role": "node", "id": "9108177362", "dist_to_outlet_m": 2574.4408433648327, "observable": true, "access": true}}, {"type": "Feature", "geometry": {"type": "Point", "coordinates": [-8.4030588, 40.2223349]}, "properties": {"role": "node", "id": "9108177363", "dist_to_outlet_m": 2559.232847143146, "observable": true, "access": false}}, {"type": "Feature", "geometry": {"type": "Point", "coordinates": [-8.4030806, 40.2223349]}, "properties": {"role": "node", "id": "14002717507", "dist_to_outlet_m": 2557.381977895147, "observable": true, "access": false}}, {"type": "Feature", "geometry": {"type": "Point", "coordinates": [-8.3840448, 40.2223831]}, "properties": {"role": "candidate", "id": "O1", "node_id": "9108196563", "label": "O-1", "prior_weight": 1.0, "synthetic": true, "kind": "outfall"}}, {"type": "Feature", "geometry": {"type": "Point", "coordinates": [-8.3857436, 40.2228911]}, "properties": {"role": "candidate", "id": "O2", "node_id": "9108196567", "label": "O-2", "prior_weight": 1.0, "synthetic": true, "kind": "outfall"}}, {"type": "Feature", "geometry": {"type": "Point", "coordinates": [-8.3885622, 40.2255285]}, "properties": {"role": "candidate", "id": "O3", "node_id": "9108196583", "label": "O-3", "prior_weight": 1.0, "synthetic": true, "kind": "outfall"}}, {"type": "Feature", "geometry": {"type": "Point", "coordinates": [-8.3952021, 40.226414]}, "properties": {"role": "candidate", "id": "O4", "node_id": "9108196607", "label": "O-4", "prior_weight": 1.0, "synthetic": true, "kind": "outfall"}}, {"type": "Feature", "geometry": {"type": "Point", "coordinates": [-8.3978547, 40.2252374]}, "properties": {"role": "candidate", "id": "O5", "node_id": "9108196613", "label": "O-5", "prior_weight": 1.0, "synthetic": true, "kind": "outfall"}}, {"type": "Feature", "geometry": {"type": "Point", "coordinates": [-8.3995128, 40.2232912]}, "properties": {"role": "candidate", "id": "O6", "node_id": "14002717503", "label": "O-6", "prior_weight": 1.0, "synthetic": true, "kind": "outfall"}}, {"type": "Feature", "geometry": {"type": "Point", "coordinates": [-8.4033361, 40.2223349]}, "properties": {"role": "candidate", "id": "O7", "node_id": "9108177364", "label": "O-7", "prior_weight": 1.0, "synthetic": true, "kind": "outfall"}}, {"type": "Feature", "geometry": {"type": "Point", "coordinates": [-8.4055077, 40.2227017]}, "properties": {"role": "candidate", "id": "O8", "node_id": "9108177375", "label": "O-8", "prior_weight": 1.0, "synthetic": true, "kind": "outfall"}}, {"type": "Feature", "geometry": {"type": "Point", "coordinates": [-8.4067724, 40.2235829]}, "properties": {"role": "candidate", "id": "O9", "node_id": "9108177381", "label": "O-9", "prior_weight": 1.0, "synthetic": true, "kind": "outfall"}}, {"type": "Feature", "geometry": {"type": "Point", "coordinates": [-8.4075883, 40.224678]}, "properties": {"role": "candidate", "id": "O10", "node_id": "9108177384", "label": "O-10", "prior_weight": 1.0, "synthetic": true, "kind": "outfall"}}, {"type": "Feature", "geometry": {"type": "Point", "coordinates": [-8.4143038, 40.2254767]}, "properties": {"role": "candidate", "id": "O11", "node_id": "9108177395", "label": "O-11", "prior_weight": 1.0, "synthetic": true, "kind": "outfall"}}, {"type": "Feature", "geometry": {"type": "Point", "coordinates": [-8.4165454, 40.2251915]}, "properties": {"role": "candidate", "id": "O12", "node_id": "9108177401", "label": "O-12", "prior_weight": 1.0, "synthetic": true, "kind": "outfall"}}, {"type": "Feature", "geometry": {"type": "Point", "coordinates": [-8.4172272, 40.2247707]}, "properties": {"role": "candidate", "id": "O13", "node_id": "9108177403", "label": "O-13", "prior_weight": 1.0, "synthetic": true, "kind": "outfall"}}, {"type": "Feature", "geometry": {"type": "Point", "coordinates": [-8.4280527, 40.2223482]}, "properties": {"role": "candidate", "id": "O14", "node_id": "8638210953", "label": "O-14", "prior_weight": 1.0, "synthetic": true, "kind": "outfall"}}, {"type": "Feature", "geometry": {"type": "Point", "coordinates": [-8.4085653, 40.2243356]}, "properties": {"role": "place", "id": "osm-w200376153", "kind": "park", "label": "Penedo da Medita\u00e7\u00e3o", "node_id": "9108177384", "weight": 0.417}}, {"type": "Feature", "geometry": {"type": "Point", "coordinates": [-8.4221544, 40.2253157]}, "properties": {"role": "place", "id": "osm-w1273905980", "kind": "school", "label": "Escola B\u00e1sica de Coselhas", "node_id": "9108196518", "weight": 0.517}}]}