{"type": "FeatureCollection", "properties": {"name": "Hoffselva", "city": "Oslo", "source": "OpenStreetMap (ODbL)", "gaps_bridged": 0, "fragments_dropped": 1, "candidates": "synthetic, 1 per ~130 m unless set", "fetched": "2026-09-25", "tz": "Europe/Oslo"}, "features": [{"type": "Feature", "geometry": {"type": "LineString", "coordinates": [[10.6788111, 59.9213935], [10.6788298, 59.9211447]]}, "properties": {"role": "edge", "from": "428063129", "to": "428063130", "length": 27.68, "culvert": false, "unmapped": false}}, {"type": "Feature", "geometry": {"type": "LineString", "coordinates": [[10.6788298, 59.9211447], [10.6788074, 59.9210531]]}, "properties": {"role": "edge", "from": "428063130", "to": "1441725568", "length": 10.26, "culvert": false, "unmapped": false}}, {"type": "Feature", "geometry": {"type": "LineString", "coordinates": [[10.6788074, 59.9210531], [10.6787812, 59.9208418]]}, "properties": {"role": "edge", "from": "1441725568", "to": "1441725563", "length": 23.54, "culvert": false, "unmapped": false}}, {"type": "Feature", "geometry": {"type": "LineString", "coordinates": [[10.6787812, 59.9208418], [10.6787936, 59.9206949]]}, "properties": {"role": "edge", "from": "1441725563", "to": "1441725553", "length": 16.35, "culvert": false, "unmapped": false}}, {"type": "Feature", "geometry": {"type": "LineString", "coordinates": [[10.6787936, 59.9206949], [10.6787595, 59.9205971]]}, "properties": {"role": "edge", "from": "1441725553", "to": "1441725566", "length": 11.04, "culvert": true, "unmapped": false}}, {"type": "Feature", "geometry": {"type": "LineString", "coordinates": [[10.6782767, 59.9199782], [10.6780724, 59.9197468]]}, "properties": {"role": "edge", "from": "12512099161", "to": "623262639", "length": 28.14, "culvert": false, "unmapped": false}}, {"type": "Feature", "geometry": {"type": "LineString", "coordinates": [[10.6780724, 59.9197468], [10.6778898, 59.919606]]}, "properties": {"role": "edge", "from": "623262639", "to": "623262641", "length": 18.67, "culvert": false, "unmapped": false}}, {"type": "Feature", "geometry": {"type": "LineString", "coordinates": [[10.6778898, 59.919606], [10.6775558, 59.9194225]]}, "properties": {"role": "edge", "from": "623262641", "to": "623262572", "length": 27.62, "culvert": false, "unmapped": false}}, {"type": "Feature", "geometry": {"type": "LineString", "coordinates": [[10.6775558, 59.9194225], [10.6769276, 59.9193118]]}, "properties": {"role": "edge", "from": "623262572", "to": "5083354031", "length": 37.11, "culvert": false, "unmapped": false}}, {"type": "Feature", "geometry": {"type": "LineString", "coordinates": [[10.6769276, 59.9193118], [10.6762928, 59.9192612]]}, "properties": {"role": "edge", "from": "5083354031", "to": "623262574", "length": 35.82, "culvert": false, "unmapped": false}}, {"type": "Feature", "geometry": {"type": "LineString", "coordinates": [[10.6762928, 59.9192612], [10.6756897, 59.9191629]]}, "properties": {"role": "edge", "from": "623262574", "to": "623262566", "length": 35.35, "culvert": false, "unmapped": false}}, {"type": "Feature", "geometry": {"type": "LineString", "coordinates": [[10.6787751, 59.926531], [10.6788777, 59.9264649]]}, "properties": {"role": "edge", "from": "1348792250", "to": "11362706639", "length": 9.31, "culvert": false, "unmapped": false}}, {"type": "Feature", "geometry": {"type": "LineString", "coordinates": [[10.6788777, 59.9264649], [10.6789705, 59.9263944]]}, "properties": {"role": "edge", "from": "11362706639", "to": "11362706638", "length": 9.39, "culvert": false, "unmapped": false}}, {"type": "Feature", "geometry": {"type": "LineString", "coordinates": [[10.6789705, 59.9263944], [10.6789461, 59.9263451]]}, "properties": {"role": "edge", "from": "11362706638", "to": "1414434074", "length": 5.65, "culvert": false, "unmapped": false}}, {"type": "Feature", "geometry": {"type": "LineString", "coordinates": [[10.6789461, 59.9263451], [10.6788911, 59.9263035]]}, "properties": {"role": "edge", "from": "1414434074", "to": "11362706637", "length": 5.55, "culvert": false, "unmapped": false}}, {"type": "Feature", "geometry": {"type": "LineString", "coordinates": [[10.6788911, 59.9263035], [10.6787375, 59.9262591]]}, "properties": {"role": "edge", "from": "11362706637", "to": "1414434069", "length": 9.88, "culvert": false, "unmapped": false}}, {"type": "Feature", "geometry": {"type": "LineString", "coordinates": [[10.6787375, 59.9262591], [10.6785461, 59.9262224]]}, "properties": {"role": "edge", "from": "1414434069", "to": "1414434067", "length": 11.42, "culvert": false, "unmapped": false}}, {"type": "Feature", "geometry": {"type": "LineString", "coordinates": [[10.6785461, 59.9262224], [10.6782365, 59.9262023]]}, "properties": {"role": "edge", "from": "1414434067", "to": "1414434066", "length": 17.4, "culvert": false, "unmapped": false}}, {"type": "Feature", "geometry": {"type": "LineString", "coordinates": [[10.6782365, 59.9262023], [10.6780531, 59.9261858]]}, "properties": {"role": "edge", "from": "1414434066", "to": "1414434062", "length": 10.38, "culvert": false, "unmapped": false}}, {"type": "Feature", "geometry": {"type": "LineString", "coordinates": [[10.6780531, 59.9261858], [10.677786, 59.9261622]]}, "properties": {"role": "edge", "from": "1414434062", "to": "11362706679", "length": 15.11, "culvert": false, "unmapped": false}}, {"type": "Feature", "geometry": {"type": "LineString", "coordinates": [[10.677786, 59.9261622], [10.6775987, 59.9261394]]}, "properties": {"role": "edge", "from": "11362706679", "to": "1414434058", "length": 10.74, "culvert": false, "unmapped": false}}, {"type": "Feature", "geometry": {"type": "LineString", "coordinates": [[10.6775987, 59.9261394], [10.6773977, 59.9260956]]}, "properties": {"role": "edge", "from": "1414434058", "to": "1029938898", "length": 12.21, "culvert": false, "unmapped": false}}, {"type": "Feature", "geometry": {"type": "LineString", "coordinates": [[10.6773977, 59.9260956], [10.677312, 59.9260309]]}, "properties": {"role": "edge", "from": "1029938898", "to": "11362706678", "length": 8.63, "culvert": false, "unmapped": false}}, {"type": "Feature", "geometry": {"type": "LineString", "coordinates": [[10.677312, 59.9260309], [10.6773038, 59.925964]]}, "properties": {"role": "edge", "from": "11362706678", "to": "1029938957", "length": 7.45, "culvert": false, "unmapped": false}}, {"type": "Feature", "geometry": {"type": "LineString", "coordinates": [[10.6773038, 59.925964], [10.6773372, 59.9257988]]}, "properties": {"role": "edge", "from": "1029938957", "to": "1029938888", "length": 18.46, "culvert": false, "unmapped": false}}, {"type": "Feature", "geometry": {"type": "LineString", "coordinates": [[10.6773372, 59.9257988], [10.6773443, 59.9257403]]}, "properties": {"role": "edge", "from": "1029938888", "to": "1029938864", "length": 6.52, "culvert": false, "unmapped": false}}, {"type": "Feature", "geometry": {"type": "LineString", "coordinates": [[10.6773443, 59.9257403], [10.6773886, 59.9256362]]}, "properties": {"role": "edge", "from": "1029938864", "to": "1029938988", "length": 11.84, "culvert": false, "unmapped": false}}, {"type": "Feature", "geometry": {"type": "LineString", "coordinates": [[10.6773886, 59.9256362], [10.6775665, 59.9252571]]}, "properties": {"role": "edge", "from": "1029938988", "to": "11362706680", "length": 43.3, "culvert": false, "unmapped": false}}, {"type": "Feature", "geometry": {"type": "LineString", "coordinates": [[10.6775665, 59.9252571], [10.6776844, 59.9251641]]}, "properties": {"role": "edge", "from": "11362706680", "to": "1029938941", "length": 12.25, "culvert": false, "unmapped": false}}, {"type": "Feature", "geometry": {"type": "LineString", "coordinates": [[10.6776844, 59.9251641], [10.6777837, 59.9251023]]}, "properties": {"role": "edge", "from": "1029938941", "to": "1029938908", "length": 8.82, "culvert": false, "unmapped": false}}, {"type": "Feature", "geometry": {"type": "LineString", "coordinates": [[10.6777837, 59.9251023], [10.6778469, 59.9250553]]}, "properties": {"role": "edge", "from": "1029938908", "to": "1029938937", "length": 6.3, "culvert": false, "unmapped": false}}, {"type": "Feature", "geometry": {"type": "LineString", "coordinates": [[10.6778469, 59.9250553], [10.6778715, 59.9250355]]}, "properties": {"role": "edge", "from": "1029938937", "to": "1029938960", "length": 2.59, "culvert": false, "unmapped": false}}, {"type": "Feature", "geometry": {"type": "LineString", "coordinates": [[10.6778715, 59.9250355], [10.677952, 59.9249101]]}, "properties": {"role": "edge", "from": "1029938960", "to": "11362706681", "length": 14.65, "culvert": false, "unmapped": false}}, {"type": "Feature", "geometry": {"type": "LineString", "coordinates": [[10.677952, 59.9249101], [10.6779858, 59.9248533]]}, "properties": {"role": "edge", "from": "11362706681", "to": "1029938901", "length": 6.59, "culvert": false, "unmapped": false}}, {"type": "Feature", "geometry": {"type": "LineString", "coordinates": [[10.6779858, 59.9248533], [10.6780162, 59.9247622]]}, "properties": {"role": "edge", "from": "1029938901", "to": "1029938939", "length": 10.27, "culvert": false, "unmapped": false}}, {"type": "Feature", "geometry": {"type": "LineString", "coordinates": [[10.6780162, 59.9247622], [10.6779975, 59.9246637]]}, "properties": {"role": "edge", "from": "1029938939", "to": "1029938870", "length": 11.0, "culvert": false, "unmapped": false}}, {"type": "Feature", "geometry": {"type": "LineString", "coordinates": [[10.6779975, 59.9246637], [10.6778501, 59.9244222]]}, "properties": {"role": "edge", "from": "1029938870", "to": "1029938965", "length": 28.08, "culvert": false, "unmapped": false}}, {"type": "Feature", "geometry": {"type": "LineString", "coordinates": [[10.6778501, 59.9244222], [10.6778084, 59.9243149]]}, "properties": {"role": "edge", "from": "1029938965", "to": "1029938983", "length": 12.16, "culvert": false, "unmapped": false}}, {"type": "Feature", "geometry": {"type": "LineString", "coordinates": [[10.6778084, 59.9243149], [10.6778245, 59.9242396]]}, "properties": {"role": "edge", "from": "1029938983", "to": "1029938873", "length": 8.42, "culvert": false, "unmapped": false}}, {"type": "Feature", "geometry": {"type": "LineString", "coordinates": [[10.6778245, 59.9242396], [10.6779022, 59.9241663]]}, "properties": {"role": "edge", "from": "1029938873", "to": "1029938927", "length": 9.23, "culvert": false, "unmapped": false}}, {"type": "Feature", "geometry": {"type": "LineString", "coordinates": [[10.6779022, 59.9241663], [10.6780256, 59.9241045]]}, "properties": {"role": "edge", "from": "1029938927", "to": "1029938985", "length": 9.72, "culvert": false, "unmapped": false}}, {"type": "Feature", "geometry": {"type": "LineString", "coordinates": [[10.6780256, 59.9241045], [10.6781557, 59.9240628]]}, "properties": {"role": "edge", "from": "1029938985", "to": "1029938931", "length": 8.61, "culvert": false, "unmapped": false}}, {"type": "Feature", "geometry": {"type": "LineString", "coordinates": [[10.6781557, 59.9240628], [10.6782617, 59.9240044]]}, "properties": {"role": "edge", "from": "1029938931", "to": "1029938922", "length": 8.78, "culvert": false, "unmapped": false}}, {"type": "Feature", "geometry": {"type": "LineString", "coordinates": [[10.6782617, 59.9240044], [10.6784347, 59.9239204]]}, "properties": {"role": "edge", "from": "1029938922", "to": "1029938979", "length": 13.42, "culvert": false, "unmapped": false}}, {"type": "Feature", "geometry": {"type": "LineString", "coordinates": [[10.6784347, 59.9239204], [10.6786425, 59.9238552]]}, "properties": {"role": "edge", "from": "1029938979", "to": "1029938904", "length": 13.66, "culvert": false, "unmapped": false}}, {"type": "Feature", "geometry": {"type": "LineString", "coordinates": [[10.6786425, 59.9238552], [10.6787176, 59.9238061]]}, "properties": {"role": "edge", "from": "1029938904", "to": "1029938949", "length": 6.88, "culvert": false, "unmapped": false}}, {"type": "Feature", "geometry": {"type": "LineString", "coordinates": [[10.6787176, 59.9238061], [10.6787458, 59.923749]]}, "properties": {"role": "edge", "from": "1029938949", "to": "1029938867", "length": 6.54, "culvert": false, "unmapped": false}}, {"type": "Feature", "geometry": {"type": "LineString", "coordinates": [[10.6787458, 59.923749], [10.678723, 59.9236757]]}, "properties": {"role": "edge", "from": "1029938867", "to": "1029938968", "length": 8.25, "culvert": false, "unmapped": false}}, {"type": "Feature", "geometry": {"type": "LineString", "coordinates": [[10.678723, 59.9236757], [10.6786546, 59.9236004]]}, "properties": {"role": "edge", "from": "1029938968", "to": "1029938923", "length": 9.2, "culvert": false, "unmapped": false}}, {"type": "Feature", "geometry": {"type": "LineString", "coordinates": [[10.6786546, 59.9236004], [10.6786573, 59.9235554]]}, "properties": {"role": "edge", "from": "1029938923", "to": "1029938935", "length": 5.01, "culvert": false, "unmapped": false}}, {"type": "Feature", "geometry": {"type": "LineString", "coordinates": [[10.6786573, 59.9235554], [10.6786948, 59.9234949]]}, "properties": {"role": "edge", "from": "1029938935", "to": "1029938997", "length": 7.04, "culvert": false, "unmapped": false}}, {"type": "Feature", "geometry": {"type": "LineString", "coordinates": [[10.6786948, 59.9234949], [10.6787793, 59.9234613]]}, "properties": {"role": "edge", "from": "1029938997", "to": "1029939007", "length": 6.01, "culvert": false, "unmapped": false}}, {"type": "Feature", "geometry": {"type": "LineString", "coordinates": [[10.6787793, 59.9234613], [10.6790677, 59.92338]]}, "properties": {"role": "edge", "from": "1029939007", "to": "1029939008", "length": 18.44, "culvert": false, "unmapped": false}}, {"type": "Feature", "geometry": {"type": "LineString", "coordinates": [[10.6790677, 59.92338], [10.6791884, 59.9233303]]}, "properties": {"role": "edge", "from": "1029939008", "to": "1029939000", "length": 8.71, "culvert": false, "unmapped": false}}, {"type": "Feature", "geometry": {"type": "LineString", "coordinates": [[10.6791884, 59.9233303], [10.6792675, 59.9232442]]}, "properties": {"role": "edge", "from": "1029939000", "to": "1029938992", "length": 10.54, "culvert": false, "unmapped": false}}, {"type": "Feature", "geometry": {"type": "LineString", "coordinates": [[10.6792675, 59.9232442], [10.6792836, 59.9231327]]}, "properties": {"role": "edge", "from": "1029938992", "to": "1029938995", "length": 12.43, "culvert": false, "unmapped": false}}, {"type": "Feature", "geometry": {"type": "LineString", "coordinates": [[10.6792836, 59.9231327], [10.6792179, 59.9230157]]}, "properties": {"role": "edge", "from": "1029938995", "to": "1029938953", "length": 13.52, "culvert": false, "unmapped": false}}, {"type": "Feature", "geometry": {"type": "LineString", "coordinates": [[10.6792179, 59.9230157], [10.6790461, 59.9227976]]}, "properties": {"role": "edge", "from": "1029938953", "to": "1029938876", "length": 26.07, "culvert": false, "unmapped": false}}, {"type": "Feature", "geometry": {"type": "LineString", "coordinates": [[10.6790461, 59.9227976], [10.6789497, 59.9226501]]}, "properties": {"role": "edge", "from": "1029938876", "to": "7136796306", "length": 17.26, "culvert": true, "unmapped": false}}, {"type": "Feature", "geometry": {"type": "LineString", "coordinates": [[10.6798636, 59.9321454], [10.6791097, 59.9320237]]}, "properties": {"role": "edge", "from": "1342068990", "to": "1348792294", "length": 44.13, "culvert": false, "unmapped": false}}, {"type": "Feature", "geometry": {"type": "LineString", "coordinates": [[10.6791097, 59.9320237], [10.6787821, 59.9318201]]}, "properties": {"role": "edge", "from": "1348792294", "to": "1348792293", "length": 29.08, "culvert": false, "unmapped": false}}, {"type": "Feature", "geometry": {"type": "LineString", "coordinates": [[10.6787821, 59.9318201], [10.6784752, 59.9315836]]}, "properties": {"role": "edge", "from": "1348792293", "to": "1348792289", "length": 31.37, "culvert": false, "unmapped": false}}, {"type": "Feature", "geometry": {"type": "LineString", "coordinates": [[10.6784752, 59.9315836], [10.678147, 59.9312882]]}, "properties": {"role": "edge", "from": "1348792289", "to": "1348792284", "length": 37.59, "culvert": false, "unmapped": false}}, {"type": "Feature", "geometry": {"type": "LineString", "coordinates": [[10.678147, 59.9312882], [10.6781676, 59.9311976]]}, "properties": {"role": "edge", "from": "1348792284", "to": "4384420779", "length": 10.14, "culvert": false, "unmapped": false}}, {"type": "Feature", "geometry": {"type": "LineString", "coordinates": [[10.6781676, 59.9311976], [10.6779987, 59.9310645]]}, "properties": {"role": "edge", "from": "4384420779", "to": "4384420778", "length": 17.54, "culvert": false, "unmapped": false}}, {"type": "Feature", "geometry": {"type": "LineString", "coordinates": [[10.6779987, 59.9310645], [10.677796, 59.9309812]]}, "properties": {"role": "edge", "from": "4384420778", "to": "9937470157", "length": 14.61, "culvert": false, "unmapped": false}}, {"type": "Feature", "geometry": {"type": "LineString", "coordinates": [[10.677796, 59.9309812], [10.6773081, 59.9307808]]}, "properties": {"role": "edge", "from": "9937470157", "to": "1348792282", "length": 35.15, "culvert": false, "unmapped": false}}, {"type": "Feature", "geometry": {"type": "LineString", "coordinates": [[10.6773081, 59.9307808], [10.6772527, 59.9307437]]}, "properties": {"role": "edge", "from": "1348792282", "to": "8850631679", "length": 5.15, "culvert": false, "unmapped": false}}, {"type": "Feature", "geometry": {"type": "LineString", "coordinates": [[10.6772527, 59.9307437], [10.6771612, 59.9306839]]}, "properties": {"role": "edge", "from": "8850631679", "to": "1348792278", "length": 8.38, "culvert": false, "unmapped": false}}, {"type": "Feature", "geometry": {"type": "LineString", "coordinates": [[10.6771612, 59.9306839], [10.6773569, 59.9304382]]}, "properties": {"role": "edge", "from": "1348792278", "to": "1348792277", "length": 29.42, "culvert": false, "unmapped": false}}, {"type": "Feature", "geometry": {"type": "LineString", "coordinates": [[10.6773569, 59.9304382], [10.6776231, 59.9301714]]}, "properties": {"role": "edge", "from": "1348792277", "to": "1348792276", "length": 33.17, "culvert": false, "unmapped": false}}, {"type": "Feature", "geometry": {"type": "LineString", "coordinates": [[10.6776231, 59.9301714], [10.6776231, 59.9299765]]}, "properties": {"role": "edge", "from": "1348792276", "to": "1348792275", "length": 21.67, "culvert": false, "unmapped": false}}, {"type": "Feature", "geometry": {"type": "LineString", "coordinates": [[10.6776231, 59.9299765], [10.6772672, 59.9296942]]}, "properties": {"role": "edge", "from": "1348792275", "to": "1348792274", "length": 37.13, "culvert": false, "unmapped": false}}, {"type": "Feature", "geometry": {"type": "LineString", "coordinates": [[10.6772672, 59.9296942], [10.6766709, 59.9293866]]}, "properties": {"role": "edge", "from": "1348792274", "to": "1348792268", "length": 47.68, "culvert": false, "unmapped": false}}, {"type": "Feature", "geometry": {"type": "LineString", "coordinates": [[10.6772672, 59.9296942], [10.6772861, 59.9295667]]}, "properties": {"role": "edge", "from": "1348792274", "to": "1348792273", "length": 14.22, "culvert": false, "unmapped": false}}, {"type": "Feature", "geometry": {"type": "LineString", "coordinates": [[10.6766709, 59.9293866], [10.6765481, 59.9292891]]}, "properties": {"role": "edge", "from": "1348792268", "to": "1348792267", "length": 12.82, "culvert": false, "unmapped": false}}, {"type": "Feature", "geometry": {"type": "LineString", "coordinates": [[10.6765481, 59.9292891], [10.6764047, 59.9291916]]}, "properties": {"role": "edge", "from": "1348792267", "to": "1348792264", "length": 13.47, "culvert": false, "unmapped": false}}, {"type": "Feature", "geometry": {"type": "LineString", "coordinates": [[10.6764047, 59.9291916], [10.6764252, 59.9291095]]}, "properties": {"role": "edge", "from": "1348792264", "to": "1348792261", "length": 9.2, "culvert": false, "unmapped": false}}, {"type": "Feature", "geometry": {"type": "LineString", "coordinates": [[10.6764252, 59.9291095], [10.6765481, 59.9290582]]}, "properties": {"role": "edge", "from": "1348792261", "to": "1348792260", "length": 8.91, "culvert": false, "unmapped": false}}, {"type": "Feature", "geometry": {"type": "LineString", "coordinates": [[10.6765481, 59.9290582], [10.6768961, 59.9291608]]}, "properties": {"role": "edge", "from": "1348792260", "to": "1348792263", "length": 22.5, "culvert": false, "unmapped": false}}, {"type": "Feature", "geometry": {"type": "LineString", "coordinates": [[10.6768961, 59.9291608], [10.6771087, 59.9291543]]}, "properties": {"role": "edge", "from": "1348792263", "to": "1348792262", "length": 11.87, "culvert": false, "unmapped": false}}, {"type": "Feature", "geometry": {"type": "LineString", "coordinates": [[10.6771087, 59.9291543], [10.6771174, 59.9291147]]}, "properties": {"role": "edge", "from": "1348792262", "to": "8850651592", "length": 4.43, "culvert": false, "unmapped": false}}, {"type": "Feature", "geometry": {"type": "LineString", "coordinates": [[10.6771174, 59.9291147], [10.6771419, 59.9289967]]}, "properties": {"role": "edge", "from": "8850651592", "to": "1348792259", "length": 13.19, "culvert": false, "unmapped": false}}, {"type": "Feature", "geometry": {"type": "LineString", "coordinates": [[10.6771419, 59.9289967], [10.6770395, 59.9286991]]}, "properties": {"role": "edge", "from": "1348792259", "to": "1348792258", "length": 33.58, "culvert": false, "unmapped": false}}, {"type": "Feature", "geometry": {"type": "LineString", "coordinates": [[10.6770395, 59.9286991], [10.6770039, 59.9283384]]}, "properties": {"role": "edge", "from": "1348792258", "to": "1348792256", "length": 40.16, "culvert": false, "unmapped": false}}, {"type": "Feature", "geometry": {"type": "LineString", "coordinates": [[10.6770039, 59.9283384], [10.6770263, 59.9279227]]}, "properties": {"role": "edge", "from": "1348792256", "to": "1348792255", "length": 46.24, "culvert": false, "unmapped": false}}, {"type": "Feature", "geometry": {"type": "LineString", "coordinates": [[10.6770263, 59.9279227], [10.6771902, 59.9275418]]}, "properties": {"role": "edge", "from": "1348792255", "to": "1348792253", "length": 43.33, "culvert": false, "unmapped": false}}, {"type": "Feature", "geometry": {"type": "LineString", "coordinates": [[10.6771902, 59.9275418], [10.677425, 59.9273604]]}, "properties": {"role": "edge", "from": "1348792253", "to": "11362706645", "length": 24.04, "culvert": false, "unmapped": false}}, {"type": "Feature", "geometry": {"type": "LineString", "coordinates": [[10.677425, 59.9273604], [10.6777733, 59.9269837]]}, "properties": {"role": "edge", "from": "11362706645", "to": "1348792252", "length": 46.16, "culvert": true, "unmapped": false}}, {"type": "Feature", "geometry": {"type": "LineString", "coordinates": [[10.6772861, 59.9295667], [10.6771087, 59.9291543]]}, "properties": {"role": "edge", "from": "1348792273", "to": "1348792262", "length": 46.91, "culvert": false, "unmapped": false}}, {"type": "Feature", "geometry": {"type": "LineString", "coordinates": [[10.6787595, 59.9205971], [10.678579, 59.920356]]}, "properties": {"role": "edge", "from": "1441725566", "to": "623262637", "length": 28.63, "culvert": true, "unmapped": false}}, {"type": "Feature", "geometry": {"type": "LineString", "coordinates": [[10.678579, 59.920356], [10.6785556, 59.9203278]]}, "properties": {"role": "edge", "from": "623262637", "to": "13342313436", "length": 3.4, "culvert": true, "unmapped": false}}, {"type": "Feature", "geometry": {"type": "LineString", "coordinates": [[10.6785556, 59.9203278], [10.6783996, 59.9201403]]}, "properties": {"role": "edge", "from": "13342313436", "to": "12512099162", "length": 22.59, "culvert": true, "unmapped": false}}, {"type": "Feature", "geometry": {"type": "LineString", "coordinates": [[10.6783996, 59.9201403], [10.6782767, 59.9199782]]}, "properties": {"role": "edge", "from": "12512099162", "to": "12512099161", "length": 19.28, "culvert": true, "unmapped": false}}, {"type": "Feature", "geometry": {"type": "LineString", "coordinates": [[10.6789497, 59.9226501], [10.6788987, 59.9224733]]}, "properties": {"role": "edge", "from": "7136796306", "to": "7136796305", "length": 19.86, "culvert": true, "unmapped": false}}, {"type": "Feature", "geometry": {"type": "LineString", "coordinates": [[10.6788987, 59.9224733], [10.6788893, 59.9222522]]}, "properties": {"role": "edge", "from": "7136796305", "to": "1475363443", "length": 24.59, "culvert": true, "unmapped": false}}, {"type": "Feature", "geometry": {"type": "LineString", "coordinates": [[10.6788893, 59.9222522], [10.678888, 59.9220169]]}, "properties": {"role": "edge", "from": "1475363443", "to": "7136796304", "length": 26.16, "culvert": true, "unmapped": false}}, {"type": "Feature", "geometry": {"type": "LineString", "coordinates": [[10.678888, 59.9220169], [10.6788571, 59.9217447]]}, "properties": {"role": "edge", "from": "7136796304", "to": "7136796303", "length": 30.32, "culvert": true, "unmapped": false}}, {"type": "Feature", "geometry": {"type": "LineString", "coordinates": [[10.6788571, 59.9217447], [10.6788111, 59.9213935]]}, "properties": {"role": "edge", "from": "7136796303", "to": "428063129", "length": 39.14, "culvert": true, "unmapped": false}}, {"type": "Feature", "geometry": {"type": "LineString", "coordinates": [[10.6779628, 59.9268819], [10.6781345, 59.9268265]]}, "properties": {"role": "edge", "from": "11362706644", "to": "1348792251", "length": 11.38, "culvert": false, "unmapped": false}}, {"type": "Feature", "geometry": {"type": "LineString", "coordinates": [[10.6781345, 59.9268265], [10.6784942, 59.9267586]]}, "properties": {"role": "edge", "from": "1348792251", "to": "11362706643", "length": 21.42, "culvert": false, "unmapped": false}}, {"type": "Feature", "geometry": {"type": "LineString", "coordinates": [[10.6784942, 59.9267586], [10.6785907, 59.9267162]]}, "properties": {"role": "edge", "from": "11362706643", "to": "11362706642", "length": 7.15, "culvert": false, "unmapped": false}}, {"type": "Feature", "geometry": {"type": "LineString", "coordinates": [[10.6785907, 59.9267162], [10.678674, 59.9266273]]}, "properties": {"role": "edge", "from": "11362706642", "to": "11362706641", "length": 10.92, "culvert": false, "unmapped": false}}, {"type": "Feature", "geometry": {"type": "LineString", "coordinates": [[10.678674, 59.9266273], [10.6786967, 59.9265636]]}, "properties": {"role": "edge", "from": "11362706641", "to": "11362706640", "length": 7.2, "culvert": false, "unmapped": false}}, {"type": "Feature", "geometry": {"type": "LineString", "coordinates": [[10.6786967, 59.9265636], [10.6787751, 59.926531]]}, "properties": {"role": "edge", "from": "11362706640", "to": "1348792250", "length": 5.68, "culvert": false, "unmapped": false}}, {"type": "Feature", "geometry": {"type": "LineString", "coordinates": [[10.6777733, 59.9269837], [10.6779628, 59.9268819]]}, "properties": {"role": "edge", "from": "1348792252", "to": "11362706644", "length": 15.48, "culvert": true, "unmapped": false}}, {"type": "Feature", "geometry": {"type": "Point", "coordinates": [10.6788111, 59.9213935]}, "properties": {"role": "node", "id": "428063129", "dist_to_outlet_m": 345.4892564577468, "observable": true, "access": true}}, {"type": "Feature", "geometry": {"type": "Point", "coordinates": [10.6788298, 59.9211447]}, "properties": {"role": "node", "id": "428063130", "dist_to_outlet_m": 317.80433695464285, "observable": true, "access": false}}, {"type": "Feature", "geometry": {"type": "Point", "coordinates": [10.6788074, 59.9210531]}, "properties": {"role": "node", "id": "1441725568", "dist_to_outlet_m": 307.54266637215164, "observable": true, "access": false}}, {"type": "Feature", "geometry": {"type": "Point", "coordinates": [10.6787812, 59.9208418]}, "properties": {"role": "node", "id": "1441725563", "dist_to_outlet_m": 284.0018519145749, "observable": true, "access": false}}, {"type": "Feature", "geometry": {"type": "Point", "coordinates": [10.6787936, 59.9206949]}, "properties": {"role": "node", "id": "1441725553", "dist_to_outlet_m": 267.65270553388285, "observable": true, "access": false}}, {"type": "Feature", "geometry": {"type": "Point", "coordinates": [10.6782767, 59.9199782]}, "properties": {"role": "node", "id": "12512099161", "dist_to_outlet_m": 182.71131772397152, "observable": true, "access": true}}, {"type": "Feature", "geometry": {"type": "Point", "coordinates": [10.6780724, 59.9197468]}, "properties": {"role": "node", "id": "623262639", "dist_to_outlet_m": 154.57412755012132, "observable": true, "access": false}}, {"type": "Feature", "geometry": {"type": "Point", "coordinates": [10.6778898, 59.919606]}, "properties": {"role": "node", "id": "623262641", "dist_to_outlet_m": 135.90104468070956, "observable": true, "access": false}}, {"type": "Feature", "geometry": {"type": "Point", "coordinates": [10.6775558, 59.9194225]}, "properties": {"role": "node", "id": "623262572", "dist_to_outlet_m": 108.28145317413458, "observable": true, "access": false}}, {"type": "Feature", "geometry": {"type": "Point", "coordinates": [10.6769276, 59.9193118]}, "properties": {"role": "node", "id": "5083354031", "dist_to_outlet_m": 71.16921432778045, "observable": true, "access": true}}, {"type": "Feature", "geometry": {"type": "Point", "coordinates": [10.6762928, 59.9192612]}, "properties": {"role": "node", "id": "623262574", "dist_to_outlet_m": 35.345263767350936, "observable": true, "access": false}}, {"type": "Feature", "geometry": {"type": "Point", "coordinates": [10.6756897, 59.9191629]}, "properties": {"role": "node", "id": "623262566", "dist_to_outlet_m": 0.0, "observable": true, "access": false}}, {"type": "Feature", "geometry": {"type": "Point", "coordinates": [10.6787751, 59.926531]}, "properties": {"role": "node", "id": "1348792250", "dist_to_outlet_m": 1039.262513995409, "observable": true, "access": false}}, {"type": "Feature", "geometry": {"type": "Point", "coordinates": [10.6788777, 59.9264649]}, "properties": {"role": "node", "id": "11362706639", "dist_to_outlet_m": 1029.9509073637994, "observable": true, "access": false}}, {"type": "Feature", "geometry": {"type": "Point", "coordinates": [10.6789705, 59.9263944]}, "properties": {"role": "node", "id": "11362706638", "dist_to_outlet_m": 1020.559843349671, "observable": true, "access": false}}, {"type": "Feature", "geometry": {"type": "Point", "coordinates": [10.6789461, 59.9263451]}, "properties": {"role": "node", "id": "1414434074", "dist_to_outlet_m": 1014.911849135497, "observable": true, "access": false}}, {"type": "Feature", "geometry": {"type": "Point", "coordinates": [10.6788911, 59.9263035]}, "properties": {"role": "node", "id": "11362706637", "dist_to_outlet_m": 1009.3630315959629, "observable": true, "access": false}}, {"type": "Feature", "geometry": {"type": "Point", "coordinates": [10.6787375, 59.9262591]}, "properties": {"role": "node", "id": "1414434069", "dist_to_outlet_m": 999.482370208083, "observable": true, "access": false}}, {"type": "Feature", "geometry": {"type": "Point", "coordinates": [10.6785461, 59.9262224]}, "properties": {"role": "node", "id": "1414434067", "dist_to_outlet_m": 988.0632129477865, "observable": true, "access": false}}, {"type": "Feature", "geometry": {"type": "Point", "coordinates": [10.6782365, 59.9262023]}, "properties": {"role": "node", "id": "1414434066", "dist_to_outlet_m": 970.6676797203295, "observable": true, "access": false}}, {"type": "Feature", "geometry": {"type": "Point", "coordinates": [10.6780531, 59.9261858]}, "properties": {"role": "node", "id": "1414434062", "dist_to_outlet_m": 960.2849723619757, "observable": true, "access": false}}, {"type": "Feature", "geometry": {"type": "Point", "coordinates": [10.677786, 59.9261622]}, "properties": {"role": "node", "id": "11362706679", "dist_to_outlet_m": 945.1721822736686, "observable": true, "access": false}}, {"type": "Feature", "geometry": {"type": "Point", "coordinates": [10.6775987, 59.9261394]}, "properties": {"role": "node", "id": "1414434058", "dist_to_outlet_m": 934.4320241582311, "observable": true, "access": false}}, {"type": "Feature", "geometry": {"type": "Point", "coordinates": [10.6773977, 59.9260956]}, "properties": {"role": "node", "id": "1029938898", "dist_to_outlet_m": 922.2188719537708, "observable": true, "access": false}}, {"type": "Feature", "geometry": {"type": "Point", "coordinates": [10.677312, 59.9260309]}, "properties": {"role": "node", "id": "11362706678", "dist_to_outlet_m": 913.5839386843893, "observable": true, "access": true}}, {"type": "Feature", "geometry": {"type": "Point", "coordinates": [10.6773038, 59.925964]}, "properties": {"role": "node", "id": "1029938957", "dist_to_outlet_m": 906.1309787444281, "observable": true, "access": false}}, {"type": "Feature", "geometry": {"type": "Point", "coordinates": [10.6773372, 59.9257988]}, "properties": {"role": "node", "id": "1029938888", "dist_to_outlet_m": 887.6675372361696, "observable": true, "access": false}}, {"type": "Feature", "geometry": {"type": "Point", "coordinates": [10.6773443, 59.9257403]}, "properties": {"role": "node", "id": "1029938864", "dist_to_outlet_m": 881.1506141247713, "observable": true, "access": false}}, {"type": "Feature", "geometry": {"type": "Point", "coordinates": [10.6773886, 59.9256362]}, "properties": {"role": "node", "id": "1029938988", "dist_to_outlet_m": 869.3149400207263, "observable": true, "access": false}}, {"type": "Feature", "geometry": {"type": "Point", "coordinates": [10.6775665, 59.9252571]}, "properties": {"role": "node", "id": "11362706680", "dist_to_outlet_m": 826.0110322626557, "observable": true, "access": false}}, {"type": "Feature", "geometry": {"type": "Point", "coordinates": [10.6776844, 59.9251641]}, "properties": {"role": "node", "id": "1029938941", "dist_to_outlet_m": 813.7594765833702, "observable": true, "access": false}}, {"type": "Feature", "geometry": {"type": "Point", "coordinates": [10.6777837, 59.9251023]}, "properties": {"role": "node", "id": "1029938908", "dist_to_outlet_m": 804.9367851134543, "observable": true, "access": true}}, {"type": "Feature", "geometry": {"type": "Point", "coordinates": [10.6778469, 59.9250553]}, "properties": {"role": "node", "id": "1029938937", "dist_to_outlet_m": 798.6347822385483, "observable": true, "access": false}}, {"type": "Feature", "geometry": {"type": "Point", "coordinates": [10.6778715, 59.9250355]}, "properties": {"role": "node", "id": "1029938960", "dist_to_outlet_m": 796.041254726518, "observable": true, "access": false}}, {"type": "Feature", "geometry": {"type": "Point", "coordinates": [10.677952, 59.9249101]}, "properties": {"role": "node", "id": "11362706681", "dist_to_outlet_m": 781.393638211207, "observable": true, "access": false}}, {"type": "Feature", "geometry": {"type": "Point", "coordinates": [10.6779858, 59.9248533]}, "properties": {"role": "node", "id": "1029938901", "dist_to_outlet_m": 774.8029130264462, "observable": true, "access": false}}, {"type": "Feature", "geometry": {"type": "Point", "coordinates": [10.6780162, 59.9247622]}, "properties": {"role": "node", "id": "1029938939", "dist_to_outlet_m": 764.5323888695193, "observable": true, "access": false}}, {"type": "Feature", "geometry": {"type": "Point", "coordinates": [10.6779975, 59.9246637]}, "properties": {"role": "node", "id": "1029938870", "dist_to_outlet_m": 753.530230614229, "observable": true, "access": false}}, {"type": "Feature", "geometry": {"type": "Point", "coordinates": [10.6778501, 59.9244222]}, "properties": {"role": "node", "id": "1029938965", "dist_to_outlet_m": 725.4485602881731, "observable": true, "access": false}}, {"type": "Feature", "geometry": {"type": "Point", "coordinates": [10.6778084, 59.9243149]}, "properties": {"role": "node", "id": "1029938983", "dist_to_outlet_m": 713.2931685662437, "observable": true, "access": false}}, {"type": "Feature", "geometry": {"type": "Point", "coordinates": [10.6778245, 59.9242396]}, "properties": {"role": "node", "id": "1029938873", "dist_to_outlet_m": 704.872261874099, "observable": true, "access": false}}, {"type": "Feature", "geometry": {"type": "Point", "coordinates": [10.6779022, 59.9241663]}, "properties": {"role": "node", "id": "1029938927", "dist_to_outlet_m": 695.6429928487119, "observable": true, "access": true}}, {"type": "Feature", "geometry": {"type": "Point", "coordinates": [10.6780256, 59.9241045]}, "properties": {"role": "node", "id": "1029938985", "dist_to_outlet_m": 685.921474927691, "observable": true, "access": false}}, {"type": "Feature", "geometry": {"type": "Point", "coordinates": [10.6781557, 59.9240628]}, "properties": {"role": "node", "id": "1029938931", "dist_to_outlet_m": 677.3156560137136, "observable": true, "access": false}}, {"type": "Feature", "geometry": {"type": "Point", "coordinates": [10.6782617, 59.9240044]}, "properties": {"role": "node", "id": "1029938922", "dist_to_outlet_m": 668.5372609988026, "observable": true, "access": false}}, {"type": "Feature", "geometry": {"type": "Point", "coordinates": [10.6784347, 59.9239204]}, "properties": {"role": "node", "id": "1029938979", "dist_to_outlet_m": 655.1141062572567, "observable": true, "access": false}}, {"type": "Feature", "geometry": {"type": "Point", "coordinates": [10.6786425, 59.9238552]}, "properties": {"role": "node", "id": "1029938904", "dist_to_outlet_m": 641.4520707380777, "observable": true, "access": false}}, {"type": "Feature", "geometry": {"type": "Point", "coordinates": [10.6787176, 59.9238061]}, "properties": {"role": "node", "id": "1029938949", "dist_to_outlet_m": 634.572967312098, "observable": true, "access": false}}, {"type": "Feature", "geometry": {"type": "Point", "coordinates": [10.6787458, 59.923749]}, "properties": {"role": "node", "id": "1029938867", "dist_to_outlet_m": 628.0321561093743, "observable": true, "access": false}}, {"type": "Feature", "geometry": {"type": "Point", "coordinates": [10.678723, 59.9236757]}, "properties": {"role": "node", "id": "1029938968", "dist_to_outlet_m": 619.7831337538454, "observable": true, "access": false}}, {"type": "Feature", "geometry": {"type": "Point", "coordinates": [10.6786546, 59.9236004]}, "properties": {"role": "node", "id": "1029938923", "dist_to_outlet_m": 610.5833852328913, "observable": true, "access": false}}, {"type": "Feature", "geometry": {"type": "Point", "coordinates": [10.6786573, 59.9235554]}, "properties": {"role": "node", "id": "1029938935", "dist_to_outlet_m": 605.5773519358211, "observable": true, "access": false}}, {"type": "Feature", "geometry": {"type": "Point", "coordinates": [10.6786948, 59.9234949]}, "properties": {"role": "node", "id": "1029938997", "dist_to_outlet_m": 598.5329631029322, "observable": true, "access": false}}, {"type": "Feature", "geometry": {"type": "Point", "coordinates": [10.6787793, 59.9234613]}, "properties": {"role": "node", "id": "1029939007", "dist_to_outlet_m": 592.5219670774148, "observable": true, "access": false}}, {"type": "Feature", "geometry": {"type": "Point", "coordinates": [10.6790677, 59.92338]}, "properties": {"role": "node", "id": "1029939008", "dist_to_outlet_m": 574.0824823736576, "observable": true, "access": true}}, {"type": "Feature", "geometry": {"type": "Point", "coordinates": [10.6791884, 59.9233303]}, "properties": {"role": "node", "id": "1029939000", "dist_to_outlet_m": 565.3771886429719, "observable": true, "access": false}}, {"type": "Feature", "geometry": {"type": "Point", "coordinates": [10.6792675, 59.9232442]}, "properties": {"role": "node", "id": "1029938992", "dist_to_outlet_m": 554.8372978938191, "observable": true, "access": false}}, {"type": "Feature", "geometry": {"type": "Point", "coordinates": [10.6792836, 59.9231327]}, "properties": {"role": "node", "id": "1029938995", "dist_to_outlet_m": 542.4066431878614, "observable": true, "access": false}}, {"type": "Feature", "geometry": {"type": "Point", "coordinates": [10.6792179, 59.9230157]}, "properties": {"role": "node", "id": "1029938953", "dist_to_outlet_m": 528.8914749097416, "observable": true, "access": false}}, {"type": "Feature", "geometry": {"type": "Point", "coordinates": [10.6790461, 59.9227976]}, "properties": {"role": "node", "id": "1029938876", "dist_to_outlet_m": 502.81849577346406, "observable": true, "access": false}}, {"type": "Feature", "geometry": {"type": "Point", "coordinates": [10.6798636, 59.9321454]}, "properties": {"role": "node", "id": "1342068990", "dist_to_outlet_m": 1785.2574985372562, "observable": true, "access": true}}, {"type": "Feature", "geometry": {"type": "Point", "coordinates": [10.6791097, 59.9320237]}, "properties": {"role": "node", "id": "1348792294", "dist_to_outlet_m": 1741.1303355744076, "observable": true, "access": false}}, {"type": "Feature", "geometry": {"type": "Point", "coordinates": [10.6787821, 59.9318201]}, "properties": {"role": "node", "id": "1348792293", "dist_to_outlet_m": 1712.0503833836838, "observable": true, "access": false}}, {"type": "Feature", "geometry": {"type": "Point", "coordinates": [10.6784752, 59.9315836]}, "properties": {"role": "node", "id": "1348792289", "dist_to_outlet_m": 1680.6830747128417, "observable": true, "access": false}}, {"type": "Feature", "geometry": {"type": "Point", "coordinates": [10.678147, 59.9312882]}, "properties": {"role": "node", "id": "1348792284", "dist_to_outlet_m": 1643.08970339558, "observable": true, "access": true}}, {"type": "Feature", "geometry": {"type": "Point", "coordinates": [10.6781676, 59.9311976]}, "properties": {"role": "node", "id": "4384420779", "dist_to_outlet_m": 1632.9502799301426, "observable": true, "access": false}}, {"type": "Feature", "geometry": {"type": "Point", "coordinates": [10.6779987, 59.9310645]}, "properties": {"role": "node", "id": "4384420778", "dist_to_outlet_m": 1615.4120767055826, "observable": true, "access": false}}, {"type": "Feature", "geometry": {"type": "Point", "coordinates": [10.677796, 59.9309812]}, "properties": {"role": "node", "id": "9937470157", "dist_to_outlet_m": 1600.8063027155417, "observable": true, "access": false}}, {"type": "Feature", "geometry": {"type": "Point", "coordinates": [10.6773081, 59.9307808]}, "properties": {"role": "node", "id": "1348792282", "dist_to_outlet_m": 1565.6573365611666, "observable": true, "access": false}}, {"type": "Feature", "geometry": {"type": "Point", "coordinates": [10.6772527, 59.9307437]}, "properties": {"role": "node", "id": "8850631679", "dist_to_outlet_m": 1560.5051412625774, "observable": true, "access": false}}, {"type": "Feature", "geometry": {"type": "Point", "coordinates": [10.6771612, 59.9306839]}, "properties": {"role": "node", "id": "1348792278", "dist_to_outlet_m": 1552.1264160969758, "observable": true, "access": false}}, {"type": "Feature", "geometry": {"type": "Point", "coordinates": [10.6773569, 59.9304382]}, "properties": {"role": "node", "id": "1348792277", "dist_to_outlet_m": 1522.71050544371, "observable": true, "access": true}}, {"type": "Feature", "geometry": {"type": "Point", "coordinates": [10.6776231, 59.9301714]}, "properties": {"role": "node", "id": "1348792276", "dist_to_outlet_m": 1489.542985715056, "observable": true, "access": false}}, {"type": "Feature", "geometry": {"type": "Point", "coordinates": [10.6776231, 59.9299765]}, "properties": {"role": "node", "id": "1348792275", "dist_to_outlet_m": 1467.8710945123512, "observable": true, "access": false}}, {"type": "Feature", "geometry": {"type": "Point", "coordinates": [10.6772672, 59.9296942]}, "properties": {"role": "node", "id": "1348792274", "dist_to_outlet_m": 1430.7423242173475, "observable": true, "access": false}}, {"type": "Feature", "geometry": {"type": "Point", "coordinates": [10.6766709, 59.9293866]}, "properties": {"role": "node", "id": "1348792268", "dist_to_outlet_m": 1448.3800853278244, "observable": true, "access": true}}, {"type": "Feature", "geometry": {"type": "Point", "coordinates": [10.6765481, 59.9292891]}, "properties": {"role": "node", "id": "1348792267", "dist_to_outlet_m": 1435.5601601417482, "observable": true, "access": false}}, {"type": "Feature", "geometry": {"type": "Point", "coordinates": [10.6764047, 59.9291916]}, "properties": {"role": "node", "id": "1348792264", "dist_to_outlet_m": 1422.0926462196248, "observable": true, "access": false}}, {"type": "Feature", "geometry": {"type": "Point", "coordinates": [10.6764252, 59.9291095]}, "properties": {"role": "node", "id": "1348792261", "dist_to_outlet_m": 1412.892367733281, "observable": true, "access": false}}, {"type": "Feature", "geometry": {"type": "Point", "coordinates": [10.6765481, 59.9290582]}, "properties": {"role": "node", "id": "1348792260", "dist_to_outlet_m": 1403.9801138348755, "observable": true, "access": false}}, {"type": "Feature", "geometry": {"type": "Point", "coordinates": [10.6768961, 59.9291608]}, "properties": {"role": "node", "id": "1348792263", "dist_to_outlet_m": 1381.4833667042249, "observable": true, "access": false}}, {"type": "Feature", "geometry": {"type": "Point", "coordinates": [10.6771087, 59.9291543]}, "properties": {"role": "node", "id": "1348792262", "dist_to_outlet_m": 1369.6160116059689, "observable": true, "access": false}}, {"type": "Feature", "geometry": {"type": "Point", "coordinates": [10.6771174, 59.9291147]}, "properties": {"role": "node", "id": "8850651592", "dist_to_outlet_m": 1365.1860922069664, "observable": true, "access": false}}, {"type": "Feature", "geometry": {"type": "Point", "coordinates": [10.6771419, 59.9289967]}, "properties": {"role": "node", "id": "1348792259", "dist_to_outlet_m": 1351.994274290649, "observable": true, "access": false}}, {"type": "Feature", "geometry": {"type": "Point", "coordinates": [10.6770395, 59.9286991]}, "properties": {"role": "node", "id": "1348792258", "dist_to_outlet_m": 1318.41442173497, "observable": true, "access": false}}, {"type": "Feature", "geometry": {"type": "Point", "coordinates": [10.6770039, 59.9283384]}, "properties": {"role": "node", "id": "1348792256", "dist_to_outlet_m": 1278.25739344956, "observable": true, "access": true}}, {"type": "Feature", "geometry": {"type": "Point", "coordinates": [10.6770263, 59.9279227]}, "properties": {"role": "node", "id": "1348792255", "dist_to_outlet_m": 1232.0168156894283, "observable": true, "access": false}}, {"type": "Feature", "geometry": {"type": "Point", "coordinates": [10.6771902, 59.9275418]}, "properties": {"role": "node", "id": "1348792253", "dist_to_outlet_m": 1188.6893051948016, "observable": true, "access": false}}, {"type": "Feature", "geometry": {"type": "Point", "coordinates": [10.677425, 59.9273604]}, "properties": {"role": "node", "id": "11362706645", "dist_to_outlet_m": 1164.6472187120844, "observable": true, "access": true}}, {"type": "Feature", "geometry": {"type": "Point", "coordinates": [10.6772861, 59.9295667]}, "properties": {"role": "node", "id": "1348792273", "dist_to_outlet_m": 1416.5259179460916, "observable": true, "access": false}}, {"type": "Feature", "geometry": {"type": "Point", "coordinates": [10.6787595, 59.9205971]}, "properties": {"role": "node", "id": "1441725566", "dist_to_outlet_m": 256.6130380564547, "observable": false, "access": false}}, {"type": "Feature", "geometry": {"type": "Point", "coordinates": [10.678579, 59.920356]}, "properties": {"role": "node", "id": "623262637", "dist_to_outlet_m": 227.9787866398909, "observable": false, "access": false}}, {"type": "Feature", "geometry": {"type": "Point", "coordinates": [10.6785556, 59.9203278]}, "properties": {"role": "node", "id": "13342313436", "dist_to_outlet_m": 224.5827148000351, "observable": false, "access": false}}, {"type": "Feature", "geometry": {"type": "Point", "coordinates": [10.6783996, 59.9201403]}, "properties": {"role": "node", "id": "12512099162", "dist_to_outlet_m": 201.9935497352458, "observable": false, "access": false}}, {"type": "Feature", "geometry": {"type": "Point", "coordinates": [10.6789497, 59.9226501]}, "properties": {"role": "node", "id": "7136796306", "dist_to_outlet_m": 485.5598564205835, "observable": false, "access": false}}, {"type": "Feature", "geometry": {"type": "Point", "coordinates": [10.6788987, 59.9224733]}, "properties": {"role": "node", "id": "7136796305", "dist_to_outlet_m": 465.6962165724402, "observable": false, "access": false}}, {"type": "Feature", "geometry": {"type": "Point", "coordinates": [10.6788893, 59.9222522]}, "properties": {"role": "node", "id": "1475363443", "dist_to_outlet_m": 441.10543811421275, "observable": false, "access": false}}, {"type": "Feature", "geometry": {"type": "Point", "coordinates": [10.678888, 59.9220169]}, "properties": {"role": "node", "id": "7136796304", "dist_to_outlet_m": 414.9411715741504, "observable": false, "access": false}}, {"type": "Feature", "geometry": {"type": "Point", "coordinates": [10.6788571, 59.9217447]}, "properties": {"role": "node", "id": "7136796303", "dist_to_outlet_m": 384.6249661368776, "observable": false, "access": false}}, {"type": "Feature", "geometry": {"type": "Point", "coordinates": [10.6779628, 59.9268819]}, "properties": {"role": "node", "id": "11362706644", "dist_to_outlet_m": 1103.0027336046912, "observable": true, "access": false}}, {"type": "Feature", "geometry": {"type": "Point", "coordinates": [10.6781345, 59.9268265]}, "properties": {"role": "node", "id": "1348792251", "dist_to_outlet_m": 1091.6238461990479, "observable": true, "access": false}}, {"type": "Feature", "geometry": {"type": "Point", "coordinates": [10.6784942, 59.9267586]}, "properties": {"role": "node", "id": "11362706643", "dist_to_outlet_m": 1070.2062758073234, "observable": true, "access": false}}, {"type": "Feature", "geometry": {"type": "Point", "coordinates": [10.6785907, 59.9267162]}, "properties": {"role": "node", "id": "11362706642", "dist_to_outlet_m": 1063.0550136226477, "observable": true, "access": false}}, {"type": "Feature", "geometry": {"type": "Point", "coordinates": [10.678674, 59.9266273]}, "properties": {"role": "node", "id": "11362706641", "dist_to_outlet_m": 1052.1343193770138, "observable": true, "access": true}}, {"type": "Feature", "geometry": {"type": "Point", "coordinates": [10.6786967, 59.9265636]}, "properties": {"role": "node", "id": "11362706640", "dist_to_outlet_m": 1044.9391529664406, "observable": true, "access": false}}, {"type": "Feature", "geometry": {"type": "Point", "coordinates": [10.6777733, 59.9269837]}, "properties": {"role": "node", "id": "1348792252", "dist_to_outlet_m": 1118.4826055571252, "observable": false, "access": false}}, {"type": "Feature", "geometry": {"type": "Point", "coordinates": [10.6781676, 59.9311976]}, "properties": {"role": "candidate", "id": "O1", "node_id": "4384420779", "label": "O-1", "prior_weight": 1.0, "synthetic": true, "kind": "outfall"}}, {"type": "Feature", "geometry": {"type": "Point", "coordinates": [10.6771612, 59.9306839]}, "properties": {"role": "candidate", "id": "O2", "node_id": "1348792278", "label": "O-2", "prior_weight": 1.0, "synthetic": true, "kind": "outfall"}}, {"type": "Feature", "geometry": {"type": "Point", "coordinates": [10.6776231, 59.9299765]}, "properties": {"role": "candidate", "id": "O3", "node_id": "1348792275", "label": "O-3", "prior_weight": 1.0, "synthetic": true, "kind": "outfall"}}, {"type": "Feature", "geometry": {"type": "Point", "coordinates": [10.6770039, 59.9283384]}, "properties": {"role": "candidate", "id": "O4", "node_id": "1348792256", "label": "O-4", "prior_weight": 1.0, "synthetic": true, "kind": "outfall"}}, {"type": "Feature", "geometry": {"type": "Point", "coordinates": [10.6770263, 59.9279227]}, "properties": {"role": "candidate", "id": "O5", "node_id": "1348792255", "label": "O-5", "prior_weight": 1.0, "synthetic": true, "kind": "outfall"}}, {"type": "Feature", "geometry": {"type": "Point", "coordinates": [10.6781345, 59.9268265]}, "properties": {"role": "candidate", "id": "O6", "node_id": "1348792251", "label": "O-6", "prior_weight": 1.0, "synthetic": true, "kind": "outfall"}}, {"type": "Feature", "geometry": {"type": "Point", "coordinates": [10.6789705, 59.9263944]}, "properties": {"role": "candidate", "id": "O7", "node_id": "11362706638", "label": "O-7", "prior_weight": 1.0, "synthetic": true, "kind": "outfall"}}, {"type": "Feature", "geometry": {"type": "Point", "coordinates": [10.6775987, 59.9261394]}, "properties": {"role": "candidate", "id": "O8", "node_id": "1414434058", "label": "O-8", "prior_weight": 1.0, "synthetic": true, "kind": "outfall"}}, {"type": "Feature", "geometry": {"type": "Point", "coordinates": [10.6773443, 59.9257403]}, "properties": {"role": "candidate", "id": "O9", "node_id": "1029938864", "label": "O-9", "prior_weight": 1.0, "synthetic": true, "kind": "outfall"}}, {"type": "Feature", "geometry": {"type": "Point", "coordinates": [10.6780162, 59.9247622]}, "properties": {"role": "candidate", "id": "O10", "node_id": "1029938939", "label": "O-10", "prior_weight": 1.0, "synthetic": true, "kind": "outfall"}}, {"type": "Feature", "geometry": {"type": "Point", "coordinates": [10.6778084, 59.9243149]}, "properties": {"role": "candidate", "id": "O11", "node_id": "1029938983", "label": "O-11", "prior_weight": 1.0, "synthetic": true, "kind": "outfall"}}, {"type": "Feature", "geometry": {"type": "Point", "coordinates": [10.6782617, 59.9240044]}, "properties": {"role": "candidate", "id": "O12", "node_id": "1029938922", "label": "O-12", "prior_weight": 1.0, "synthetic": true, "kind": "outfall"}}, {"type": "Feature", "geometry": {"type": "Point", "coordinates": [10.6792179, 59.9230157]}, "properties": {"role": "candidate", "id": "O13", "node_id": "1029938953", "label": "O-13", "prior_weight": 1.0, "synthetic": true, "kind": "outfall"}}, {"type": "Feature", "geometry": {"type": "Point", "coordinates": [10.6787936, 59.9206949]}, "properties": {"role": "candidate", "id": "O14", "node_id": "1441725553", "label": "O-14", "prior_weight": 1.0, "synthetic": true, "kind": "outfall"}}, {"type": "Feature", "geometry": {"type": "Point", "coordinates": [10.6762928, 59.9192612]}, "properties": {"role": "candidate", "id": "O15", "node_id": "623262574", "label": "O-15", "prior_weight": 1.0, "synthetic": true, "kind": "outfall"}}, {"type": "Feature", "geometry": {"type": "Point", "coordinates": [10.6801693, 59.9210501]}, "properties": {"role": "place", "id": "osm-w993359203", "kind": "playground", "label": "playground", "node_id": "428063130", "weight": 1.0}}, {"type": "Feature", "geometry": {"type": "Point", "coordinates": [10.679806, 59.9268417]}, "properties": {"role": "place", "id": "osm-w1244845046", "kind": "kindergarten", "label": "Sk\u00f8yen terrasse barnehage Sti", "node_id": "11362706639", "weight": 0.9}}]}